id,spot_name,type,company,district,address,apparatus_name,latitude,longitude,twd97X,twd97Y,wgs84aX,wgs84aY
1,水金九-九份(商圈辦公室),NewTaipei,磐石寬頻,瑞芳區,新北市瑞芳區豎崎路15號,新北市政府觀光旅遊局,25.108178,121.843567,335021.23,2778189.23,121.843025,25.10966
2,水金九-水湳洞,NewTaipei,磐石寬頻,瑞芳區,新北市瑞芳區金光路8號,新北市政府觀光旅遊局,25.108416,121.856196,336675.92,2777822.89,121.859407,25.106258
3,水金九-黃金博物館,NewTaipei,磐石寬頻,瑞芳區,新北市瑞芳區洞頂路155之8號,新北市政府觀光旅遊局,25.122478,121.861187,336893.76,2779551.22,121.861676,25.121848
4,新北市政府行政大樓10F-1,NewTaipei,大同資訊,板橋區,新北市板橋區中山路1段161號10樓,新北市政府,25.0122139,121.465731,296995.84,2767196.47,121.465624,25.012081
5,新北市政府行政大樓10F-2,NewTaipei,大同資訊,板橋區,新北市板橋區中山路1段161號10樓,新北市政府,25.0122139,121.465731,296995.84,2767196.47,121.465624,25.012081
6,新北市政府行政大樓10F-3,NewTaipei,大同資訊,板橋區,新北市板橋區中山路1段161號10樓,新北市政府,25.0122139,121.465731,296995.84,2767196.47,121.465624,25.012081
7,新北市政府行政大樓10F-4,NewTaipei,大同資訊,板橋區,新北市板橋區中山路1段161號10樓,新北市政府,25.0122139,121.465731,296995.84,2767196.47,121.465624,25.012081
8,新北市政府行政大樓10F-5,NewTaipei,大同資訊,板橋區,新北市板橋區中山路1段161號10樓,新北市政府,25.0122139,121.465731,296995.84,2767196.47,121.465624,25.012081
9,新北市政府行政大樓10F-6,NewTaipei,大同資訊,板橋區,新北市板橋區中山路1段161號10樓,新北市政府,25.0122139,121.465731,296995.84,2767196.47,121.465624,25.012081
10,新北市政府行政大樓11F-1,NewTaipei,大同資訊,板橋區,新北市板橋區中山路1段161號11樓,新北市政府,25.0122139,121.465731,296995.84,2767196.47,121.465624,25.012081
11,新北市政府行政大樓11F-2,NewTaipei,大同資訊,板橋區,新北市板橋區中山路1段161號11樓,新北市政府,25.0122139,121.465731,296995.84,2767196.47,121.465624,25.012081
12,新北市政府行政大樓11F-3,NewTaipei,大同資訊,板橋區,新北市板橋區中山路1段161號11樓,新北市政府,25.0122139,121.465731,296995.84,2767196.47,121.465624,25.012081
13,新北市政府行政大樓11F-4,NewTaipei,大同資訊,板橋區,新北市板橋區中山路1段161號11樓,新北市政府,25.0122139,121.465731,296995.84,2767196.47,121.465624,25.012081
14,新北市政府行政大樓11F-5,NewTaipei,大同資訊,板橋區,新北市板橋區中山路1段161號11樓,新北市政府,25.0122139,121.465731,296995.84,2767196.47,121.465624,25.012081
15,新北市政府行政大樓11F-6,NewTaipei,大同資訊,板橋區,新北市板橋區中山路1段161號11樓,新北市政府,25.0122139,121.465731,296995.84,2767196.47,121.465624,25.012081
16,新北市政府行政大樓12F-1,NewTaipei,大同資訊,板橋區,新北市板橋區中山路1段161號12樓,新北市政府,25.0122139,121.465731,296995.84,2767196.47,121.465624,25.012081
17,新北市政府行政大樓12F-2,NewTaipei,大同資訊,板橋區,新北市板橋區中山路1段161號12樓,新北市政府,25.0122139,121.465731,296995.84,2767196.47,121.465624,25.012081
18,新北市政府行政大樓12F-3,NewTaipei,大同資訊,板橋區,新北市板橋區中山路1段161號12樓,新北市政府,25.0122139,121.465731,296995.84,2767196.47,121.465624,25.012081
19,新北市政府行政大樓12F-4,NewTaipei,大同資訊,板橋區,新北市板橋區中山路1段161號12樓,新北市政府,25.0122139,121.465731,296995.84,2767196.47,121.465624,25.012081
20,新北市政府行政大樓12F-5,NewTaipei,大同資訊,板橋區,新北市板橋區中山路1段161號12樓,新北市政府,25.0122139,121.465731,296995.84,2767196.47,121.465624,25.012081
21,新北市政府行政大樓12F-6,NewTaipei,大同資訊,板橋區,新北市板橋區中山路1段161號12樓,新北市政府,25.0122139,121.465731,296995.84,2767196.47,121.465624,25.012081
22,新北市政府行政大樓12F-7,NewTaipei,大同資訊,板橋區,新北市板橋區中山路1段161號12樓,新北市政府,25.0122139,121.465731,296995.84,2767196.47,121.465624,25.012081
23,新北市政府行政大樓13F-1,NewTaipei,大同資訊,板橋區,新北市板橋區中山路1段161號13樓,新北市政府,25.0122139,121.465731,296995.84,2767196.47,121.465624,25.012081
24,新北市政府行政大樓13F-2,NewTaipei,大同資訊,板橋區,新北市板橋區中山路1段161號13樓,新北市政府,25.0122139,121.465731,296995.84,2767196.47,121.465624,25.012081
25,新北市政府行政大樓13F-3,NewTaipei,大同資訊,板橋區,新北市板橋區中山路1段161號13樓,新北市政府,25.0122139,121.465731,296995.84,2767196.47,121.465624,25.012081
26,新北市政府行政大樓13F-4,NewTaipei,大同資訊,板橋區,新北市板橋區中山路1段161號13樓,新北市政府,25.0122139,121.465731,296995.84,2767196.47,121.465624,25.012081
27,新北市政府行政大樓13F-5,NewTaipei,大同資訊,板橋區,新北市板橋區中山路1段161號13樓,新北市政府,25.0122139,121.465731,296995.84,2767196.47,121.465624,25.012081
28,新北市政府行政大樓13F-6,NewTaipei,大同資訊,板橋區,新北市板橋區中山路1段161號13樓,新北市政府,25.0122139,121.465731,296995.84,2767196.47,121.465624,25.012081
29,新北市政府行政大樓13F-7,NewTaipei,大同資訊,板橋區,新北市板橋區中山路1段161號13樓,新北市政府,25.0122139,121.465731,296995.84,2767196.47,121.465624,25.012081
30,新北市政府行政大樓14F-1,NewTaipei,大同資訊,板橋區,新北市板橋區中山路1段161號14樓,新北市政府,25.0122139,121.465731,296995.84,2767196.47,121.465624,25.012081
31,新北市政府行政大樓14F-2,NewTaipei,大同資訊,板橋區,新北市板橋區中山路1段161號14樓,新北市政府,25.0122139,121.465731,296995.84,2767196.47,121.465624,25.012081
32,新北市政府行政大樓14F-3,NewTaipei,大同資訊,板橋區,新北市板橋區中山路1段161號14樓,新北市政府,25.0122139,121.465731,296995.84,2767196.47,121.465624,25.012081
33,新北市政府行政大樓14F-4,NewTaipei,大同資訊,板橋區,新北市板橋區中山路1段161號14樓,新北市政府,25.0122139,121.465731,296995.84,2767196.47,121.465624,25.012081
34,新北市政府行政大樓14F-5,NewTaipei,大同資訊,板橋區,新北市板橋區中山路1段161號14樓,新北市政府,25.0122139,121.465731,296995.84,2767196.47,121.465624,25.012081
35,新北市政府行政大樓14F-6,NewTaipei,大同資訊,板橋區,新北市板橋區中山路1段161號14樓,新北市政府,25.0122139,121.465731,296995.84,2767196.47,121.465624,25.012081
36,新北市政府行政大樓14F-7,NewTaipei,大同資訊,板橋區,新北市板橋區中山路1段161號14樓,新北市政府,25.0122139,121.465731,296995.84,2767196.47,121.465624,25.012081
37,新北市政府行政大樓15F-1,NewTaipei,大同資訊,板橋區,新北市板橋區中山路1段161號15樓,新北市政府,25.0122139,121.465731,296995.84,2767196.47,121.465624,25.012081
38,新北市政府行政大樓15F-2,NewTaipei,大同資訊,板橋區,新北市板橋區中山路1段161號15樓,新北市政府,25.0122139,121.465731,296995.84,2767196.47,121.465624,25.012081
39,新北市政府行政大樓15F-3,NewTaipei,大同資訊,板橋區,新北市板橋區中山路1段161號15樓,新北市政府,25.0122139,121.465731,296995.84,2767196.47,121.465624,25.012081
40,新北市政府行政大樓15F-4,NewTaipei,大同資訊,板橋區,新北市板橋區中山路1段161號15樓,新北市政府,25.0122139,121.465731,296995.84,2767196.47,121.465624,25.012081
41,新北市政府行政大樓15F-5,NewTaipei,大同資訊,板橋區,新北市板橋區中山路1段161號15樓,新北市政府,25.0122139,121.465731,296995.84,2767196.47,121.465624,25.012081
42,新北市政府行政大樓15F-6,NewTaipei,大同資訊,板橋區,新北市板橋區中山路1段161號15樓,新北市政府,25.0122139,121.465731,296995.84,2767196.47,121.465624,25.012081
43,新北市政府行政大樓15F-7,NewTaipei,大同資訊,板橋區,新北市板橋區中山路1段161號15樓,新北市政府,25.0122139,121.465731,296995.84,2767196.47,121.465624,25.012081
44,新北市政府行政大樓16F-1,NewTaipei,大同資訊,板橋區,新北市板橋區中山路1段161號16樓,新北市政府,25.0122139,121.465731,296995.84,2767196.47,121.465624,25.012081
45,新北市政府行政大樓16F-2,NewTaipei,大同資訊,板橋區,新北市板橋區中山路1段161號16樓,新北市政府,25.0122139,121.465731,296995.84,2767196.47,121.465624,25.012081
46,新北市政府行政大樓16F-3,NewTaipei,大同資訊,板橋區,新北市板橋區中山路1段161號16樓,新北市政府,25.0122139,121.465731,296995.84,2767196.47,121.465624,25.012081
47,新北市政府行政大樓16F-4,NewTaipei,大同資訊,板橋區,新北市板橋區中山路1段161號16樓,新北市政府,25.0122139,121.465731,296995.84,2767196.47,121.465624,25.012081
48,新北市政府行政大樓16F-5,NewTaipei,大同資訊,板橋區,新北市板橋區中山路1段161號16樓,新北市政府,25.0122139,121.465731,296995.84,2767196.47,121.465624,25.012081
49,新北市政府行政大樓16F-6,NewTaipei,大同資訊,板橋區,新北市板橋區中山路1段161號16樓,新北市政府,25.0122139,121.465731,296995.84,2767196.47,121.465624,25.012081
50,新北市政府行政大樓16F-7,NewTaipei,大同資訊,板橋區,新北市板橋區中山路1段161號16樓,新北市政府,25.0122139,121.465731,296995.84,2767196.47,121.465624,25.012081
51,新北市政府行政大樓16F-8,NewTaipei,大同資訊,板橋區,新北市板橋區中山路1段161號16樓,新北市政府,25.0122139,121.465731,296995.84,2767196.47,121.465624,25.012081
52,新北市政府行政大樓16F-9,NewTaipei,大同資訊,板橋區,新北市板橋區中山路1段161號16樓,新北市政府,25.0122139,121.465731,296995.84,2767196.47,121.465624,25.012081
53,新北市政府行政大樓17F-1,NewTaipei,大同資訊,板橋區,新北市板橋區中山路1段161號17樓,新北市政府,25.0122139,121.465731,296995.84,2767196.47,121.465624,25.012081
54,新北市政府行政大樓17F-2,NewTaipei,大同資訊,板橋區,新北市板橋區中山路1段161號17樓,新北市政府,25.0122139,121.465731,296995.84,2767196.47,121.465624,25.012081
55,新北市政府行政大樓17F-3,NewTaipei,大同資訊,板橋區,新北市板橋區中山路1段161號17樓,新北市政府,25.0122139,121.465731,296995.84,2767196.47,121.465624,25.012081
56,新北市政府行政大樓17F-4,NewTaipei,大同資訊,板橋區,新北市板橋區中山路1段161號17樓,新北市政府,25.0122139,121.465731,296995.84,2767196.47,121.465624,25.012081
57,新北市政府行政大樓17F-5,NewTaipei,大同資訊,板橋區,新北市板橋區中山路1段161號17樓,新北市政府,25.0122139,121.465731,296995.84,2767196.47,121.465624,25.012081
58,新北市政府行政大樓17F-6,NewTaipei,大同資訊,板橋區,新北市板橋區中山路1段161號17樓,新北市政府,25.0122139,121.465731,296995.84,2767196.47,121.465624,25.012081
59,新北市政府行政大樓18F-1,NewTaipei,大同資訊,板橋區,新北市板橋區中山路1段161號18樓,新北市政府,25.0122139,121.465731,296995.84,2767196.47,121.465624,25.012081
60,新北市政府行政大樓18F-2,NewTaipei,大同資訊,板橋區,新北市板橋區中山路1段161號18樓,新北市政府,25.0122139,121.465731,296995.84,2767196.47,121.465624,25.012081
61,新北市政府行政大樓18F-3,NewTaipei,大同資訊,板橋區,新北市板橋區中山路1段161號18樓,新北市政府,25.0122139,121.465731,296995.84,2767196.47,121.465624,25.012081
62,新北市政府行政大樓18F-4,NewTaipei,大同資訊,板橋區,新北市板橋區中山路1段161號18樓,新北市政府,25.0122139,121.465731,296995.84,2767196.47,121.465624,25.012081
63,新北市政府行政大樓18F-5,NewTaipei,大同資訊,板橋區,新北市板橋區中山路1段161號18樓,新北市政府,25.0122139,121.465731,296995.84,2767196.47,121.465624,25.012081
64,新北市政府行政大樓18F-6,NewTaipei,大同資訊,板橋區,新北市板橋區中山路1段161號18樓,新北市政府,25.0122139,121.465731,296995.84,2767196.47,121.465624,25.012081
65,新北市政府行政大樓18F-7,NewTaipei,大同資訊,板橋區,新北市板橋區中山路1段161號18樓,新北市政府,25.0122139,121.465731,296995.84,2767196.47,121.465624,25.012081
66,新北市政府行政大樓18F-8,NewTaipei,大同資訊,板橋區,新北市板橋區中山路1段161號18樓,新北市政府,25.0122139,121.465731,296995.84,2767196.47,121.465624,25.012081
67,新北市政府行政大樓18F-9,NewTaipei,大同資訊,板橋區,新北市板橋區中山路1段161號18樓,新北市政府,25.0122139,121.465731,296995.84,2767196.47,121.465624,25.012081
68,新北市政府行政大樓18F-10,NewTaipei,大同資訊,板橋區,新北市板橋區中山路1段161號18樓,新北市政府,25.0122139,121.465731,296995.84,2767196.47,121.465624,25.012081
69,新北市政府行政大樓19F-1,NewTaipei,大同資訊,板橋區,新北市板橋區中山路1段161號19樓,新北市政府,25.0122139,121.465731,296995.84,2767196.47,121.465624,25.012081
70,新北市政府行政大樓19F-2,NewTaipei,大同資訊,板橋區,新北市板橋區中山路1段161號19樓,新北市政府,25.0122139,121.465731,296995.84,2767196.47,121.465624,25.012081
71,新北市政府行政大樓19F-3,NewTaipei,大同資訊,板橋區,新北市板橋區中山路1段161號19樓,新北市政府,25.0122139,121.465731,296995.84,2767196.47,121.465624,25.012081
72,新北市政府行政大樓19F-4,NewTaipei,大同資訊,板橋區,新北市板橋區中山路1段161號19樓,新北市政府,25.0122139,121.465731,296995.84,2767196.47,121.465624,25.012081
73,新北市政府行政大樓19F-5,NewTaipei,大同資訊,板橋區,新北市板橋區中山路1段161號19樓,新北市政府,25.0122139,121.465731,296995.84,2767196.47,121.465624,25.012081
74,新北市政府行政大樓19F-6,NewTaipei,大同資訊,板橋區,新北市板橋區中山路1段161號19樓,新北市政府,25.0122139,121.465731,296995.84,2767196.47,121.465624,25.012081
75,新北市政府行政大樓19F-7,NewTaipei,大同資訊,板橋區,新北市板橋區中山路1段161號19樓,新北市政府,25.0122139,121.465731,296995.84,2767196.47,121.465624,25.012081
76,新北市政府行政大樓1F-1,NewTaipei,大同資訊,板橋區,新北市板橋區中山路1段161號1樓,新北市政府,25.0122139,121.465731,296995.84,2767196.47,121.465624,25.012081
77,新北市政府行政大樓1F-10,NewTaipei,大同資訊,板橋區,新北市板橋區中山路1段161號1樓,新北市政府,25.0122139,121.465731,296995.84,2767196.47,121.465624,25.012081
78,新北市政府行政大樓1F-11,NewTaipei,大同資訊,板橋區,新北市板橋區中山路1段161號1樓,新北市政府,25.0122139,121.465731,296995.84,2767196.47,121.465624,25.012081
79,新北市政府行政大樓1F-2,NewTaipei,大同資訊,板橋區,新北市板橋區中山路1段161號1樓,新北市政府,25.0122139,121.465731,296995.84,2767196.47,121.465624,25.012081
80,新北市政府行政大樓1F-3,NewTaipei,大同資訊,板橋區,新北市板橋區中山路1段161號1樓,新北市政府,25.0122139,121.465731,296995.84,2767196.47,121.465624,25.012081
81,新北市政府行政大樓1F-4,NewTaipei,大同資訊,板橋區,新北市板橋區中山路1段161號1樓,新北市政府,25.0122139,121.465731,296995.84,2767196.47,121.465624,25.012081
82,新北市政府行政大樓1F-5,NewTaipei,大同資訊,板橋區,新北市板橋區中山路1段161號1樓,新北市政府,25.0122139,121.465731,296995.84,2767196.47,121.465624,25.012081
83,新北市政府行政大樓1F-6,NewTaipei,大同資訊,板橋區,新北市板橋區中山路1段161號1樓,新北市政府,25.0122139,121.465731,296995.84,2767196.47,121.465624,25.012081
84,新北市政府行政大樓1F-7,NewTaipei,大同資訊,板橋區,新北市板橋區中山路1段161號1樓,新北市政府,25.0122139,121.465731,296995.84,2767196.47,121.465624,25.012081
85,新北市政府行政大樓1F-8,NewTaipei,大同資訊,板橋區,新北市板橋區中山路1段161號1樓,新北市政府,25.0122139,121.465731,296995.84,2767196.47,121.465624,25.012081
86,新北市政府行政大樓1F-9,NewTaipei,大同資訊,板橋區,新北市板橋區中山路1段161號1樓,新北市政府,25.0122139,121.465731,296995.84,2767196.47,121.465624,25.012081
87,新北市政府行政大樓20F-1,NewTaipei,大同資訊,板橋區,新北市板橋區中山路1段161號20樓,新北市政府,25.0122139,121.465731,296995.84,2767196.47,121.465624,25.012081
88,新北市政府行政大樓20F-2,NewTaipei,大同資訊,板橋區,新北市板橋區中山路1段161號20樓,新北市政府,25.0122139,121.465731,296995.84,2767196.47,121.465624,25.012081
89,新北市政府行政大樓21F-1,NewTaipei,大同資訊,板橋區,新北市板橋區中山路1段161號21樓,新北市政府,25.0122139,121.465731,296995.84,2767196.47,121.465624,25.012081
90,新北市政府行政大樓21F-2,NewTaipei,大同資訊,板橋區,新北市板橋區中山路1段161號21樓,新北市政府,25.0122139,121.465731,296995.84,2767196.47,121.465624,25.012081
91,新北市政府行政大樓21F-3,NewTaipei,大同資訊,板橋區,新北市板橋區中山路1段161號21樓,新北市政府,25.0122139,121.465731,296995.84,2767196.47,121.465624,25.012081
92,新北市政府行政大樓21F-4,NewTaipei,大同資訊,板橋區,新北市板橋區中山路1段161號21樓,新北市政府,25.0122139,121.465731,296995.84,2767196.47,121.465624,25.012081
93,新北市政府行政大樓21F-5,NewTaipei,大同資訊,板橋區,新北市板橋區中山路1段161號21樓,新北市政府,25.0122139,121.465731,296995.84,2767196.47,121.465624,25.012081
94,新北市政府行政大樓21F-6,NewTaipei,大同資訊,板橋區,新北市板橋區中山路1段161號21樓,新北市政府,25.0122139,121.465731,296995.84,2767196.47,121.465624,25.012081
95,新北市政府行政大樓21F-7,NewTaipei,大同資訊,板橋區,新北市板橋區中山路1段161號21樓,新北市政府,25.0122139,121.465731,296995.84,2767196.47,121.465624,25.012081
96,新北市政府行政大樓22F-1,NewTaipei,大同資訊,板橋區,新北市板橋區中山路1段161號22樓,新北市政府,25.0122139,121.465731,296995.84,2767196.47,121.465624,25.012081
97,新北市政府行政大樓22F-2,NewTaipei,大同資訊,板橋區,新北市板橋區中山路1段161號22樓,新北市政府,25.0122139,121.465731,296995.84,2767196.47,121.465624,25.012081
98,新北市政府行政大樓22F-3,NewTaipei,大同資訊,板橋區,新北市板橋區中山路1段161號22樓,新北市政府,25.0122139,121.465731,296995.84,2767196.47,121.465624,25.012081
99,新北市政府行政大樓22F-4,NewTaipei,大同資訊,板橋區,新北市板橋區中山路1段161號22樓,新北市政府,25.0122139,121.465731,296995.84,2767196.47,121.465624,25.012081
100,新北市政府行政大樓22F-5,NewTaipei,大同資訊,板橋區,新北市板橋區中山路1段161號22樓,新北市政府,25.0122139,121.465731,296995.84,2767196.47,121.465624,25.012081
101,新北市政府行政大樓22F-6,NewTaipei,大同資訊,板橋區,新北市板橋區中山路1段161號22樓,新北市政府,25.0122139,121.465731,296995.84,2767196.47,121.465624,25.012081
102,新北市政府行政大樓22F-7,NewTaipei,大同資訊,板橋區,新北市板橋區中山路1段161號22樓,新北市政府,25.0122139,121.465731,296995.84,2767196.47,121.465624,25.012081
103,新北市政府行政大樓23F-1,NewTaipei,大同資訊,板橋區,新北市板橋區中山路1段161號23樓,新北市政府,25.0122139,121.465731,296995.84,2767196.47,121.465624,25.012081
104,新北市政府行政大樓23F-2,NewTaipei,大同資訊,板橋區,新北市板橋區中山路1段161號23樓,新北市政府,25.0122139,121.465731,296995.84,2767196.47,121.465624,25.012081
105,新北市政府行政大樓23F-3,NewTaipei,大同資訊,板橋區,新北市板橋區中山路1段161號23樓,新北市政府,25.0122139,121.465731,296995.84,2767196.47,121.465624,25.012081
106,新北市政府行政大樓23F-4,NewTaipei,大同資訊,板橋區,新北市板橋區中山路1段161號23樓,新北市政府,25.0122139,121.465731,296995.84,2767196.47,121.465624,25.012081
107,新北市政府行政大樓23F-5,NewTaipei,大同資訊,板橋區,新北市板橋區中山路1段161號23樓,新北市政府,25.0122139,121.465731,296995.84,2767196.47,121.465624,25.012081
108,新北市政府行政大樓23F-6,NewTaipei,大同資訊,板橋區,新北市板橋區中山路1段161號23樓,新北市政府,25.0122139,121.465731,296995.84,2767196.47,121.465624,25.012081
109,新北市政府行政大樓24F-1,NewTaipei,大同資訊,板橋區,新北市板橋區中山路1段161號24樓,新北市政府,25.0122139,121.465731,296995.84,2767196.47,121.465624,25.012081
110,新北市政府行政大樓24F-2,NewTaipei,大同資訊,板橋區,新北市板橋區中山路1段161號24樓,新北市政府,25.0122139,121.465731,296995.84,2767196.47,121.465624,25.012081
111,新北市政府行政大樓24F-3,NewTaipei,大同資訊,板橋區,新北市板橋區中山路1段161號24樓,新北市政府,25.0122139,121.465731,296995.84,2767196.47,121.465624,25.012081
112,新北市政府行政大樓24F-4,NewTaipei,大同資訊,板橋區,新北市板橋區中山路1段161號24樓,新北市政府,25.0122139,121.465731,296995.84,2767196.47,121.465624,25.012081
113,新北市政府行政大樓24F-5,NewTaipei,大同資訊,板橋區,新北市板橋區中山路1段161號24樓,新北市政府,25.0122139,121.465731,296995.84,2767196.47,121.465624,25.012081
114,新北市政府行政大樓24F-6,NewTaipei,大同資訊,板橋區,新北市板橋區中山路1段161號24樓,新北市政府,25.0122139,121.465731,296995.84,2767196.47,121.465624,25.012081
115,新北市政府行政大樓25F-1,NewTaipei,大同資訊,板橋區,新北市板橋區中山路1段161號25樓,新北市政府,25.0122139,121.465731,296995.84,2767196.47,121.465624,25.012081
116,新北市政府行政大樓25F-2,NewTaipei,大同資訊,板橋區,新北市板橋區中山路1段161號25樓,新北市政府,25.0122139,121.465731,296995.84,2767196.47,121.465624,25.012081
117,新北市政府行政大樓25F-3,NewTaipei,大同資訊,板橋區,新北市板橋區中山路1段161號25樓,新北市政府,25.0122139,121.465731,296995.84,2767196.47,121.465624,25.012081
118,新北市政府行政大樓25F-4,NewTaipei,大同資訊,板橋區,新北市板橋區中山路1段161號25樓,新北市政府,25.0122139,121.465731,296995.84,2767196.47,121.465624,25.012081
119,新北市政府行政大樓25F-5,NewTaipei,大同資訊,板橋區,新北市板橋區中山路1段161號25樓,新北市政府,25.0122139,121.465731,296995.84,2767196.47,121.465624,25.012081
120,新北市政府行政大樓25F-6,NewTaipei,大同資訊,板橋區,新北市板橋區中山路1段161號25樓,新北市政府,25.0122139,121.465731,296995.84,2767196.47,121.465624,25.012081
121,新北市政府行政大樓26F-1,NewTaipei,大同資訊,板橋區,新北市板橋區中山路1段161號26樓,新北市政府,25.0122139,121.465731,296995.84,2767196.47,121.465624,25.012081
122,新北市政府行政大樓26F-2,NewTaipei,大同資訊,板橋區,新北市板橋區中山路1段161號26樓,新北市政府,25.0122139,121.465731,296995.84,2767196.47,121.465624,25.012081
123,新北市政府行政大樓26F-3,NewTaipei,大同資訊,板橋區,新北市板橋區中山路1段161號26樓,新北市政府,25.0122139,121.465731,296995.84,2767196.47,121.465624,25.012081
124,新北市政府行政大樓26F-4,NewTaipei,大同資訊,板橋區,新北市板橋區中山路1段161號26樓,新北市政府,25.0122139,121.465731,296995.84,2767196.47,121.465624,25.012081
125,新北市政府行政大樓26F-5,NewTaipei,大同資訊,板橋區,新北市板橋區中山路1段161號26樓,新北市政府,25.0122139,121.465731,296995.84,2767196.47,121.465624,25.012081
126,新北市政府行政大樓26F-6,NewTaipei,大同資訊,板橋區,新北市板橋區中山路1段161號26樓,新北市政府,25.0122139,121.465731,296995.84,2767196.47,121.465624,25.012081
127,新北市政府行政大樓27F-1,NewTaipei,大同資訊,板橋區,新北市板橋區中山路1段161號27樓,新北市政府,25.0122139,121.465731,296995.84,2767196.47,121.465624,25.012081
128,新北市政府行政大樓27F-2,NewTaipei,大同資訊,板橋區,新北市板橋區中山路1段161號27樓,新北市政府,25.0122139,121.465731,296995.84,2767196.47,121.465624,25.012081
129,新北市政府行政大樓27F-3,NewTaipei,大同資訊,板橋區,新北市板橋區中山路1段161號27樓,新北市政府,25.0122139,121.465731,296995.84,2767196.47,121.465624,25.012081
130,新北市政府行政大樓27F-4,NewTaipei,大同資訊,板橋區,新北市板橋區中山路1段161號27樓,新北市政府,25.0122139,121.465731,296995.84,2767196.47,121.465624,25.012081
131,新北市政府行政大樓27F-5,NewTaipei,大同資訊,板橋區,新北市板橋區中山路1段161號27樓,新北市政府,25.0122139,121.465731,296995.84,2767196.47,121.465624,25.012081
132,新北市政府行政大樓28F-1,NewTaipei,大同資訊,板橋區,新北市板橋區中山路1段161號28樓,新北市政府,25.0122139,121.465731,296995.84,2767196.47,121.465624,25.012081
133,新北市政府行政大樓28F-2,NewTaipei,大同資訊,板橋區,新北市板橋區中山路1段161號28樓,新北市政府,25.0122139,121.465731,296995.84,2767196.47,121.465624,25.012081
134,新北市政府行政大樓28F-3,NewTaipei,大同資訊,板橋區,新北市板橋區中山路1段161號28樓,新北市政府,25.0122139,121.465731,296995.84,2767196.47,121.465624,25.012081
135,新北市政府行政大樓28F-4,NewTaipei,大同資訊,板橋區,新北市板橋區中山路1段161號28樓,新北市政府,25.0122139,121.465731,296995.84,2767196.47,121.465624,25.012081
136,新北市政府行政大樓28F-5,NewTaipei,大同資訊,板橋區,新北市板橋區中山路1段161號28樓,新北市政府,25.0122139,121.465731,296995.84,2767196.47,121.465624,25.012081
137,新北市政府行政大樓29F-1,NewTaipei,大同資訊,板橋區,新北市板橋區中山路1段161號29樓,新北市政府,25.0122139,121.465731,296995.84,2767196.47,121.465624,25.012081
138,新北市政府行政大樓29F-2,NewTaipei,大同資訊,板橋區,新北市板橋區中山路1段161號29樓,新北市政府,25.0122139,121.465731,296995.84,2767196.47,121.465624,25.012081
139,新北市政府行政大樓29F-3,NewTaipei,大同資訊,板橋區,新北市板橋區中山路1段161號29樓,新北市政府,25.0122139,121.465731,296995.84,2767196.47,121.465624,25.012081
140,新北市政府行政大樓29F-4,NewTaipei,大同資訊,板橋區,新北市板橋區中山路1段161號29樓,新北市政府,25.0122139,121.465731,296995.84,2767196.47,121.465624,25.012081
141,新北市政府行政大樓29F-5,NewTaipei,大同資訊,板橋區,新北市板橋區中山路1段161號29樓,新北市政府,25.0122139,121.465731,296995.84,2767196.47,121.465624,25.012081
142,新北市政府行政大樓2F-1,NewTaipei,大同資訊,板橋區,新北市板橋區中山路1段161號2樓,新北市政府,25.0122139,121.465731,296995.84,2767196.47,121.465624,25.012081
143,新北市政府行政大樓2F-10,NewTaipei,大同資訊,板橋區,新北市板橋區中山路1段161號2樓,新北市政府,25.0122139,121.465731,296995.84,2767196.47,121.465624,25.012081
144,新北市政府行政大樓2F-11,NewTaipei,大同資訊,板橋區,新北市板橋區中山路1段161號2樓,新北市政府,25.0122139,121.465731,296995.84,2767196.47,121.465624,25.012081
145,新北市政府行政大樓2F-2,NewTaipei,大同資訊,板橋區,新北市板橋區中山路1段161號2樓,新北市政府,25.0122139,121.465731,296995.84,2767196.47,121.465624,25.012081
146,新北市政府行政大樓2F-3,NewTaipei,大同資訊,板橋區,新北市板橋區中山路1段161號2樓,新北市政府,25.0122139,121.465731,296995.84,2767196.47,121.465624,25.012081
147,新北市政府行政大樓2F-4,NewTaipei,大同資訊,板橋區,新北市板橋區中山路1段161號2樓,新北市政府,25.0122139,121.465731,296995.84,2767196.47,121.465624,25.012081
148,新北市政府行政大樓2F-5,NewTaipei,大同資訊,板橋區,新北市板橋區中山路1段161號2樓,新北市政府,25.0122139,121.465731,296995.84,2767196.47,121.465624,25.012081
149,新北市政府行政大樓2F-6,NewTaipei,大同資訊,板橋區,新北市板橋區中山路1段161號2樓,新北市政府,25.0122139,121.465731,296995.84,2767196.47,121.465624,25.012081
150,新北市政府行政大樓2F-7,NewTaipei,大同資訊,板橋區,新北市板橋區中山路1段161號2樓,新北市政府,25.0122139,121.465731,296995.84,2767196.47,121.465624,25.012081
151,新北市政府行政大樓2F-8,NewTaipei,大同資訊,板橋區,新北市板橋區中山路1段161號2樓,新北市政府,25.0122139,121.465731,296995.84,2767196.47,121.465624,25.012081
152,新北市政府行政大樓2F-9,NewTaipei,大同資訊,板橋區,新北市板橋區中山路1段161號2樓,新北市政府,25.0122139,121.465731,296995.84,2767196.47,121.465624,25.012081
153,新北市政府行政大樓30F-1,NewTaipei,大同資訊,板橋區,新北市板橋區中山路1段161號30樓,新北市政府,25.0122139,121.465731,296995.84,2767196.47,121.465624,25.012081
154,新北市政府行政大樓30F-2,NewTaipei,大同資訊,板橋區,新北市板橋區中山路1段161號30樓,新北市政府,25.0122139,121.465731,296995.84,2767196.47,121.465624,25.012081
155,新北市政府行政大樓30F-3,NewTaipei,大同資訊,板橋區,新北市板橋區中山路1段161號30樓,新北市政府,25.0122139,121.465731,296995.84,2767196.47,121.465624,25.012081
156,新北市政府行政大樓30F-4,NewTaipei,大同資訊,板橋區,新北市板橋區中山路1段161號30樓,新北市政府,25.0122139,121.465731,296995.84,2767196.47,121.465624,25.012081
157,新北市政府行政大樓32F-1,NewTaipei,大同資訊,板橋區,新北市板橋區中山路1段161號32樓,新北市政府,25.0122139,121.465731,296995.84,2767196.47,121.465624,25.012081
158,新北市政府行政大樓32F-2,NewTaipei,大同資訊,板橋區,新北市板橋區中山路1段161號32樓,新北市政府,25.0122139,121.465731,296995.84,2767196.47,121.465624,25.012081
159,新北市政府行政大樓3F-1,NewTaipei,大同資訊,板橋區,新北市板橋區中山路1段161號3樓,新北市政府,25.0122139,121.465731,296995.84,2767196.47,121.465624,25.012081
160,新北市政府行政大樓3F-2,NewTaipei,大同資訊,板橋區,新北市板橋區中山路1段161號3樓,新北市政府,25.0122139,121.465731,296995.84,2767196.47,121.465624,25.012081
161,新北市政府行政大樓3F-3,NewTaipei,大同資訊,板橋區,新北市板橋區中山路1段161號3樓,新北市政府,25.0122139,121.465731,296995.84,2767196.47,121.465624,25.012081
162,新北市政府行政大樓3F-4,NewTaipei,大同資訊,板橋區,新北市板橋區中山路1段161號3樓,新北市政府,25.0122139,121.465731,296995.84,2767196.47,121.465624,25.012081
163,新北市政府行政大樓3F-5,NewTaipei,大同資訊,板橋區,新北市板橋區中山路1段161號3樓,新北市政府,25.0122139,121.465731,296995.84,2767196.47,121.465624,25.012081
164,新北市政府行政大樓3F-6,NewTaipei,大同資訊,板橋區,新北市板橋區中山路1段161號3樓,新北市政府,25.0122139,121.465731,296995.84,2767196.47,121.465624,25.012081
165,新北市政府行政大樓3F-7,NewTaipei,大同資訊,板橋區,新北市板橋區中山路1段161號3樓,新北市政府,25.0122139,121.465731,296995.84,2767196.47,121.465624,25.012081
166,新北市政府行政大樓3F-8,NewTaipei,大同資訊,板橋區,新北市板橋區中山路1段161號3樓,新北市政府,25.0122139,121.465731,296995.84,2767196.47,121.465624,25.012081
167,新北市政府行政大樓3F-9,NewTaipei,大同資訊,板橋區,新北市板橋區中山路1段161號3樓,新北市政府,25.0122139,121.465731,296995.84,2767196.47,121.465624,25.012081
168,新北市政府行政大樓3F-10,NewTaipei,大同資訊,板橋區,新北市板橋區中山路1段161號3樓,新北市政府,25.0122139,121.465731,296995.84,2767196.47,121.465624,25.012081
169,新北市政府行政大樓3F-11,NewTaipei,大同資訊,板橋區,新北市板橋區中山路1段161號3樓,新北市政府,25.0122139,121.465731,296995.84,2767196.47,121.465624,25.012081
170,新北市政府行政大樓4F-1,NewTaipei,大同資訊,板橋區,新北市板橋區中山路1段161號4樓,新北市政府,25.0122139,121.465731,296995.84,2767196.47,121.465624,25.012081
171,新北市政府行政大樓4F-10,NewTaipei,大同資訊,板橋區,新北市板橋區中山路1段161號4樓,新北市政府,25.0122139,121.465731,296995.84,2767196.47,121.465624,25.012081
172,新北市政府行政大樓4F-11,NewTaipei,大同資訊,板橋區,新北市板橋區中山路1段161號4樓,新北市政府,25.0122139,121.465731,296995.84,2767196.47,121.465624,25.012081
173,新北市政府行政大樓4F-12,NewTaipei,大同資訊,板橋區,新北市板橋區中山路1段161號4樓,新北市政府,25.0122139,121.465731,296995.84,2767196.47,121.465624,25.012081
174,新北市政府行政大樓4F-2,NewTaipei,大同資訊,板橋區,新北市板橋區中山路1段161號4樓,新北市政府,25.0122139,121.465731,296995.84,2767196.47,121.465624,25.012081
175,新北市政府行政大樓4F-3,NewTaipei,大同資訊,板橋區,新北市板橋區中山路1段161號4樓,新北市政府,25.0122139,121.465731,296995.84,2767196.47,121.465624,25.012081
176,新北市政府行政大樓4F-4,NewTaipei,大同資訊,板橋區,新北市板橋區中山路1段161號4樓,新北市政府,25.0122139,121.465731,296995.84,2767196.47,121.465624,25.012081
177,新北市政府行政大樓4F-5,NewTaipei,大同資訊,板橋區,新北市板橋區中山路1段161號4樓,新北市政府,25.0122139,121.465731,296995.84,2767196.47,121.465624,25.012081
178,新北市政府行政大樓4F-6,NewTaipei,大同資訊,板橋區,新北市板橋區中山路1段161號4樓,新北市政府,25.0122139,121.465731,296995.84,2767196.47,121.465624,25.012081
179,新北市政府行政大樓4F-7,NewTaipei,大同資訊,板橋區,新北市板橋區中山路1段161號4樓,新北市政府,25.0122139,121.465731,296995.84,2767196.47,121.465624,25.012081
180,新北市政府行政大樓4F-8,NewTaipei,大同資訊,板橋區,新北市板橋區中山路1段161號4樓,新北市政府,25.0122139,121.465731,296995.84,2767196.47,121.465624,25.012081
181,新北市政府行政大樓4F-9,NewTaipei,大同資訊,板橋區,新北市板橋區中山路1段161號4樓,新北市政府,25.0122139,121.465731,296995.84,2767196.47,121.465624,25.012081
182,新北市政府行政大樓5F-1,NewTaipei,大同資訊,板橋區,新北市板橋區中山路1段161號5樓,新北市政府,25.0122139,121.465731,296995.84,2767196.47,121.465624,25.012081
183,新北市政府行政大樓5F-10,NewTaipei,大同資訊,板橋區,新北市板橋區中山路1段161號5樓,新北市政府,25.0122139,121.465731,296995.84,2767196.47,121.465624,25.012081
184,新北市政府行政大樓5F-11,NewTaipei,大同資訊,板橋區,新北市板橋區中山路1段161號5樓,新北市政府,25.0122139,121.465731,296995.84,2767196.47,121.465624,25.012081
185,新北市政府行政大樓5F-12,NewTaipei,大同資訊,板橋區,新北市板橋區中山路1段161號5樓,新北市政府,25.0122139,121.465731,296995.84,2767196.47,121.465624,25.012081
186,新北市政府行政大樓5F-2,NewTaipei,大同資訊,板橋區,新北市板橋區中山路1段161號5樓,新北市政府,25.0122139,121.465731,296995.84,2767196.47,121.465624,25.012081
187,新北市政府行政大樓5F-3,NewTaipei,大同資訊,板橋區,新北市板橋區中山路1段161號5樓,新北市政府,25.0122139,121.465731,296995.84,2767196.47,121.465624,25.012081
188,新北市政府行政大樓5F-4,NewTaipei,大同資訊,板橋區,新北市板橋區中山路1段161號5樓,新北市政府,25.0122139,121.465731,296995.84,2767196.47,121.465624,25.012081
189,新北市政府行政大樓5F-5,NewTaipei,大同資訊,板橋區,新北市板橋區中山路1段161號5樓,新北市政府,25.0122139,121.465731,296995.84,2767196.47,121.465624,25.012081
190,新北市政府行政大樓5F-6,NewTaipei,大同資訊,板橋區,新北市板橋區中山路1段161號5樓,新北市政府,25.0122139,121.465731,296995.84,2767196.47,121.465624,25.012081
191,新北市政府行政大樓5F-7,NewTaipei,大同資訊,板橋區,新北市板橋區中山路1段161號5樓,新北市政府,25.0122139,121.465731,296995.84,2767196.47,121.465624,25.012081
192,新北市政府行政大樓5F-8,NewTaipei,大同資訊,板橋區,新北市板橋區中山路1段161號5樓,新北市政府,25.0122139,121.465731,296995.84,2767196.47,121.465624,25.012081
193,新北市政府行政大樓5F-9,NewTaipei,大同資訊,板橋區,新北市板橋區中山路1段161號5樓,新北市政府,25.0122139,121.465731,296995.84,2767196.47,121.465624,25.012081
194,新北市政府行政大樓6F-1,NewTaipei,大同資訊,板橋區,新北市板橋區中山路1段161號6樓,新北市政府,25.0122139,121.465731,296495.28,2767362.69,121.46067,25.013597
195,新北市政府行政大樓6F-2,NewTaipei,大同資訊,板橋區,新北市板橋區中山路1段161號6樓,新北市政府,25.0122139,121.465731,296995.84,2767196.47,121.465624,25.012081
196,新北市政府行政大樓6F-3,NewTaipei,大同資訊,板橋區,新北市板橋區中山路1段161號6樓,新北市政府,25.0122139,121.465731,297239.82,2768321.15,121.468079,25.022227
197,新北市政府行政大樓6F-4,NewTaipei,大同資訊,板橋區,新北市板橋區中山路1段161號6樓,新北市政府,25.0122139,121.465731,296995.84,2767196.47,121.465624,25.012081
198,新北市政府行政大樓6F-5,NewTaipei,大同資訊,板橋區,新北市板橋區中山路1段161號6樓,新北市政府,25.0122139,121.465731,296995.84,2767196.47,121.465624,25.012081
199,新北市政府行政大樓6F-6,NewTaipei,大同資訊,板橋區,新北市板橋區中山路1段161號6樓,新北市政府,25.0122139,121.465731,296995.84,2767196.47,121.465624,25.012081
200,新北市政府行政大樓6F-7,NewTaipei,大同資訊,板橋區,新北市板橋區中山路1段161號6樓,新北市政府,25.0122139,121.465731,296995.84,2767196.47,121.465624,25.012081
201,新北市政府行政大樓6F-8,NewTaipei,大同資訊,板橋區,新北市板橋區中山路1段161號6樓,新北市政府,25.0122139,121.465731,297239.82,2768321.15,121.468079,25.022227
202,新北市政府行政大樓6F-9,NewTaipei,大同資訊,板橋區,新北市板橋區中山路1段161號6樓,新北市政府,25.0122139,121.465731,296995.84,2767196.47,121.465624,25.012081
203,新北市政府行政大樓6F-10,NewTaipei,大同資訊,板橋區,新北市板橋區中山路1段161號6樓,新北市政府,25.0122139,121.465731,296995.84,2767196.47,121.465624,25.012081
204,新北市政府行政大樓7F-1,NewTaipei,大同資訊,板橋區,新北市板橋區中山路1段161號7樓,新北市政府,25.0122139,121.465731,296995.84,2767196.47,121.465624,25.012081
205,新北市政府行政大樓7F-2,NewTaipei,大同資訊,板橋區,新北市板橋區中山路1段161號7樓,新北市政府,25.0122139,121.465731,296995.84,2767196.47,121.465624,25.012081
206,新北市政府行政大樓7F-3,NewTaipei,大同資訊,板橋區,新北市板橋區中山路1段161號7樓,新北市政府,25.0122139,121.465731,296995.84,2767196.47,121.465624,25.012081
207,新北市政府行政大樓7F-4,NewTaipei,大同資訊,板橋區,新北市板橋區中山路1段161號7樓,新北市政府,25.0122139,121.465731,296995.84,2767196.47,121.465624,25.012081
208,新北市政府行政大樓7F-5,NewTaipei,大同資訊,板橋區,新北市板橋區中山路1段161號7樓,新北市政府,25.0122139,121.465731,296995.84,2767196.47,121.465624,25.012081
209,新北市政府行政大樓7F-6,NewTaipei,大同資訊,板橋區,新北市板橋區中山路1段161號7樓,新北市政府,25.0122139,121.465731,292736.01,2768524.85,121.42346,25.0242
210,新北市政府行政大樓7F-7,NewTaipei,大同資訊,板橋區,新北市板橋區中山路1段161號7樓,新北市政府,25.0122139,121.465731,296995.84,2767196.47,121.465624,25.012081
211,新北市政府行政大樓7F-8,NewTaipei,大同資訊,板橋區,新北市板橋區中山路1段161號7樓,新北市政府,25.0122139,121.465731,296995.84,2767196.47,121.465624,25.012081
212,新北市政府行政大樓7F-9,NewTaipei,大同資訊,板橋區,新北市板橋區中山路1段161號7樓,新北市政府,25.0122139,121.465731,295975.22,2766418.77,121.455486,25.005091
213,新北市政府行政大樓8F-1,NewTaipei,大同資訊,板橋區,新北市板橋區中山路1段161號8樓,新北市政府,25.0122139,121.465731,296995.84,2767196.47,121.465624,25.012081
214,新北市政府行政大樓8F-2,NewTaipei,大同資訊,板橋區,新北市板橋區中山路1段161號8樓,新北市政府,25.0122139,121.465731,296995.84,2767196.47,121.465624,25.012081
215,新北市政府行政大樓8F-3,NewTaipei,大同資訊,板橋區,新北市板橋區中山路1段161號8樓,新北市政府,25.0122139,121.465731,296995.84,2767196.47,121.465624,25.012081
216,新北市政府行政大樓9F-1,NewTaipei,大同資訊,板橋區,新北市板橋區中山路1段161號9樓,新北市政府,25.0122139,121.465731,296995.84,2767196.47,121.465624,25.012081
217,新北市政府行政大樓9F-2,NewTaipei,大同資訊,板橋區,新北市板橋區中山路1段161號9樓,新北市政府,25.0122139,121.465731,296995.84,2767196.47,121.465624,25.012081
218,新北市政府行政大樓9F-3,NewTaipei,大同資訊,板橋區,新北市板橋區中山路1段161號9樓,新北市政府,25.0122139,121.465731,296995.84,2767196.47,121.465624,25.012081
219,新北市政府行政大樓9F-4,NewTaipei,大同資訊,板橋區,新北市板橋區中山路1段161號9樓,新北市政府,25.0122139,121.465731,296995.84,2767196.47,121.465624,25.012081
220,新北市政府行政大樓9F-5,NewTaipei,大同資訊,板橋區,新北市板橋區中山路1段161號9樓,新北市政府,25.0122139,121.465731,296995.84,2767196.47,121.465624,25.012081
221,新北市政府行政大樓9F-6,NewTaipei,大同資訊,板橋區,新北市板橋區中山路1段161號9樓,新北市政府,25.0122139,121.465731,296995.84,2767196.47,121.465624,25.012081
222,新北市政府行政大樓B1-1,NewTaipei,大同資訊,板橋區,新北市板橋區中山路1段161號B1,新北市政府,25.0122139,121.465731,296995.84,2767196.47,121.465624,25.012081
223,新北市政府行政大樓B1-2,NewTaipei,大同資訊,板橋區,新北市板橋區中山路1段161號B1,新北市政府,25.0122139,121.465731,296995.84,2767196.47,121.465624,25.012081
224,新北市政府行政大樓B1-3,NewTaipei,大同資訊,板橋區,新北市板橋區中山路1段161號B1,新北市政府,25.0122139,121.465731,296995.84,2767196.47,121.465624,25.012081
225,新北市政府行政大樓B1-4,NewTaipei,大同資訊,板橋區,新北市板橋區中山路1段161號B1,新北市政府,25.0122139,121.465731,296995.84,2767196.47,121.465624,25.012081
226,新北市政府行政大樓B1-5,NewTaipei,大同資訊,板橋區,新北市板橋區中山路1段161號B1,新北市政府,25.0122139,121.465731,296995.84,2767196.47,121.465624,25.012081
227,九份遊客中心,NewTaipei,中華電信,瑞芳區,新北市瑞芳區汽車路89號1樓,新北市政府觀光旅遊局,25.110636,121.845015,335066.01,2778199.77,121.843469,25.109752
228,九份輕便路遊客中心,NewTaipei,中華電信,瑞芳區,新北市瑞芳區輕便路194號2樓,新北市政府觀光旅遊局,25.108806,121.844812,335259.25,2778271.31,121.84539,25.110387
229,坪林旅遊服務中心,NewTaipei,中華電信,坪林區,新北市坪林區北宜路八段67號2樓,新北市政府觀光旅遊局,24.937738,121.702189,321231.67,2758808.89,121.705303,24.935414
230,板橋火車站旅遊服務中心,NewTaipei,中華電信,板橋區,新北市板橋區縣民大道2段7號B1,新北市政府觀光旅遊局,25.013879,121.46401,296794.35,2767444.99,121.463636,25.014331
231,板橋第一運動場1F,NewTaipei,中華電信,板橋區,新北市板橋區漢生東路278號1樓,新北市政府教育局,25.010554,121.469072,297366.57,2767032.66,121.469291,25.010591
232,板橋第一運動場6F,NewTaipei,中華電信,板橋區,新北市板橋區漢生東路278號6樓,新北市政府教育局,25.010554,121.469072,297366.57,2767032.66,121.469291,25.010591
233,烏來遊客中心,NewTaipei,中華電信,烏來區,新北市烏來區烏來街45-1號1F,新北市政府觀光旅遊局,24.864434,121.551768,305778.74,2750934.41,121.551985,24.864969
234,烏來瀑布遊客中心,NewTaipei,中華電信,烏來區,新北市烏來區烏來村瀑布路34號1樓,新北市政府觀光旅遊局,24.848795,121.551784,305372.96,2751679.54,121.548,24.871711
235,淡水捷運站旅遊服務中心,NewTaipei,中華電信,淡水區,新北市淡水區中正路1號1樓,新北市政府觀光旅遊局,25.1755786,121.43847,294913.1,2784485.72,121.445554,25.168231
236,猴硐遊客中心,NewTaipei,中華電信,瑞芳區,新北市瑞芳區柴寮路44號1樓,新北市政府觀光旅遊局,25.086971,121.827484,333492.62,2775660.99,121.827715,25.086922
237,新北市八里區公所1F,NewTaipei,中華電信,八里區,新北市八里區八里大道18號,新北市八里區公所,25.153837,121.406129,290949.14,2782903.18,121.406183,25.154057
238,新北市八里區衛生所,NewTaipei,中華電信,八里區,新北市八里區舊城里舊城路16號1樓,新北市政府衛生局,25.147204,121.399739,290334.21,2782130.07,121.400061,25.147094
239,新北市三芝區公所,NewTaipei,中華電信,三芝區,新北市三芝區中山路1段32號1樓,新北市三芝區公所,25.257766,121.500872,300476.89,2794431.06,121.501115,25.257839
240,新北市三芝區衛生所,NewTaipei,中華電信,三芝區,新北市三芝區中山路1段12號1樓,新北市政府衛生局,25.258357,121.500569,300440.21,2794493.86,121.500753,25.258408
241,新北市三重戶政事務所-1,NewTaipei,中華電信,三重區,新北市三重區新北大道1段9號5樓,新北市政府民政局,25.06099,121.489167,299356.35,2772638.72,121.489205,25.061139
242,新北市三重戶政事務所-2,NewTaipei,中華電信,三重區,新北市三重區新北大道1段9號5樓,新北市政府民政局,25.06099,121.489167,299356.35,2772638.72,121.489205,25.061139
243,新北市三重戶政事務所溪美辦事處,NewTaipei,中華電信,三重區,新北市三重區溪尾街73號2樓,新北市政府民政局,25.077693,121.490849,299490.09,2774490.9,121.490597,25.077856
244,新北市三重地政事務所8F_A,NewTaipei,中華電信,三重區,新北市三重區新北大道1段11號8樓,新北市政府地政局,25.060881,121.488336,299275.03,2772645.07,121.4884,25.061199
245,新北市三重地政事務所8F_B,NewTaipei,中華電信,三重區,新北市三重區新北大道1段11號8樓,新北市政府地政局,25.060881,121.488336,299275.03,2772645.07,121.4884,25.061199
246,新北市三重地政事務所9F_A,NewTaipei,中華電信,三重區,新北市三重區新北大道1段11號8樓,新北市政府地政局,25.060881,121.488336,299275.03,2772645.07,121.4884,25.061199
247,新北市三重地政事務所9F_B,NewTaipei,中華電信,三重區,新北市三重區新北大道1段11號8樓,新北市政府地政局,25.060881,121.488336,299275.03,2772645.07,121.4884,25.061199
248,新北市三重區公所1F_A,NewTaipei,中華電信,三重區,新北市三重區新北大道1段11號1樓,新北市三重區公所,25.061018,121.488274,299275.03,2772645.07,121.4884,25.061199
249,新北市三重區公所1F_B,NewTaipei,中華電信,三重區,新北市三重區新北大道1段11號1樓,新北市三重區公所,25.061018,121.488274,299333.4,2772892.63,121.488987,25.063432
250,新北市三重區公所4F,NewTaipei,中華電信,三重區,新北市三重區新北大道1段11號4樓,新北市三重區公所,25.061018,121.488274,299275.03,2772645.07,121.4884,25.061199
251,新北市三重區衛生所,NewTaipei,中華電信,三重區,新北市三重區新北大道1段1號1樓,新北市政府衛生局,25.061118,121.491519,299576.93,2772645.39,121.491392,25.061192
252,新北市三峽戶政事務所,NewTaipei,中華電信,三峽區,新北市三峽區光明路71號5樓,新北市政府民政局,24.9285479,121.375924,287988.67,2757888.16,121.376129,24.928296
253,新北市三峽區公所1F_A,NewTaipei,中華電信,三峽區,新北市三峽區中山路17號1樓,新北市三峽區公所,24.934266,121.369045,301338.3,2764342.58,121.50854,24.986175
254,新北市三峽區公所1F_B,NewTaipei,中華電信,三峽區,新北市三峽區中山路17號1樓,新北市三峽區公所,24.934266,121.369045,287253.12,2758544.19,121.368864,24.934237
255,新北市三峽區公所2F_A,NewTaipei,中華電信,三峽區,新北市三峽區中山路17號2樓,新北市三峽區公所,24.934266,121.369045,287253.12,2758544.19,121.368864,24.934237
256,新北市三峽區公所2F_B,NewTaipei,中華電信,三峽區,新北市三峽區中山路17號2樓,新北市三峽區公所,24.934266,121.369045,287253.12,2758544.19,121.368864,24.934237
257,新北市三峽區公所3F,NewTaipei,中華電信,三峽區,新北市三峽區中山路17號3樓,新北市三峽區公所,24.934266,121.369045,287253.12,2758544.19,121.368864,24.934237
258,新北市三峽區衛生所,NewTaipei,中華電信,三峽區,新北市三峽區光明路71號3樓,新北市政府衛生局,24.9285478,121.375924,287988.67,2757888.16,121.376129,24.928296
259,新北市土城戶政事務所_A,NewTaipei,中華電信,土城區,新北市土城區和平路28號1樓,新北市政府民政局,24.972574,121.443044,294752.74,2762820.27,121.443258,24.97264
260,新北市土城戶政事務所_B,NewTaipei,中華電信,土城區,新北市土城區和平路28號1樓,新北市政府民政局,24.972574,121.443044,294752.74,2762820.27,121.443258,24.97264
261,新北市土城戶政事務所_C,NewTaipei,中華電信,土城區,新北市土城區和平路28號1樓,新北市政府民政局,24.972574,121.443044,294752.74,2762820.27,121.443258,24.97264
262,新北市土城區公所1F_A,NewTaipei,中華電信,土城區,新北市土城區金城路1段101號1樓,新北市土城區公所,24.9714241,121.442687,294713.82,2762808.25,121.442873,24.972533
263,新北市土城區公所1F_B,NewTaipei,中華電信,土城區,新北市土城區金城路1段101號1樓,新北市土城區公所,24.9714241,121.442687,294713.82,2762808.25,121.442873,24.972533
264,新北市土城區公所2F_A,NewTaipei,中華電信,土城區,新北市土城區金城路1段101號2樓,新北市土城區公所,24.9714241,121.442687,294713.82,2762808.25,121.442873,24.972533
265,新北市土城區公所2F_B,NewTaipei,中華電信,土城區,新北市土城區金城路1段101號2樓,新北市土城區公所,24.9714241,121.442687,294713.82,2762808.25,121.442873,24.972533
266,新北市土城區公所3F_A,NewTaipei,中華電信,土城區,新北市土城區金城路1段101號3樓,新北市土城區公所,24.9714241,121.442687,294713.82,2762808.25,121.442873,24.972533
267,新北市土城區公所3F_B,NewTaipei,中華電信,土城區,新北市土城區金城路1段101號3樓,新北市土城區公所,24.9714241,121.442687,294713.82,2762808.25,121.442873,24.972533
268,新北市土城區公所3F_C,NewTaipei,中華電信,土城區,新北市土城區金城路1段101號3樓,新北市土城區公所,24.9714241,121.442687,294713.82,2762808.25,121.442873,24.972533
269,新北市土城區公所4F_A,NewTaipei,中華電信,土城區,新北市土城區金城路1段101號4樓,新北市土城區公所,24.9714241,121.442687,294713.82,2762808.25,121.442873,24.972533
270,新北市土城區公所4F_B,NewTaipei,中華電信,土城區,新北市土城區金城路1段101號4樓,新北市土城區公所,24.9714241,121.442687,294713.82,2762808.25,121.442873,24.972533
271,新北市土城區公所5F_A,NewTaipei,中華電信,土城區,新北市土城區金城路1段101號5樓,新北市土城區公所,24.9714241,121.442687,294713.82,2762808.25,121.442873,24.972533
272,新北市土城區公所5F_B,NewTaipei,中華電信,土城區,新北市土城區金城路1段101號5樓,新北市土城區公所,24.9714241,121.442687,294713.82,2762808.25,121.442873,24.972533
273,新北市土城區公所7F_A,NewTaipei,中華電信,土城區,新北市土城區金城路1段101號7樓,新北市土城區公所,24.9714241,121.442687,294713.82,2762808.25,121.442873,24.972533
274,新北市土城區公所7F_B,NewTaipei,中華電信,土城區,新北市土城區金城路1段101號7樓,新北市土城區公所,24.9714241,121.442687,302432.98,2767263.04,121.519495,25.012504
275,新北市土城區衛生所,NewTaipei,中華電信,土城區,新北市土城區和平路26號1樓,新北市政府衛生局,24.9729399,121.443065,294745.61,2762844.29,121.443189,24.972857
276,新北市中和戶政事務所4F_A,NewTaipei,中華電信,中和區,新北市中和區南山路236號4樓,新北市政府民政局,24.98972,121.506447,301150.89,2764733.13,121.506699,24.989707
277,新北市中和戶政事務所4F_B,NewTaipei,中華電信,中和區,新北市中和區南山路236號4樓,新北市政府民政局,24.98972,121.506447,301150.89,2764733.13,121.506699,24.989707
278,新北市中和戶政事務所5F,NewTaipei,中華電信,中和區,新北市中和區南山路236號5樓,新北市政府民政局,24.98972,121.506447,301150.89,2764733.13,121.506699,24.989707
279,新北市中和戶政事務所民享辦事處,NewTaipei,中華電信,中和區,新北市中和區民享街37號2樓之1,新北市政府民政局,25.0035462,121.4741203,297857.6,2766256.96,121.474129,25.003572
280,新北市中和戶政事務所員山辦事處,NewTaipei,中華電信,中和區,新北市中和區中正路1163號3樓,新北市政府民政局,25.009033,121.48178,298610.91,2766873.26,121.481614,25.009112
281,新北市中和地政事務所1F_A,NewTaipei,中華電信,中和區,新北市中和區復興路280號1樓,新北市政府地政局,24.990298,121.502206,300920.05,2765468.08,121.504439,24.99635
282,新北市中和地政事務所1F_B,NewTaipei,中華電信,中和區,新北市中和區復興路280號1樓,新北市政府地政局,24.990298,121.502206,299254.91,2766571.45,121.487983,25.006367
283,新北市中和地政事務所2F_A,NewTaipei,中華電信,中和區,新北市中和區復興路280號2樓,新北市政府地政局,24.990298,121.502206,300716.9,2764819.77,121.502403,24.990504
284,新北市中和地政事務所2F_B,NewTaipei,中華電信,中和區,新北市中和區復興路280號2樓,新北市政府地政局,24.990298,121.502206,300716.9,2764819.77,121.502403,24.990504
285,新北市中和地政事務所3F_A,NewTaipei,中華電信,中和區,新北市中和區復興路280號3樓,新北市政府地政局,24.990298,121.502206,300716.9,2764819.77,121.502403,24.990504
286,新北市中和地政事務所3F_B,NewTaipei,中華電信,中和區,新北市中和區復興路280號3樓,新北市政府地政局,24.990298,121.502206,300716.9,2764819.77,121.502403,24.990504
287,新北市中和地政事務所4F_A,NewTaipei,中華電信,中和區,新北市中和區復興路280號4樓,新北市政府地政局,24.990298,121.502206,300716.9,2764819.77,121.502403,24.990504
288,新北市中和地政事務所4F_B,NewTaipei,中華電信,中和區,新北市中和區復興路280號4樓,新北市政府地政局,24.990298,121.502206,300716.9,2764819.77,121.502403,24.990504
289,新北市中和區公所1F_A,NewTaipei,中華電信,中和區,新北市中和區景平路634-2號1樓,新北市中和區公所,24.998635,121.500995,300545.23,2765709.71,121.500735,24.998544
290,新北市中和區公所1F_B,NewTaipei,中華電信,中和區,新北市中和區景平路634-2號1樓,新北市中和區公所,24.998635,121.500995,300545.23,2765709.71,121.500735,24.998544
291,新北市中和區衛生所1F_A,NewTaipei,中華電信,中和區,新北市中和區南山路4巷3號1樓,新北市政府衛生局,24.998613,121.501677,300636.25,2765726.38,121.501637,24.998692
292,新北市中和區衛生所1F_B,NewTaipei,中華電信,中和區,新北市中和區南山路4巷3號1樓,新北市政府衛生局,24.998613,121.501677,300636.25,2765726.38,121.501637,24.998692
293,新北市五股戶政事務所_A,NewTaipei,中華電信,五股區,新北市五股區中興路4段70號1樓,新北市政府民政局,25.0830706,121.4376993,294085.2,2775098.03,121.437039,25.083504
294,新北市五股戶政事務所_B,NewTaipei,中華電信,五股區,新北市五股區中興路4段70號1樓,新北市政府民政局,25.0830706,121.4376993,294085.2,2775098.03,121.437039,25.083504
295,新北市五股戶政事務所八里區所,NewTaipei,中華電信,八里區,新北市八里區八里大道18號,新北市政府民政局,25.153837,121.406129,290949.14,2782903.18,121.406183,25.154057
296,新北市五股區公所1F_A,NewTaipei,中華電信,五股區,新北市五股區中興路4段50號1樓,新北市五股區公所,25.083171,121.4379028,294188.46,2775049.2,121.438061,25.08306
297,新北市五股區公所1F_B,NewTaipei,中華電信,五股區,新北市五股區中興路4段50號1樓,新北市五股區公所,25.083171,121.4379028,304830.27,2763024.02,121.543077,24.974149
298,新北市五股區公所2F,NewTaipei,中華電信,五股區,新北市五股區中興路4段50號2樓,新北市五股區公所,25.083171,121.4379028,294188.46,2775049.2,121.438061,25.08306
299,新北市五股區公所4F,NewTaipei,中華電信,五股區,新北市五股區中興路4段50號4樓,新北市五股區公所,25.083171,121.4379028,294188.46,2775049.2,121.438061,25.08306
300,新北市五股區衛生所_A,NewTaipei,中華電信,五股區,新北市五股區新城三路11號3樓,新北市政府衛生局,25.083573,121.43676,295150.4,2776290.27,121.447638,25.094236
301,新北市五股區衛生所_B,NewTaipei,中華電信,五股區,新北市五股區新城三路11號3樓,新北市政府衛生局,25.083573,121.43676,295150.4,2776290.27,121.447638,25.094236
302,新北市平溪區公所,NewTaipei,中華電信,平溪區,新北市平溪區平溪街45號1樓,新北市平溪區公所,25.026689,121.73819,324498.09,2768929.48,121.738189,25.026623
303,新北市平溪區衛生所,NewTaipei,中華電信,平溪區,新北市平溪區公園街17號1樓,新北市政府衛生局,25.025184,121.739164,324397.88,2768713.69,121.737184,25.02468
304,新北市永和戶政事務所_A,NewTaipei,中華電信,永和區,新北市永和區竹林路200-1號1樓,新北市政府民政局,25.008961,121.520279,302498.45,2766869.31,121.520128,25.008947
305,新北市永和戶政事務所_B,NewTaipei,中華電信,永和區,新北市永和區竹林路200-1號1樓,新北市政府民政局,25.008961,121.520279,302498.45,2766869.31,121.520128,25.008947
306,新北市永和區公所1F,NewTaipei,中華電信,永和區,新北市永和區竹林路200號1樓,新北市永和區公所,25.008978,121.520277,302534.17,2766894.98,121.520483,25.009177
307,新北市永和區公所2F-1,NewTaipei,中華電信,永和區,新北市永和區竹林路200號2樓,新北市永和區公所,25.008978,121.520277,302534.17,2766894.98,121.520483,25.009177
308,新北市永和區公所2F-2,NewTaipei,中華電信,永和區,新北市永和區竹林路200號2樓,新北市永和區公所,25.008978,121.520277,302534.17,2766894.98,121.520483,25.009177
309,新北市永和區公所3F-1_A,NewTaipei,中華電信,永和區,新北市永和區竹林路200號3樓,新北市永和區公所,25.008978,121.520277,302534.17,2766894.98,121.520483,25.009177
310,新北市永和區公所3F-1_B,NewTaipei,中華電信,永和區,新北市永和區竹林路200號3樓,新北市永和區公所,25.008978,121.520277,302534.17,2766894.98,121.520483,25.009177
311,新北市永和區公所3F-2,NewTaipei,中華電信,永和區,新北市永和區竹林路200號3樓,新北市永和區公所,25.008978,121.520277,302534.17,2766894.98,121.520483,25.009177
312,新北市永和區公所4F,NewTaipei,中華電信,永和區,新北市永和區竹林路200號4樓,新北市永和區公所,25.008978,121.520277,302534.17,2766894.98,121.520483,25.009177
313,新北市永和區衛生所,NewTaipei,中華電信,永和區,新北市永和區秀朗路1段137號1樓,新北市政府衛生局,25.00502,121.516206,302106.8,2766427.37,121.516231,25.00497
314,新北市石門區公所,NewTaipei,中華電信,石門區,新北市石門區尖鹿里中山路66號1樓,新北市石門區公所,25.2686111,121.5713889,307184.64,2798154.4,121.56786,25.291211
315,新北市石門區衛生所,NewTaipei,中華電信,石門區,新北市石門區石門區中山路28之1號,新北市石門區公所,25.290368,121.565902,307184.64,2798154.32,121.567861,25.291211
316,新北市石碇區公所_A,NewTaipei,中華電信,石碇區,新北市石碇區碇坪路1段37號,新北市石碇區公所,24.991337,121.660538,316416.85,2764997.61,121.657928,24.991503
317,新北市石碇區公所_B,NewTaipei,中華電信,石碇區,新北市石碇區碇坪路1段37號,新北市石碇區公所,24.991337,121.660538,316416.85,2764997.61,121.657928,24.991503
318,新北市石碇區公所_C,NewTaipei,中華電信,石碇區,新北市石碇區碇坪路1段37號3樓,新北市石碇區公所,24.991337,121.660538,316416.85,2764997.61,121.657928,24.991503
319,新北市石碇區公所_D,NewTaipei,中華電信,石碇區,新北市石碇區碇坪路1段37號4樓,新北市石碇區公所,24.991337,121.660538,316416.85,2764997.61,121.657928,24.991503
320,新北市石碇區衛生所,NewTaipei,中華電信,石碇區,新北市石碇區碇坪路碇坪路1段82號,新北市政府衛生局,24.991343,121.660543,318295.36,2763387.66,121.676457,24.976886
321,新北市立十三行博物館_A,NewTaipei,中華電信,八里區,新北市八里區博物館路200號1樓,新北市政府文化局,25.1568419,121.405074,290829.53,2783228.28,121.405007,25.156996
322,新北市立十三行博物館_B,NewTaipei,中華電信,八里區,新北市八里區博物館路200號1樓,新北市政府文化局,25.1568419,121.405074,290829.53,2783228.28,121.405007,25.156996
323,新北市立三峽火化場-1,NewTaipei,中華電信,三峽區,新北市三峽區介壽路3段260巷1號3F,新北市政府民政局,24.948926,121.407448,291162.38,2760192.01,121.40762,24.949013
324,新北市立圖書館八里分館-1_A,NewTaipei,中華電信,八里區,新北市八里區舊城里舊城路19號5樓,新北市政府文化局,25.1465448,121.4001187,290314.57,2782073.23,121.399865,25.146582
325,新北市立圖書館八里分館-1_B,NewTaipei,中華電信,八里區,新北市八里區舊城里舊城路19號5樓,新北市政府文化局,25.1465448,121.4001187,290314.57,2782073.23,121.399865,25.146582
326,新北市立圖書館八里分館-2,NewTaipei,中華電信,八里區,新北市八里區舊城里舊城路19號6樓,新北市政府文化局,25.1465448,121.4001187,290314.57,2782073.23,121.399865,25.146582
327,新北市立圖書館三芝分館-1,NewTaipei,中華電信,三芝區,新北市三芝區淡金路1段37號2樓,新北市政府文化局,25.259359,121.501195,285617.25,2760142.38,121.352707,24.948705
328,新北市立圖書館三芝分館-2,NewTaipei,中華電信,三芝區,新北市三芝區淡金路1段37號1樓,新北市政府文化局,25.259359,121.501195,300482.71,2794607.4,121.501179,25.259431
329,新北市立圖書館三重五常分館,NewTaipei,中華電信,三重區,新北市三重區五華街7巷30號2樓,新北市政府文化局,25.08079,121.496026,300043.46,2774818.56,121.496095,25.080796
330,新北市立圖書館三重五常分館3F_A,NewTaipei,中華電信,三重區,新北市三重區五華街7巷30號3樓,新北市政府文化局,25.08079,121.496026,300043.46,2774818.56,121.496095,25.080796
331,新北市立圖書館三重五常分館3F_B,NewTaipei,中華電信,三重區,新北市三重區五華街7巷30號3樓,新北市政府文化局,25.08079,121.496026,300043.46,2774818.56,121.496095,25.080796
332,新北市立圖書館三重分館1F_A,NewTaipei,中華電信,三重區,新北市三重區自強路1段158號1樓,新北市政府文化局,25.0659999,121.495992,300006.15,2773207.01,121.495666,25.066248
333,新北市立圖書館三重分館1F_B,NewTaipei,中華電信,三重區,新北市三重區自強路1段158號1樓,新北市政府文化局,25.0659999,121.495992,300006.15,2773207.01,121.495666,25.066248
334,新北市立圖書館三重分館3F-1_A,NewTaipei,中華電信,三重區,新北市三重區自強路1段158號3樓,新北市政府文化局,25.0659999,121.495992,300006.15,2773207.01,121.495666,25.066248
335,新北市立圖書館三重分館3F-1_B,NewTaipei,中華電信,三重區,新北市三重區自強路1段158號3樓,新北市政府文化局,25.0659999,121.495992,300006.15,2773207.01,121.495666,25.066248
336,新北市立圖書館三重分館3F-2_A,NewTaipei,中華電信,三重區,新北市三重區自強路1段158號3樓,新北市政府文化局,25.0659999,121.495992,300006.15,2773207.01,121.495666,25.066248
337,新北市立圖書館三重分館3F-2_B,NewTaipei,中華電信,三重區,新北市三重區自強路1段158號3樓,新北市政府文化局,25.0659999,121.495992,0,0,,
338,新北市立圖書館三重田中分館2F,NewTaipei,中華電信,三重區,新北市三重區忠孝路3段40巷51號2樓,新北市政府文化局,25.065531,121.483024,298742.19,2773123.82,121.483135,25.065538
339,新北市立圖書館三重田中分館3F,NewTaipei,中華電信,三重區,新北市三重區忠孝路3段40巷51號3樓,新北市政府文化局,25.065531,121.483024,298742.19,2773123.82,121.483135,25.065538
340,新北市立圖書館三重田中分館4F,NewTaipei,中華電信,三重區,新北市三重區忠孝路3段40巷51號4樓,新北市政府文化局,25.065531,121.483024,298742.19,2773123.82,121.483135,25.065538
341,新北市立圖書館三重南區分館-1_A,NewTaipei,中華電信,三重區,新北市三重區重安街70號3樓,新北市政府文化局,25.057233,121.491572,299575.21,2772194.6,121.491359,25.057122
342,新北市立圖書館三重南區分館-1_B,NewTaipei,中華電信,三重區,新北市三重區重安街70號3樓,新北市政府文化局,25.057233,121.491572,299575.21,2772194.6,121.491359,25.057122
343,新北市立圖書館三重南區分館-2_A,NewTaipei,中華電信,三重區,新北市三重區重安街70號3樓,新北市政府文化局,25.057233,121.491572,299575.21,2772194.6,121.491359,25.057122
344,新北市立圖書館三重南區分館-2_B,NewTaipei,中華電信,三重區,新北市三重區重安街70號3樓,新北市政府文化局,25.057233,121.491572,292649.55,2763954.03,121.422463,24.982936
345,新北市立圖書館三重南區分館-3,NewTaipei,中華電信,三重區,新北市三重區重安街70號3樓,新北市政府文化局,25.057233,121.491572,299575.21,2772194.6,121.491359,25.057122
346,新北市立圖書館三重東區分館1F_A,NewTaipei,中華電信,三重區,新北市三重區溪尾街303號1樓,新北市政府文化局,25.083629,121.487597,299191.58,2775133.8,121.487661,25.083669
347,新北市立圖書館三重東區分館1F_B,NewTaipei,中華電信,三重區,新北市三重區溪尾街303號1樓,新北市政府文化局,25.083629,121.487597,299191.58,2775133.8,121.487661,25.083669
348,新北市立圖書館三重東區分館1F_C,NewTaipei,中華電信,三重區,新北市三重區溪尾街303號1樓,新北市政府文化局,25.083629,121.487597,299191.58,2775133.8,121.487661,25.083669
349,新北市立圖書館三重東區分館2F_A,NewTaipei,中華電信,三重區,新北市三重區溪尾街303號2樓,新北市政府文化局,25.083629,121.487597,301990.76,2762421.62,121.514931,24.96881
350,新北市立圖書館三重東區分館2F_B,NewTaipei,中華電信,三重區,新北市三重區溪尾街303號2樓,新北市政府文化局,25.083629,121.487597,299191.58,2775133.8,121.487661,25.083669
351,新北市立圖書館三重東區分館2F_C,NewTaipei,中華電信,三重區,新北市三重區溪尾街303號2樓,新北市政府文化局,25.083629,121.487597,299191.58,2775133.8,121.487661,25.083669
352,新北市立圖書館三重東區分館3F_A,NewTaipei,中華電信,三重區,新北市三重區溪尾街303號3樓,新北市政府文化局,25.083629,121.487597,299191.58,2775133.8,121.487661,25.083669
353,新北市立圖書館三重東區分館3F_B,NewTaipei,中華電信,三重區,新北市三重區溪尾街303號3樓,新北市政府文化局,25.083629,121.487597,299191.58,2775133.8,121.487661,25.083669
354,新北市立圖書館三重東區分館3F_C,NewTaipei,中華電信,三重區,新北市三重區溪尾街303號3樓,新北市政府文化局,25.083629,121.487597,299191.58,2775133.8,121.487661,25.083669
355,新北市立圖書館三重東區分館4F_A,NewTaipei,中華電信,三重區,新北市三重區溪尾街303號4樓,新北市政府文化局,25.083629,121.487597,299191.58,2775133.8,121.487661,25.083669
356,新北市立圖書館三重東區分館4F_B,NewTaipei,中華電信,三重區,新北市三重區溪尾街303號4樓,新北市政府文化局,25.083629,121.487597,299191.58,2775133.8,121.487661,25.083669
357,新北市立圖書館三重東區分館4F_C,NewTaipei,中華電信,三重區,新北市三重區溪尾街303號4樓,新北市政府文化局,25.083629,121.487597,299191.58,2775133.8,121.487661,25.083669
358,新北市立圖書館三重區崇德分館2F_A,NewTaipei,中華電信,三重區,新北市三重區仁孝街62號2樓,新北市政府文化局,25.07462,121.497257,300169.33,2774117.09,121.497317,25.074458
359,新北市立圖書館三重區崇德分館2F_B,NewTaipei,中華電信,三重區,新北市三重區仁孝街62號2樓,新北市政府文化局,25.07462,121.497257,300169.33,2774117.09,121.497317,25.074458
360,新北市立圖書館三重區崇德分館3F_A,NewTaipei,中華電信,三重區,新北市三重區仁孝街62號3樓,新北市政府文化局,25.07462,121.497257,300169.33,2774117.09,121.497317,25.074458
361,新北市立圖書館三重區崇德分館3F_B,NewTaipei,中華電信,三重區,新北市三重區仁孝街62號3樓,新北市政府文化局,25.07462,121.497257,300169.33,2774117.09,121.497317,25.074458
362,新北市立圖書館三重培德分館1F,NewTaipei,中華電信,三重區,新北市三重區忠孝路2段35號1樓,新北市政府文化局,25.071167,121.486212,299025.31,2773786.2,121.485965,25.071509
363,新北市立圖書館三重培德分館2F,NewTaipei,中華電信,三重區,新北市三重區忠孝路2段35號2樓,新北市政府文化局,25.071167,121.486212,299025.31,2773786.2,121.485965,25.071509
364,新北市立圖書館三峽分館1F,NewTaipei,中華電信,三峽區,新北市三峽區永安街9巷5號1樓,新北市政府文化局,24.9297149,121.376464,288021.2,2758033.22,121.376455,24.929605
365,新北市立圖書館三峽分館2F-1,NewTaipei,中華電信,三峽區,新北市三峽區永安街9巷5號2樓,新北市政府文化局,24.9297149,121.376464,288021.2,2758033.22,121.376455,24.929605
366,新北市立圖書館三峽分館2F-2,NewTaipei,中華電信,三峽區,新北市三峽區永安街9巷5號2樓,新北市政府文化局,24.9297149,121.376464,288021.2,2758033.22,121.376455,24.929605
367,新北市立圖書館三峽分館3F-1,NewTaipei,中華電信,三峽區,新北市三峽區永安街9巷5號3樓,新北市政府文化局,24.9297149,121.376464,288021.2,2758033.22,121.376455,24.929605
368,新北市立圖書館三峽分館3F-2,NewTaipei,中華電信,三峽區,新北市三峽區永安街9巷5號3樓,新北市政府文化局,24.9297149,121.376464,288021.2,2758033.22,121.376455,24.929605
369,新北市立圖書館土城分館7F_A,NewTaipei,中華電信,土城區,新北市土城區中正路18號7樓,新北市政府文化局,24.974946,121.443014,294726.77,2763089.77,121.44301,24.975074
370,新北市立圖書館土城分館7F_B,NewTaipei,中華電信,土城區,新北市土城區中正路18號7樓,新北市政府文化局,24.974946,121.443014,294726.77,2763089.77,121.44301,24.975074
371,新北市立圖書館土城分館7F_C,NewTaipei,中華電信,土城區,新北市土城區中正路18號7樓,新北市政府文化局,24.974946,121.443014,294726.77,2763089.77,121.44301,24.975074
372,新北市立圖書館土城柑林埤圖書閱覽室-1,NewTaipei,中華電信,土城區,新北市土城區學享街55號3樓,新北市政府文化局,24.987083,121.451878,295626.94,2764417.41,121.45197,24.987033
373,新北市立圖書館土城柑林埤圖書閱覽室-2,NewTaipei,中華電信,土城區,新北市土城區學享街55號3樓,新北市政府文化局,24.987083,121.451878,295626.94,2764417.41,121.45197,24.987033
374,新北市立圖書館土城祖田圖書閱覽室_A,NewTaipei,中華電信,土城區,新北市土城區中央路4段283-1號4樓,新北市政府文化局,24.953947,121.412755,291586.96,2760603.34,121.411837,24.952715
375,新北市立圖書館土城祖田圖書閱覽室_B,NewTaipei,中華電信,土城區,新北市土城區中央路4段283-1號4樓,新北市政府文化局,24.953947,121.412755,291586.96,2760603.34,121.411837,24.952715
376,新北市立圖書館土城清水圖書閱覽室2F_A,NewTaipei,中華電信,土城區,新北市土城區清水路243-1號2樓,新北市政府文化局,24.983432,121.461498,296585.74,2764024.15,121.461454,24.983454
377,新北市立圖書館土城清水圖書閱覽室2F_B,NewTaipei,中華電信,土城區,新北市土城區清水路243-1號2樓,新北市政府文化局,24.983432,121.461498,296585.74,2764024.15,121.461454,24.983454
378,新北市立圖書館土城清水圖書閱覽室B1,NewTaipei,中華電信,土城區,新北市土城區清水路243-1號B1,新北市政府文化局,24.983432,121.461498,296585.74,2764024.15,121.461454,24.983454
379,新北市立圖書館土城親子分館_A,NewTaipei,中華電信,土城區,新北市土城區中洲路28巷30號4樓,新北市政府文化局,24.9581726,121.4151617,294707.55,2762812.42,121.442811,24.972571
380,新北市立圖書館土城親子分館_B,NewTaipei,中華電信,土城區,新北市土城區中洲路28巷30號4樓,新北市政府文化局,24.9581726,121.4151617,294707.55,2762812.42,121.442811,24.972571
381,新北市立圖書館土城親子分館_C,NewTaipei,中華電信,土城區,新北市土城區中洲路28巷30號4樓,新北市政府文化局,24.9581726,121.4151617,294707.55,2762812.42,121.442811,24.972571
382,新北市立圖書館中和大同圖書閱覽室-1,NewTaipei,中華電信,中和區,新北市中和區圓通路121巷5號1樓,新北市政府文化局,24.995588,121.499546,300438.51,2765439.43,121.499668,24.996108
383,新北市立圖書館中和大同圖書閱覽室-2,NewTaipei,中華電信,中和區,新北市中和區圓通路121巷5號1樓,新北市政府文化局,24.995588,121.499546,300438.51,2765439.43,121.499668,24.996108
384,新北市立圖書館中和分館6F-1,NewTaipei,中華電信,中和區,新北市中和區南山路236號6樓,新北市政府文化局,24.989721,121.506447,301150.89,2764733.13,121.506699,24.989707
385,新北市立圖書館中和分館6F-2,NewTaipei,中華電信,中和區,新北市中和區南山路236號6樓,新北市政府文化局,24.989721,121.506447,301150.89,2764733.13,121.506699,24.989707
386,新北市立圖書館中和分館6F-3,NewTaipei,中華電信,中和區,新北市中和區南山路236號6樓,新北市政府文化局,24.989721,121.506447,301150.89,2764733.13,121.506699,24.989707
387,新北市立圖書館中和分館7F_A,NewTaipei,中華電信,中和區,新北市中和區南山路236號7樓,新北市政府文化局,24.989721,121.506447,301150.89,2764733.13,121.506699,24.989707
388,新北市立圖書館中和分館7F_B,NewTaipei,中華電信,中和區,新北市中和區南山路236號7樓,新北市政府文化局,24.989721,121.506447,301150.89,2764733.13,121.506699,24.989707
389,新北市立圖書館中和員山分館2F_A,NewTaipei,中華電信,中和區,新北市中和區民享街37號2樓,新北市政府文化局,25.0035461,121.4741203,297857.6,2766256.96,121.474129,25.003572
390,新北市立圖書館中和員山分館2F_B,NewTaipei,中華電信,中和區,新北市中和區民享街37號2樓,新北市政府文化局,25.0035461,121.4741203,297857.6,2766256.96,121.474129,25.003572
391,新北市立圖書館五股分館3F_A,NewTaipei,中華電信,五股區,新北市五股區工商路1號3樓,新北市政府文化局,25.0822226,121.4401004,294365.77,2774984.05,121.439817,25.082467
392,新北市立圖書館五股分館3F_B,NewTaipei,中華電信,五股區,新北市五股區工商路1號3樓,新北市政府文化局,25.0822226,121.4401004,294365.77,2774984.05,121.439817,25.082467
393,新北市立圖書館五股分館3F_C,NewTaipei,中華電信,五股區,新北市五股區工商路1號3樓,新北市政府文化局,25.0822226,121.4401004,294365.77,2774984.05,121.439817,25.082467
394,新北市立圖書館五股分館4F,NewTaipei,中華電信,五股區,新北市五股區工商路1號4樓,新北市政府文化局,25.0822226,121.4401004,294365.77,2774984.05,121.439817,25.082467
395,新北市立圖書館五股水碓分館3F_A,NewTaipei,中華電信,五股區,新北市五股區明德路10號3樓,新北市政府文化局,25.071422,121.43342,293727.56,2773771.4,121.433452,25.071538
396,新北市立圖書館五股水碓分館3F_B,NewTaipei,中華電信,五股區,新北市五股區明德路10號3樓,新北市政府文化局,25.071422,121.43342,293727.56,2773771.4,121.433452,25.071538
397,新北市立圖書館五股水碓分館4F_A,NewTaipei,中華電信,五股區,新北市五股區明德路10號4樓,新北市政府文化局,25.071422,121.43342,293727.56,2773771.4,121.433452,25.071538
398,新北市立圖書館五股水碓分館4F_B,NewTaipei,中華電信,五股區,新北市五股區明德路10號4樓,新北市政府文化局,25.071422,121.43342,293727.56,2773771.4,121.433452,25.071538
399,新北市立圖書館五股成功分館4F_A,NewTaipei,中華電信,五股區,新北市五股區西雲路165號4樓,新北市政府文化局,25.094834,121.446805,295028.64,2776329.84,121.446432,25.094597
400,新北市立圖書館五股成功分館4F_B,NewTaipei,中華電信,五股區,新北市五股區西雲路165號4樓,新北市政府文化局,25.094834,121.446805,295028.64,2776329.84,121.446432,25.094597
401,新北市立圖書館五股成功分館5F_A,NewTaipei,中華電信,五股區,新北市五股區西雲路165號5樓,新北市政府文化局,25.094834,121.446805,295028.64,2776329.84,121.446432,25.094597
402,新北市立圖書館五股成功分館5F_B,NewTaipei,中華電信,五股區,新北市五股區西雲路165號5樓,新北市政府文化局,25.094834,121.446805,295028.64,2776329.84,121.446432,25.094597
403,新北市立圖書館五股成功分館6F_A,NewTaipei,中華電信,五股區,新北市五股區西雲路165號6樓,新北市政府文化局,25.094834,121.446805,295028.64,2776329.84,121.446432,25.094597
404,新北市立圖書館五股成功分館6F_B,NewTaipei,中華電信,五股區,新北市五股區西雲路165號6樓,新北市政府文化局,25.094834,121.446805,295028.64,2776329.84,121.446432,25.094597
405,新北市立圖書館五股成州圖書閱覽室_A,NewTaipei,中華電信,五股區,新北市五股區西雲路267號2樓,新北市政府文化局,25.0980026,121.449324,295322.09,2776718.66,121.449354,25.098099
406,新北市立圖書館五股成州圖書閱覽室_B,NewTaipei,中華電信,五股區,新北市五股區西雲路267號2樓,新北市政府文化局,25.0980026,121.449324,295322.09,2776718.66,121.449354,25.098099
407,新北市立圖書館五股更新圖書閱覽室,NewTaipei,中華電信,五股區,新北市五股區更洲路47號3樓,新北市政府文化局,25.0794437,121.4571909,296126.57,2774646.37,121.457261,25.079366
408,新北市立圖書館平溪分館_A,NewTaipei,中華電信,平溪區,新北市平溪區公園街17號4樓,新北市政府文化局,25.02476,121.737018,324397.88,2768713.69,121.737184,25.02468
409,新北市立圖書館平溪分館_B,NewTaipei,中華電信,平溪區,新北市平溪區公園街17號4樓,新北市政府文化局,25.02476,121.737018,324397.88,2768713.69,121.737184,25.02468
410,新北市立圖書館永和分館2F,NewTaipei,中華電信,永和區,新北市永和區國光路2號2樓,新北市政府文化局,25.008606,121.519743,302478.8,2766837.03,121.519932,25.008656
411,新北市立圖書館永和分館3F,NewTaipei,中華電信,永和區,新北市永和區國光路2號2、3樓,新北市政府文化局,25.008606,121.519743,302478.8,2766837.03,121.519932,25.008656
412,新北市立圖書館永和分館4F,NewTaipei,中華電信,永和區,新北市永和區國光路2號4樓,新北市政府文化局,25.008607,121.519744,302478.8,2766837.03,121.519932,25.008656
413,新北市立圖書館永和民權分館7F-1,NewTaipei,中華電信,永和區,新北市永和區民權路60號7樓,新北市政府文化局,24.9978019,121.51992,302482.1,2765658.62,121.51992,24.998017
414,新北市立圖書館永和民權分館7F-2,NewTaipei,中華電信,永和區,新北市永和區民權路60號7樓,新北市政府文化局,24.9978019,121.51992,302482.1,2765658.62,121.51992,24.998017
415,新北市立圖書館永和民權分館8F-1,NewTaipei,中華電信,永和區,新北市永和區民權路60號8樓,新北市政府文化局,24.9978019,121.51992,302482.1,2765658.62,121.51992,24.998017
416,新北市立圖書館永和民權分館8F-2,NewTaipei,中華電信,永和區,新北市永和區民權路60號8樓,新北市政府文化局,24.997802,121.51993,302482.1,2765658.62,121.51992,24.998017
417,新北市立圖書館永和民權分館8F-3_A,NewTaipei,中華電信,永和區,新北市永和區民權路60號B1樓,新北市政府文化局,24.9978019,121.51992,302482.1,2765658.62,121.51992,24.998017
418,新北市立圖書館永和民權分館8F-3_B,NewTaipei,中華電信,永和區,新北市永和區民權路60號B1樓,新北市政府文化局,24.9978019,121.51992,302482.1,2765658.62,121.51992,24.998017
419,新北市立圖書館永和忠孝圖書閱覽室,NewTaipei,中華電信,永和區,新北市永和區忠孝街26巷8號3樓,新北市政府文化局,25.016863,121.515265,302008.94,2767743.5,121.515311,25.016856
420,新北市立圖書館永和保生分館5F-1,NewTaipei,中華電信,永和區,新北市永和區新生路218號5樓,新北市政府文化局,25.0131316,121.5054731,300992.94,2767308.95,121.505229,25.012967
421,新北市立圖書館永和保生分館5F-2,NewTaipei,中華電信,永和區,新北市永和區新生路218號5樓,新北市政府文化局,25.0131316,121.5054731,300992.94,2767308.95,121.505229,25.012967
422,新北市立圖書館永和保生分館6F_A,NewTaipei,中華電信,永和區,新北市永和區新生路218號6樓,新北市政府文化局,25.0131316,121.5054731,300992.94,2767308.95,121.505229,25.012967
423,新北市立圖書館永和保生分館6F_B,NewTaipei,中華電信,永和區,新北市永和區新生路218號6樓,新北市政府文化局,25.0131316,121.5054731,300992.94,2767308.95,121.505229,25.012967
424,新北市立圖書館永和親子圖書閱覽室,NewTaipei,中華電信,永和區,新北市永和區保安路132號2樓,新北市政府文化局,25.01537,121.5089079,301359.28,2767579.12,121.508869,25.015394
425,新北市立圖書館石門分館,NewTaipei,中華電信,石門區,新北市石門區尖鹿里中央路9-3號1樓,新北市政府文化局,25.291821,121.566852,307081.61,2798243.72,121.566841,25.292022
426,新北市立圖書館石碇分館2F,NewTaipei,中華電信,石碇區,新北市石碇區碇坪路1段65號2樓,新北市政府文化局,24.991338,121.660538,316633.5,2765004.32,121.660075,24.991554
427,新北市立圖書館汐止大同分館1F,NewTaipei,中華電信,汐止區,新北市汐止區大同路2段451號1樓,新北市政府文化局,25.067776,121.659206,316537.74,2773490.29,121.659536,25.068168
428,新北市立圖書館汐止大同分館2F-1,NewTaipei,中華電信,汐止區,新北市汐止區大同路2段451號2樓,新北市政府文化局,25.067776,121.659206,316537.74,2773490.29,121.659536,25.068168
429,新北市立圖書館汐止大同分館2F-2,NewTaipei,中華電信,汐止區,新北市汐止區大同路2段451號2樓,新北市政府文化局,25.067776,121.659206,316537.74,2773490.29,121.659536,25.068168
430,新北市立圖書館汐止大同分館3F,NewTaipei,中華電信,汐止區,新北市汐止區大同路2段451號3樓,新北市政府文化局,25.067777,121.659207,316537.74,2773490.29,121.659536,25.068168
431,新北市立圖書館汐止分館-1_A,NewTaipei,中華電信,汐止區,新北市汐止區新台五路1段268號5樓,新北市政府文化局,25.064119,121.658533,316485.13,2773012.04,121.658991,25.063852
432,新北市立圖書館汐止分館-1_B,NewTaipei,中華電信,汐止區,新北市汐止區新台五路1段268號5樓,新北市政府文化局,25.064119,121.658533,316485.13,2773012.04,121.658991,25.063852
433,新北市立圖書館汐止分館-1_C,NewTaipei,中華電信,汐止區,新北市汐止區新台五路1段268號5樓,新北市政府文化局,25.064119,121.658533,316485.13,2773012.04,121.658991,25.063852
434,新北市立圖書館汐止分館-2_A,NewTaipei,中華電信,汐止區,新北市汐止區新台五路1段268號5樓,新北市政府文化局,25.064119,121.658533,316485.13,2773012.04,121.658991,25.063852
435,新北市立圖書館汐止分館-2_B,NewTaipei,中華電信,汐止區,新北市汐止區新台五路1段268號5樓,新北市政府文化局,25.064119,121.658533,316485.13,2773012.04,121.658991,25.063852
436,新北市立圖書館汐止北峰圖書閱覽室-1,NewTaipei,中華電信,汐止區,新北市汐止區福德一路272巷5號1樓,新北市政府文化局,25.0641386,121.6318296,313732.36,2773013.96,121.631707,25.063988
437,新北市立圖書館汐止北峰圖書閱覽室-2,NewTaipei,中華電信,汐止區,新北市汐止區福德一路272巷5號1樓,新北市政府文化局,25.0641386,121.6318296,313732.36,2773013.96,121.631707,25.063988
438,新北市立圖書館汐止江北分館-1,NewTaipei,中華電信,汐止區,新北市汐止區汐萬路1段81號1樓,新北市政府文化局,25.069794,121.65471,316028.12,2773699.36,121.654495,25.070077
439,新北市立圖書館汐止江北分館-2,NewTaipei,中華電信,汐止區,新北市汐止區汐萬路1段81號1樓,新北市政府文化局,25.069794,121.65471,316028.12,2773699.36,121.654495,25.070077
440,新北市立圖書館汐止長安分館,NewTaipei,中華電信,汐止區,新北市汐止區長興街1段50號3樓,新北市政府文化局,25.079073,121.6705284,317645.45,2774706.35,121.670575,25.079097
441,新北市立圖書館汐止茄苳分館,NewTaipei,中華電信,汐止區,新北市汐止區茄苳路225巷35號2樓,新北市政府文化局,25.069255,121.672058,317798.3,2773605.33,121.672036,25.06915
442,新北市立圖書館汐止橫科圖書閱覽室,NewTaipei,中華電信,汐止區,新北市汐止區橫科路119號3樓,新北市政府文化局,25.050647,121.619867,312572.9,2771516.83,121.620148,25.050521
443,新北市立圖書館坪林分館3F,NewTaipei,中華電信,坪林區,新北市坪林區國中路3號3樓,新北市政府文化局,24.936987,121.712689,321981.6,2758993,121.712738,24.937041
444,新北市立圖書館板橋分館2F-1,NewTaipei,中華電信,板橋區,新北市板橋區文化路1段23號2樓,新北市政府文化局,25.010842,121.458265,296246.84,2767052.68,121.458198,25.010806
445,新北市立圖書館板橋分館2F-2,NewTaipei,中華電信,板橋區,新北市板橋區文化路1段23號2樓,新北市政府文化局,25.010842,121.458265,296246.84,2767052.68,121.458198,25.010806
446,新北市立圖書館板橋分館3F-1,NewTaipei,中華電信,板橋區,新北市板橋區文化路1段23號3樓,新北市政府文化局,25.010842,121.458265,296246.84,2767052.68,121.458198,25.010806
447,新北市立圖書館板橋分館3F-2,NewTaipei,中華電信,板橋區,新北市板橋區文化路1段23號3樓,新北市政府文化局,25.010842,121.458265,296246.84,2767052.68,121.458198,25.010806
448,新北市立圖書館板橋分館3F-3,NewTaipei,中華電信,板橋區,新北市板橋區文化路1段23號3樓,新北市政府文化局,25.010842,121.458265,296246.84,2767052.68,121.458198,25.010806
449,新北市立圖書館板橋四維分館1F_A,NewTaipei,中華電信,板橋區,新北市板橋區陽明街168號1樓,新北市政府文化局,25.024565,121.463327,296744,2768640.17,121.463177,25.025123
450,新北市立圖書館板橋四維分館1F_B,NewTaipei,中華電信,板橋區,新北市板橋區陽明街168號1樓,新北市政府文化局,25.024565,121.463327,296744,2768640.17,121.463177,25.025123
451,新北市立圖書館板橋四維分館2F-1_A,NewTaipei,中華電信,板橋區,新北市板橋區陽明街168號2樓,新北市政府文化局,25.024565,121.463327,296744,2768640.17,121.463177,25.025123
452,新北市立圖書館板橋四維分館2F-1_B,NewTaipei,中華電信,板橋區,新北市板橋區陽明街168號2樓,新北市政府文化局,25.024565,121.463327,296744,2768640.17,121.463177,25.025123
453,新北市立圖書館板橋四維分館2F-2,NewTaipei,中華電信,板橋區,新北市板橋區陽明街168號2樓,新北市政府文化局,25.024565,121.463327,296744,2768640.17,121.463177,25.025123
454,新北市立圖書館板橋四維分館3F-1_A,NewTaipei,中華電信,板橋區,新北市板橋區陽明街168號3樓,新北市政府文化局,25.024565,121.463327,296744,2768640.17,121.463177,25.025123
455,新北市立圖書館板橋四維分館3F-1_B,NewTaipei,中華電信,板橋區,新北市板橋區陽明街168號3樓,新北市政府文化局,25.024565,121.463327,296744,2768640.17,121.463177,25.025123
456,新北市立圖書館板橋四維分館3F-2,NewTaipei,中華電信,板橋區,新北市板橋區陽明街168號3樓,新北市政府文化局,25.024565,121.463327,296744,2768640.17,121.463177,25.025123
457,新北市立圖書館板橋民生圖書閱覽室-1,NewTaipei,中華電信,板橋區,新北市板橋區民生路2段30號2樓,新北市政府文化局,25.0133319,121.475955,297712.56,2767762.11,121.472744,25.017165
458,新北市立圖書館板橋民生圖書閱覽室-2,NewTaipei,中華電信,板橋區,新北市板橋區民生路1段30號2樓,新北市政府文化局,25.0133319,121.475955,298048.22,2767359.67,121.476056,25.013521
459,新北市立圖書館板橋江子翠分館2F-1,NewTaipei,中華電信,板橋區,新北市板橋區莊敬路62號1樓,新北市政府文化局,25.0256529,121.471873,334811.53,2778145.23,121.840943,25.109274
460,新北市立圖書館板橋江子翠分館2F-2,NewTaipei,中華電信,板橋區,新北市板橋區莊敬路62號1樓,新北市政府文化局,25.0256529,121.471873,297662.56,2768742.8,121.472283,25.026021
461,新北市立圖書館板橋江子翠分館2F-3,NewTaipei,中華電信,板橋區,新北市板橋區莊敬路62號1樓,新北市政府文化局,25.0256529,121.471873,297662.56,2768742.8,121.472283,25.026021
462,新北市立圖書館板橋江子翠分館2F-4,NewTaipei,中華電信,板橋區,新北市板橋區莊敬路62號1樓,新北市政府文化局,25.0256529,121.471873,297662.56,2768742.8,121.472283,25.026021
463,新北市立圖書館板橋江子翠分館2F-5,NewTaipei,中華電信,板橋區,新北市板橋區莊敬路62號2樓,新北市政府文化局,25.0256529,121.471873,297662.56,2768742.8,121.472283,25.026021
464,新北市立圖書館板橋江子翠分館3F-1,NewTaipei,中華電信,板橋區,新北市板橋區莊敬路62號2樓,新北市政府文化局,25.0256529,121.471873,297662.56,2768742.8,121.472283,25.026021
465,新北市立圖書館板橋江子翠分館3F-2,NewTaipei,中華電信,板橋區,新北市板橋區莊敬路62號3樓,新北市政府文化局,25.0256529,121.471873,297662.56,2768742.8,121.472283,25.026021
466,新北市立圖書館板橋江子翠分館3F-3,NewTaipei,中華電信,板橋區,新北市板橋區莊敬路62號3樓,新北市政府文化局,25.0256529,121.471873,0,0,,
467,新北市立圖書館板橋江子翠分館3F-4,NewTaipei,中華電信,板橋區,新北市板橋區莊敬路62號3樓,新北市政府文化局,25.0256529,121.471873,297662.56,2768742.8,121.472283,25.026021
468,新北市立圖書館板橋江子翠分館3F-5,NewTaipei,中華電信,板橋區,新北市板橋區莊敬路62號3樓,新北市政府文化局,25.0256529,121.471873,345381.84,2767935.49,121.945034,25.016479
469,新北市立圖書館板橋江子翠分館3F-6,NewTaipei,中華電信,板橋區,新北市板橋區莊敬路62號3樓,新北市政府文化局,25.0256529,121.471873,297662.56,2768742.8,121.472283,25.026021
470,新北市立圖書館三峽北大分館3F-1_A,NewTaipei,中華電信,三峽區,新北市三峽區學成路396號3樓,新北市政府文化局,24.944661,121.377983,288149.58,2759649.62,121.37777,24.944195
471,新北市立圖書館三峽北大分館3F-1_B,NewTaipei,中華電信,三峽區,新北市三峽區學成路396號3樓,新北市政府文化局,24.944661,121.377983,288149.58,2759649.62,121.37777,24.944195
472,新北市立圖書館三峽北大分館3F-2_A,NewTaipei,中華電信,三峽區,新北市三峽區學成路396號3樓,新北市政府文化局,24.944661,121.377983,288149.58,2759649.62,121.37777,24.944195
473,新北市立圖書館三峽北大分館3F-2_B,NewTaipei,中華電信,三峽區,新北市三峽區學成路396號3樓,新北市政府文化局,24.944661,121.377983,288149.58,2759649.62,121.37777,24.944195
474,新北市立圖書館板橋忠孝分館3F_A,NewTaipei,中華電信,板橋區,新北市板橋區國慶路149巷21弄16號3樓,新北市政府文化局,24.99765,121.460354,296444.15,2765572.16,121.460103,24.997434
475,新北市立圖書館板橋忠孝分館3F_B,NewTaipei,中華電信,板橋區,新北市板橋區國慶路149巷21弄16號3樓,新北市政府文化局,24.99765,121.460354,296444.15,2765572.16,121.460103,24.997434
476,新北市立圖書館板橋忠孝分館2F_A,NewTaipei,中華電信,板橋區,新北市板橋區國慶路149巷21弄16號2樓,新北市政府文化局,24.99765,121.460354,296444.15,2765572.16,121.460103,24.997434
477,新北市立圖書館板橋忠孝分館2F_B,NewTaipei,中華電信,板橋區,新北市板橋區國慶路149巷21弄16號2樓,新北市政府文化局,24.99765,121.460354,296444.15,2765572.16,121.460103,24.997434
478,新北市立圖書館板橋浮洲圖書閱覽室-1,NewTaipei,中華電信,板橋區,新北市板橋區大觀路2段163號2樓,新北市政府文化局,25.000515,121.445473,294540.54,2765710.27,121.44125,24.998738
479,新北市立圖書館板橋浮洲圖書閱覽室-2,NewTaipei,中華電信,板橋區,新北市板橋區大觀路2段163號2樓,新北市政府文化局,25.000515,121.445473,294540.54,2765710.27,121.44125,24.998738
480,新北市立圖書館板橋國光圖書3F閱覽室_A,NewTaipei,中華電信,板橋區,新北市板橋區中正路375巷48號3樓,新北市政府文化局,25.02027,121.4536,295772.84,2768107.84,121.453537,25.020346
481,新北市立圖書館板橋國光圖書3F閱覽室_B,NewTaipei,中華電信,板橋區,新北市板橋區中正路375巷48號3樓,新北市政府文化局,25.02027,121.4536,295772.84,2768107.84,121.453537,25.020346
482,新北市立圖書館板橋溪北分館-1_A,NewTaipei,中華電信,板橋區,新北市板橋區篤行路2段133號1樓,新北市政府文化局,24.99048,121.431214,293567.27,2764770.44,121.431578,24.990281
483,新北市立圖書館板橋溪北分館-1_B,NewTaipei,中華電信,板橋區,新北市板橋區篤行路2段133號1樓,新北市政府文化局,24.99048,121.431214,293567.27,2764770.44,121.431578,24.990281
484,新北市立圖書館板橋溪北分館-2_A,NewTaipei,中華電信,板橋區,新北市板橋區篤行路2段133號1樓,新北市政府文化局,24.99048,121.431214,293567.27,2764770.44,121.431578,24.990281
485,新北市立圖書館板橋溪北分館-2_B,NewTaipei,中華電信,板橋區,新北市板橋區篤行路2段133號1樓,新北市政府文化局,24.99048,121.431214,293567.27,2764770.44,121.431578,24.990281
486,新北市立圖書館板橋萬板圖書閱覽室1F_A,NewTaipei,中華電信,板橋區,新北市板橋區萬板路28號1樓,新北市政府文化局,25.0221419,121.4717857,297661.77,2768331.72,121.472261,25.022309
487,新北市立圖書館板橋萬板圖書閱覽室1F_B,NewTaipei,中華電信,板橋區,新北市板橋區萬板路28號1樓,新北市政府文化局,25.0221419,121.4717857,297661.77,2768331.72,121.472261,25.022309
488,新北市立圖書館林口分館4F-1,NewTaipei,中華電信,林口區,新北市林口區忠孝二路55號4樓,新北市政府文化局,25.069967,121.364025,286727.36,2773562.89,121.364057,25.069842
489,新北市立圖書館林口分館4F-2,NewTaipei,中華電信,林口區,新北市林口區忠孝二路55號5樓,新北市政府文化局,25.069967,121.364025,286727.36,2773562.89,121.364057,25.069842
490,新北市立圖書館林口分館5F,NewTaipei,中華電信,林口區,新北市林口區忠孝二路55號5樓,新北市政府文化局,25.069967,121.364025,286727.36,2773562.89,121.364057,25.069842
491,新北市立圖書館金山分館-1,NewTaipei,中華電信,金山區,新北市金山區五湖里龜子山路8號1樓,新北市政府文化局,25.218453,121.639171,312742.85,2789052.47,121.622634,25.208821
492,新北市立圖書館泰山分館5F-1,NewTaipei,中華電信,泰山區,新北市泰山區全興路212號5樓,新北市政府文化局,25.05489,121.43446,293753.33,2772064.84,121.433653,25.05613
493,新北市立圖書館泰山分館5F-2,NewTaipei,中華電信,泰山區,新北市泰山區全興路212號5樓,新北市政府文化局,25.05489,121.43446,293753.33,2772064.84,121.433653,25.05613
494,新北市立圖書館泰山貴子分館-1,NewTaipei,中華電信,泰山區,新北市泰山區工專路22號3樓,新北市政府文化局,25.03998,121.423516,292747.35,2770260.13,121.423627,25.039866
495,新北市立圖書館泰山貴子分館-2,NewTaipei,中華電信,泰山區,新北市泰山區工專路22號4樓,新北市政府文化局,25.03998,121.423516,292747.35,2770260.13,121.423627,25.039866
496,新北市立圖書館泰山親子圖書閱覽室,NewTaipei,中華電信,泰山區,新北市泰山區楓江路26巷26號3樓,新北市政府文化局,25.0601717,121.4363731,293876.64,2772677.97,121.434895,25.061662
497,烏來區圖書館,NewTaipei,中華電信,烏來區,新北市烏來區烏來里烏來街34號1樓,新北市政府文化局,24.863512,121.551363,305699.82,2750769.7,121.551198,24.863484
498,新北市立圖書館貢寮分館,NewTaipei,中華電信,貢寮區,新北市貢寮區真理里仁愛路79號3樓,新北市政府文化局,25.054737,121.926835,343524.04,2772164.97,121.926916,25.054775
499,新北市立圖書館淡水分館3F,NewTaipei,中華電信,淡水區,新北市淡水區文化路65號3樓,新北市政府文化局,25.1728806,121.437855,294145.73,2784990.08,121.437958,25.172808
500,新北市立圖書館淡水分館4F,NewTaipei,中華電信,淡水區,新北市淡水區文化路65號4樓,新北市政府文化局,25.1728806,121.437855,294145.73,2784990.08,121.437958,25.172808
501,新北市立圖書館淡水水碓分館4F,NewTaipei,中華電信,淡水區,新北市淡水區中山北路1段158號4樓,新北市政府文化局,25.178124,121.444081,294768.25,2785570.9,121.444152,25.178033
502,新北市立圖書館淡水水碓分館6F,NewTaipei,中華電信,淡水區,新北市淡水區中山北路1段158號6樓,新北市政府文化局,25.178124,121.444081,314419.1,2789268.72,121.639278,25.210702
503,新北市立圖書館淡水水碓分館7F,NewTaipei,中華電信,淡水區,新北市淡水區中山北路1段158號7樓,新北市政府文化局,25.178124,121.444081,300545.41,2765707.09,121.500737,24.998521
504,新北市立圖書館淡水竹圍分館4F,NewTaipei,中華電信,淡水區,新北市淡水區民生路27號4樓,新北市政府文化局,25.1379429,121.461458,296517.39,2781144.65,121.461355,25.13802
505,新北市立圖書館淡水竹圍分館5F,NewTaipei,中華電信,淡水區,新北市淡水區民生路27號5樓,新北市政府文化局,25.1379429,121.461458,296517.39,2781144.65,121.461355,25.13802
506,新北市立圖書館淡水竹圍分館6F,NewTaipei,中華電信,淡水區,新北市淡水區民生路27號6樓,新北市政府文化局,25.1379429,121.461458,296517.39,2781144.65,121.461355,25.13802
507,新北市立圖書館深坑分館1F-1,NewTaipei,中華電信,深坑區,新北市深坑區深坑街10號1樓,新北市政府文化局,25.0024849,121.615924,312175.15,2766198.26,121.615966,25.002522
508,新北市立圖書館深坑分館1F-2,NewTaipei,中華電信,深坑區,新北市深坑區深坑街10號1樓,新北市政府文化局,25.0024849,121.615924,312175.15,2766198.26,121.615966,25.002522
509,新北市立圖書館新店三民圖書閱覽室-1_A,NewTaipei,中華電信,新店區,新北市新店區三民路20-2號2樓,新北市政府文化局,24.971825,121.537657,304251.41,2762667.14,121.53733,24.970948
510,新北市立圖書館新店三民圖書閱覽室-1_B,NewTaipei,中華電信,新店區,新北市新店區三民路20-2號2樓,新北市政府文化局,24.971825,121.537657,304251.41,2762667.14,121.53733,24.970948
511,新北市立圖書館新店三民圖書閱覽室-1_C,NewTaipei,中華電信,新店區,新北市新店區三民路20-2號2樓,新北市政府文化局,24.971825,121.537657,304251.41,2762667.14,121.53733,24.970948
512,新北市立圖書館新店三民圖書閱覽室-1_D,NewTaipei,中華電信,新店區,新北市新店區三民路20-2號2樓,新北市政府文化局,24.971825,121.537657,304251.41,2762667.14,121.53733,24.970948
513,新北市立圖書館新店三民圖書閱覽室-2,NewTaipei,中華電信,新店區,新北市新店區三民路20-2號2樓,新北市政府文化局,24.971825,121.537657,304251.41,2762667.14,121.53733,24.970948
514,新北市立圖書館新店大鵬圖書閱覽室_A,NewTaipei,中華電信,新店區,新北市新店區中正路700巷26號2樓,新北市政府文化局,24.991403,121.534674,304001.27,2764934.11,121.534941,24.991423
515,新北市立圖書館新店大鵬圖書閱覽室_B,NewTaipei,中華電信,新店區,新北市新店區中正路700巷26號2樓,新北市政府文化局,24.991403,121.534674,304001.27,2764934.11,121.534941,24.991423
516,新北市立圖書館新店中央圖書閱覽室,NewTaipei,中華電信,新店區,新北市新店區中央五街60號2樓,新北市政府文化局,24.9755119,121.52722,303267.35,2763161.52,121.527603,24.975446
517,新北市立圖書館新店中正閱覽室,NewTaipei,中華電信,新店區,新北市新店區中正路275巷17-1號1樓,新北市政府文化局,24.9735179,121.5372289,304240.91,2762949.66,121.537237,24.973499
518,新北市立圖書館新店仁愛圖書閱覽室2F,NewTaipei,中華電信,新店區,新北市新店區建國路58號2樓,新北市政府文化局,24.975471,121.540793,304589.89,2763160.17,121.540702,24.975387
519,新北市立圖書館新店北新圖書閱覽室,NewTaipei,中華電信,新店區,新北市新店區北新路1段92號2樓,新北市政府文化局,24.968774,121.542137,304761.66,2762358.57,121.542371,24.968144
520,新北市立圖書館新店百忍圖書閱覽室3F,NewTaipei,中華電信,新店區,新北市新店區自由街2號3樓3樓,新北市政府文化局,24.9751459,121.53546,304072.24,2763160.08,121.535575,24.975404
521,新北市立圖書館新店柴埕圖書閱覽室,NewTaipei,中華電信,新店區,新北市新店區安民街79號3樓,新北市政府文化局,24.9675717,121.5165604,302156.79,2762263.62,121.51657,24.967378
522,新北市立圖書館新店碧潭圖書閱覽室,NewTaipei,中華電信,新店區,新北市新店區新店路207號4樓,新北市政府文化局,24.9568124,121.5371498,304233.44,2761082.88,121.53709,24.956646
523,新北市立圖書館新店福民閱覽室,NewTaipei,中華電信,新店區,新北市新店區福園街8號3樓,新北市政府文化局,24.973167,121.533154,303848.68,2762884.47,121.53335,24.972924
524,新北市立圖書館新店龜山圖書閱覽室,NewTaipei,中華電信,新店區,新北市新店區新烏路3段136號1樓,新北市政府文化局,24.9033409,121.552135,305764.43,2755162.3,121.552013,24.903139
525,新北市立圖書館新店寶興圖書閱覽室,NewTaipei,中華電信,新店區,新北市新店區寶中路65巷59號3樓,新北市政府文化局,24.9814679,121.545919,305098.11,2763822.3,121.545762,24.981346
526,新北市立圖書館新莊中港分館5F-A,NewTaipei,中華電信,新莊區,新北市新莊區中港路350號5樓,新北市政府文化局,25.046842,121.452012,295604.74,2770983.49,121.451967,25.046313
527,新北市立圖書館新莊中港分館5F-B,NewTaipei,中華電信,新莊區,新北市新莊區中港路350號5樓,新北市政府文化局,25.046842,121.452016,295604.74,2770983.49,121.451967,25.046313
528,新北市立圖書館新莊中港分館6F-A,NewTaipei,中華電信,新莊區,新北市新莊區中港路350號6樓,新北市政府文化局,25.0463017,121.4519442,299249.16,2771583.79,121.488105,25.051618
529,新北市立圖書館新莊中港分館6F-B,NewTaipei,中華電信,新莊區,新北市新莊區中港路350號6樓,新北市政府文化局,25.0463017,121.4519442,295604.74,2770983.49,121.451967,25.046313
530,新北市立圖書館新莊中港分館7F-A,NewTaipei,中華電信,新莊區,新北市新莊區中港路350號7樓,新北市政府文化局,25.046843,121.452013,295604.74,2770983.49,121.451967,25.046313
531,新北市立圖書館新莊中港分館7F-B,NewTaipei,中華電信,新莊區,新北市新莊區中港路350號7樓,新北市政府文化局,25.046843,121.452012,295604.74,2770983.49,121.451967,25.046313
532,新北市立圖書館新莊中港分館8F-1_A,NewTaipei,中華電信,新莊區,新北市新莊區中港路350號8樓,新北市政府文化局,25.046844,121.452014,295604.74,2770983.49,121.451967,25.046313
533,新北市立圖書館新莊中港分館8F-1_B,NewTaipei,中華電信,新莊區,新北市新莊區中港路350號8樓,新北市政府文化局,25.046844,121.452012,297404.39,2775194.62,121.469947,25.084276
534,新北市立圖書館新莊中港分館8F-2_A,NewTaipei,中華電信,新莊區,新北市新莊區中港路350號8樓,新北市政府文化局,25.046845,121.452015,295604.74,2770983.49,121.451967,25.046313
535,新北市立圖書館新莊中港分館8F-2_B,NewTaipei,中華電信,新莊區,新北市新莊區中港路350號8樓,新北市政府文化局,25.046845,121.452012,295604.74,2770983.49,121.451967,25.046313
536,新北市立圖書館新莊分館5F,NewTaipei,中華電信,新莊區,新北市新莊區中華路1段2號5樓,新北市政府文化局,25.0361926,121.4522054,295636.71,2769886.57,121.452247,25.036409
537,新北市立圖書館新莊分館6F,NewTaipei,中華電信,新莊區,新北市新莊區中華路1段2號6樓,新北市政府文化局,25.0361926,121.4522054,295636.71,2769886.57,121.452247,25.036409
538,新北市立圖書館新莊西盛分館1F,NewTaipei,中華電信,新莊區,新北市新莊區西盛街216號1樓,新北市政府文化局,25.017351,121.428005,293197.01,2767749.14,121.428004,25.017184
539,新北市立圖書館新莊西盛分館2F,NewTaipei,中華電信,新莊區,新北市新莊區西盛街216號2樓,新北市政府文化局,25.017351,121.428005,335155.81,2778161.05,121.844357,25.109398
540,新北市立圖書館新莊西盛分館3F,NewTaipei,中華電信,新莊區,新北市新莊區西盛街216號3樓,新北市政府文化局,25.017351,121.428005,0,0,,
541,新北市立圖書館新莊裕民分館4F-1,NewTaipei,中華電信,新莊區,新北市新莊區裕民街136號4樓,新北市政府文化局,25.020814,121.417561,292163.47,2768266.64,121.417779,25.021885
542,新北市立圖書館新莊裕民分館4F-2,NewTaipei,中華電信,新莊區,新北市新莊區裕民街136號4樓,新北市政府文化局,25.020814,121.417561,292163.47,2768266.64,121.417779,25.021885
543,新北市立圖書館新莊裕民分館5F-1,NewTaipei,中華電信,新莊區,新北市新莊區裕民街136號5樓,新北市政府文化局,25.020814,121.417561,292163.47,2768266.64,121.417779,25.021885
544,新北市立圖書館新莊裕民分館5F-2,NewTaipei,中華電信,新莊區,新北市新莊區裕民街136號5樓,新北市政府文化局,25.020814,121.417561,292163.47,2768266.64,121.417779,25.021885
545,新北市立圖書館新莊福營分館3F_A,NewTaipei,中華電信,新莊區,新北市新莊區四維路9號3樓,新北市政府文化局,25.0245451,121.4238098,292765.32,2768535.47,121.423751,25.024295
546,新北市立圖書館新莊福營分館3F_B,NewTaipei,中華電信,新莊區,新北市新莊區四維路9號3樓,新北市政府文化局,25.0245451,121.4238098,292765.32,2768535.47,121.423751,25.024295
547,新北市立圖書館新莊福營分館4F,NewTaipei,中華電信,新莊區,新北市新莊區四維路9號4樓,新北市政府文化局,25.0245451,121.4238098,292765.32,2768535.47,121.423751,25.024295
548,新北市立圖書館新莊福營分館5F,NewTaipei,中華電信,新莊區,新北市新莊區四維路9號5樓,新北市政府文化局,25.0245451,121.4238098,292765.32,2768535.47,121.423751,25.024295
549,新北市立圖書館新莊聯合分館3F,NewTaipei,中華電信,新莊區,新北市新莊區自由街1號3樓,新北市政府文化局,25.046407,121.452082,296008,2771170.54,121.455969,25.047989
550,新北市立圖書館新莊聯合分館4F,NewTaipei,中華電信,新莊區,新北市新莊區自由街1號4樓,新北市政府文化局,25.046407,121.452082,296008,2771170.54,121.455969,25.047989
551,新北市立圖書館新莊聯合分館5F_A,NewTaipei,中華電信,新莊區,新北市新莊區自由街1號5樓,新北市政府文化局,25.046407,121.452082,296008,2771170.54,121.455969,25.047989
552,新北市立圖書館新莊聯合分館5F_B,NewTaipei,中華電信,新莊區,新北市新莊區自由街1號5樓,新北市政府文化局,25.046407,121.452082,296008,2771170.54,121.455969,25.047989
553,新北市立圖書館瑞芳分館1_A,NewTaipei,中華電信,瑞芳區,新北市瑞芳區中正路1號1樓,新北市政府文化局,25.107174,121.809107,331541.72,2777867.27,121.808507,25.106945
554,新北市立圖書館瑞芳分館-1_B,NewTaipei,中華電信,瑞芳區,新北市瑞芳區中正路1號1樓,新北市政府文化局,25.107174,121.809107,331541.72,2777867.27,121.808507,25.106945
555,新北市立圖書館瑞芳分館-2,NewTaipei,中華電信,瑞芳區,新北市瑞芳區中正路1號1樓,新北市政府文化局,25.107174,121.809107,331541.72,2777867.27,121.808507,25.106945
556,新北市立圖書館瑞芳東和圖書閱覽室,NewTaipei,中華電信,瑞芳區,新北市瑞芳區中山路20號3樓,新北市政府文化局,25.1063314,121.8042626,331116.34,2777801.68,121.804286,25.106376
557,新北市立圖書館萬里分館-1,NewTaipei,中華電信,萬里區,新北市萬里區瑪鋉路221號4樓,新北市政府文化局,25.1802374,121.6893982,319513.81,2785869.84,121.689661,25.179791
558,新北市立圖書館萬里分館-2,NewTaipei,中華電信,萬里區,新北市萬里區瑪鋉路221號4樓,新北市政府文化局,25.1845557,121.6864204,319513.81,2785869.84,121.689661,25.179791
559,新北市立圖書館樹林三多圖書閱覽室-1_A,NewTaipei,中華電信,樹林區,新北市樹林區福興街17號2樓,新北市政府文化局,25.0162126,121.4042105,290809.09,2767678.32,121.404342,25.01661
560,新北市立圖書館樹林三多圖書閱覽室-1_B,NewTaipei,中華電信,樹林區,新北市樹林區福興街17號2樓,新北市政府文化局,25.0162126,121.4042105,290809.09,2767678.32,121.404342,25.01661
561,新北市立圖書館樹林三多圖書閱覽室-2_A,NewTaipei,中華電信,樹林區,新北市樹林區福興街17號2樓,新北市政府文化局,25.0162126,121.4042105,290809.09,2767678.32,121.404342,25.01661
562,新北市立圖書館樹林三多圖書閱覽室-2_B,NewTaipei,中華電信,樹林區,新北市樹林區福興街17號2樓,新北市政府文化局,25.0162126,121.4042105,290809.09,2767678.32,121.404342,25.01661
563,新北市立圖書館樹林大安圖書閱覽室,NewTaipei,中華電信,樹林區,新北市樹林區大安路118-1號2樓,新北市政府文化局,24.9970502,121.4213701,292491.17,2765454.61,121.42094,24.996488
564,新北市立圖書館樹林東昇分館3F_A,NewTaipei,中華電信,樹林區,新北市樹林區中山路2段80號3樓,新北市政府文化局,24.9840709,121.414907,291914.72,2764076.31,121.415188,24.984061
565,新北市立圖書館樹林東昇分館3F_B,NewTaipei,中華電信,樹林區,新北市樹林區中山路2段80號3樓,新北市政府文化局,24.9840709,121.414907,291914.72,2764076.31,121.415188,24.984061
566,新北市立圖書館樹林東昇分館4F_A,NewTaipei,中華電信,樹林區,新北市樹林區中山路2段80號4樓,新北市政府文化局,24.9840709,121.414907,291914.72,2764076.31,121.415188,24.984061
567,新北市立圖書館樹林東昇分館4F_B,NewTaipei,中華電信,樹林區,新北市樹林區中山路2段80號4樓,新北市政府文化局,24.9840709,121.414907,291914.72,2764076.31,121.415188,24.984061
568,新北市立圖書館樹林柑園圖書閱覽室1F_A,NewTaipei,中華電信,樹林區,新北市樹林區佳園街3段128號1樓,新北市政府文化局,24.957114,121.388454,292854.71,2764724.17,121.424519,24.989884
569,新北市立圖書館樹林柑園圖書閱覽室1F_B,NewTaipei,中華電信,樹林區,新北市樹林區佳園街3段128號1樓,新北市政府文化局,24.957114,121.388454,292854.71,2764724.17,121.424519,24.989884
570,新北市立圖書館樹林柑園圖書閱覽室2F_A,NewTaipei,中華電信,樹林區,新北市樹林區佳園街3段128號2樓,新北市政府文化局,24.957114,121.388454,292854.71,2764724.17,121.424519,24.989884
571,新北市立圖書館樹林柑園圖書閱覽室2F_B,NewTaipei,中華電信,樹林區,新北市樹林區佳園街3段128號2樓,新北市政府文化局,24.957114,121.388454,292854.71,2764724.17,121.424519,24.989884
572,新北市立圖書館樹林彭厝圖書閱覽室3F_A,NewTaipei,中華電信,樹林區,新北市樹林區國凱街65號3樓,新北市政府文化局,24.979132,121.42073,292622.74,2763611.52,121.422186,24.979845
573,新北市立圖書館樹林彭厝圖書閱覽室3F_B,NewTaipei,中華電信,樹林區,新北市樹林區國凱街65號3樓,新北市政府文化局,24.979132,121.42073,292622.74,2763611.52,121.422186,24.979845
574,新北市立圖書館樹林樂山圖書閱覽室1F_A,NewTaipei,中華電信,樹林區,新北市樹林區中和街38號1樓,新北市政府文化局,24.974549,121.389237,289360.84,2762914.09,121.389857,24.973636
575,新北市立圖書館樹林樂山圖書閱覽室1F_B,NewTaipei,中華電信,樹林區,新北市樹林區中和街38號1樓,新北市政府文化局,24.974549,121.389237,289360.84,2762914.09,121.389857,24.973636
576,新北市立圖書館雙溪分館-1_A,NewTaipei,中華電信,雙溪區,新北市雙溪區太平路50號3樓,新北市政府文化局,25.035348,121.864636,337260.51,2769968.07,121.864705,25.035317
577,新北市立圖書館雙溪分館-1_B,NewTaipei,中華電信,雙溪區,新北市雙溪區太平路50號3樓,新北市政府文化局,25.035348,121.864636,337260.51,2769968.07,121.864705,25.035317
578,新北市立圖書館雙溪分館-2,NewTaipei,中華電信,雙溪區,新北市雙溪區太平路50號3樓,新北市政府文化局,25.035348,121.864636,337260.51,2769968.07,121.864705,25.035317
579,新北市立圖書館蘆洲永平分館_A,NewTaipei,中華電信,蘆洲區,新北市蘆洲區永平街1號3樓,新北市政府文化局,25.091155,121.459548,296315.36,2775864.61,121.459173,25.090358
580,新北市立圖書館蘆洲永平分館_B,NewTaipei,中華電信,蘆洲區,新北市蘆洲區永平街1號3樓,新北市政府文化局,25.091155,121.459548,296315.36,2775864.61,121.459173,25.090358
581,新北市立圖書館蘆洲永安圖書閱覽室2F,NewTaipei,中華電信,蘆洲區,新北市蘆洲區永安南路2段134號2樓,新北市政府文化局,25.0792859,121.46278,296664.15,2774562.07,121.462587,25.078588
582,新北市立圖書館蘆洲永安圖書閱覽室3F_A,NewTaipei,中華電信,蘆洲區,新北市蘆洲區永安南路2段134號3樓,新北市政府文化局,25.0792859,121.46278,296664.15,2774562.07,121.462587,25.078588
583,新北市立圖書館蘆洲永安圖書閱覽室3F_B,NewTaipei,中華電信,蘆洲區,新北市蘆洲區永安南路2段134號3樓,新北市政府文化局,25.0792859,121.46278,296664.15,2774562.07,121.462587,25.078588
584,新北市立圖書館蘆洲兒童親子分館2F-1_A,NewTaipei,中華電信,蘆洲區,新北市蘆洲區集賢路221巷11號2樓,新北市政府文化局,25.0857186,121.483695,298790.63,2775359.29,121.483695,25.085718
585,新北市立圖書館蘆洲兒童親子分館2F-1_B,NewTaipei,中華電信,蘆洲區,新北市蘆洲區集賢路221巷11號2樓,新北市政府文化局,25.0857186,121.483695,284915.32,2760414.76,121.345763,24.951181
586,新北市立圖書館蘆洲兒童親子分館2F-2_A,NewTaipei,中華電信,蘆洲區,新北市蘆洲區集賢路221巷11號2樓,新北市政府文化局,25.0857186,121.483695,298790.63,2775359.29,121.483695,25.085718
587,新北市立圖書館蘆洲兒童親子分館2F-2_B,NewTaipei,中華電信,蘆洲區,新北市蘆洲區集賢路221巷11號2樓,新北市政府文化局,25.0857186,121.483695,298790.63,2775359.29,121.483695,25.085718
588,新北市立圖書館蘆洲兒童親子分館3F_A,NewTaipei,中華電信,蘆洲區,新北市蘆洲區集賢路221巷11號3樓,新北市政府文化局,25.0857186,121.483695,298790.63,2775359.29,121.483695,25.085718
589,新北市立圖書館蘆洲兒童親子分館3F_B,NewTaipei,中華電信,蘆洲區,新北市蘆洲區集賢路221巷11號3樓,新北市政府文化局,25.0857186,121.483695,298790.63,2775359.29,121.483695,25.085718
590,新北市立圖書館蘆洲長安分館3F_A,NewTaipei,中華電信,蘆洲區,新北市蘆洲區長安街96號3樓,新北市政府文化局,25.080641,121.461925,296597.99,2774799.37,121.461939,25.080732
591,新北市立圖書館蘆洲長安分館3F_B,NewTaipei,中華電信,蘆洲區,新北市蘆洲區長安街96號3樓,新北市政府文化局,25.080641,121.461925,296597.99,2774799.37,121.461939,25.080732
592,新北市立圖書館蘆洲長安分館3F_C,NewTaipei,中華電信,蘆洲區,新北市蘆洲區長安街96號3樓,新北市政府文化局,25.080641,121.461925,296597.99,2774799.37,121.461939,25.080732
593,新北市立圖書館蘆洲集賢分館-1_A,NewTaipei,中華電信,蘆洲區,新北市蘆洲區集賢路245號4樓,新北市政府文化局,25.08493,121.481649,298581.88,2775260.1,121.481622,25.084829
594,新北市立圖書館蘆洲集賢分館-1_B,NewTaipei,中華電信,蘆洲區,新北市蘆洲區集賢路245號4樓,新北市政府文化局,25.08493,121.481649,298581.88,2775260.1,121.481622,25.084829
595,新北市立圖書館蘆洲集賢分館-2_A,NewTaipei,中華電信,蘆洲區,新北市蘆洲區集賢路245號4樓,新北市政府文化局,25.08493,121.481649,298581.88,2775260.1,121.481622,25.084829
596,新北市立圖書館蘆洲集賢分館-2_B,NewTaipei,中華電信,蘆洲區,新北市蘆洲區集賢路245號4樓,新北市政府文化局,25.08493,121.481649,298581.88,2775260.1,121.481622,25.084829
597,新北市立圖書館鶯歌二甲圖書閱覽室2F_A,NewTaipei,中華電信,鶯歌區,新北市鶯歌區二甲路36-2號,新北市政府文化局,24.9358336,121.3385645,284103.96,2758714.27,121.337687,24.935847
598,新北市立圖書館鶯歌二甲圖書閱覽室2F_B,NewTaipei,中華電信,鶯歌區,新北市鶯歌區二甲路36-2號,新北市政府文化局,24.9358336,121.3385645,284103.96,2758714.27,121.337687,24.935847
599,新北市立圖書館鶯歌分館1F_A,NewTaipei,中華電信,鶯歌區,新北市鶯歌區中山路150號1樓,新北市政府文化局,24.9570206,121.3494743,285292.64,2761099.98,121.349517,24.957358
600,新北市立圖書館鶯歌分館1F_B,NewTaipei,中華電信,鶯歌區,新北市鶯歌區中山路150號1樓,新北市政府文化局,24.9570206,121.3494743,285292.64,2761099.98,121.349517,24.957358
601,新北市立圖書館鶯歌分館3F_A,NewTaipei,中華電信,鶯歌區,新北市鶯歌區中山路150號3樓,新北市政府文化局,24.9570206,121.3494743,285292.64,2761099.98,121.349517,24.957358
602,新北市立圖書館鶯歌分館3F_B,NewTaipei,中華電信,鶯歌區,新北市鶯歌區中山路150號3樓,新北市政府文化局,24.9570206,121.3494743,285292.64,2761099.98,121.349517,24.957358
603,新北市立圖書館鶯歌分館3F_C,NewTaipei,中華電信,鶯歌區,新北市鶯歌區中山路150號3樓,新北市政府文化局,24.9570206,121.3494743,285292.64,2761099.98,121.349517,24.957358
604,新北市立圖書館鶯歌分館4F_A,NewTaipei,中華電信,鶯歌區,新北市鶯歌區中山路150號4樓,新北市政府文化局,24.9570206,121.3494743,285292.64,2761099.98,121.349517,24.957358
605,新北市立圖書館鶯歌分館4F_B,NewTaipei,中華電信,鶯歌區,新北市鶯歌區中山路150號4樓,新北市政府文化局,24.9570206,121.3494743,285292.64,2761099.98,121.349517,24.957358
606,新北市立圖書館鶯歌分館4F_C,NewTaipei,中華電信,鶯歌區,新北市鶯歌區中山路150號4樓,新北市政府文化局,24.9570206,121.3494743,285292.64,2761099.98,121.349517,24.957358
607,新北市立聯合醫院三重院區1F,NewTaipei,中華電信,三重區,新北市三重區新北大道1段3號1樓,新北市政府衛生局,25.061103,121.490802,299521.37,2772609.46,121.49084,25.060869
608,新北市立聯合醫院三重院區2F,NewTaipei,中華電信,三重區,新北市三重區新北大道1段3號2樓,新北市政府衛生局,25.061103,121.490802,299521.37,2772609.46,121.49084,25.060869
609,新北市立聯合醫院板橋院區_A,NewTaipei,中華電信,板橋區,新北市板橋區英士路198號1樓,新北市政府衛生局,25.023477,121.457606,296192.55,2768478.88,121.457708,25.023683
610,新北市立聯合醫院板橋院區_B,NewTaipei,中華電信,板橋區,新北市板橋區英士路198號1樓,新北市政府衛生局,25.023477,121.457606,296192.55,2768478.88,121.457708,25.023683
611,新北市立聯合醫院板橋院區_C,NewTaipei,中華電信,板橋區,新北市板橋區英士路198號1樓,新北市政府衛生局,25.023477,121.457606,296192.55,2768478.88,121.457708,25.023683
612,新北市立鶯歌陶瓷博物館_A,NewTaipei,中華電信,鶯歌區,新北市鶯歌區文化路200號2樓,新北市政府文化局,24.94939,121.352127,285567.23,2760211.19,121.352214,24.949328
613,新北市立鶯歌陶瓷博物館_B,NewTaipei,中華電信,鶯歌區,新北市鶯歌區文化路200號2樓,新北市政府文化局,24.94939,121.352127,285567.23,2760211.19,121.352214,24.949328
614,新北市立鶯歌陶瓷博物館_C,NewTaipei,中華電信,鶯歌區,新北市鶯歌區文化路200號2樓,新北市政府文化局,24.94939,121.352127,285567.23,2760211.19,121.352214,24.949328
615,新北市汐止戶政事務所,NewTaipei,中華電信,汐止區,新北市汐止區新台五路1段268號6樓,新北市政府民政局,25.063785,121.658948,316485.13,2773012.04,121.658991,25.063852
616,新北市汐止戶政事務所中興辦事處,NewTaipei,中華電信,汐止區,新北市汐止區福德一路258號2樓,新北市政府民政局,25.0646459,121.633342,313892.39,2773077.65,121.633297,25.064557
617,新北市汐止地政事務所,NewTaipei,中華電信,汐止區,新北市汐止區新台五路1段262號3樓,新北市政府地政局,25.063731,121.658336,316422.48,2772993.65,121.658369,25.063689
618,新北市汐止區公所,NewTaipei,中華電信,汐止區,新北市汐止區新台五路1段268號1樓,新北市汐止區公所,25.063783,121.658948,316485.13,2773012.04,121.658991,25.063852
619,新北市汐止區衛生所,NewTaipei,中華電信,汐止區,新北市汐止區新台五路1段266號2樓,新北市政府衛生局,25.0638384,121.6580699,316439.17,2772974.14,121.658534,25.063512
620,新北市坪林茶業博物館_A,NewTaipei,中華電信,坪林區,新北市坪林區水德里水聳淒坑19-1號1樓,新北市政府文化局,24.924444,121.726667,321985.49,2758693.35,121.712761,24.934336
621,新北市坪林茶業博物館_B,NewTaipei,中華電信,坪林區,新北市坪林區水德里水聳淒坑19-1號1樓,新北市政府文化局,24.924444,121.726667,321985.49,2758693.35,121.712761,24.934336
622,新北市坪林區公所_A,NewTaipei,中華電信,坪林區,新北市坪林區坪林里坪林101號1樓,新北市坪林區公所,24.936192,121.706536,321885.77,2758892.57,121.711784,24.936139
623,新北市坪林區公所_B,NewTaipei,中華電信,坪林區,新北市坪林區坪林里坪林101號2樓,新北市坪林區公所,24.936192,121.706536,321885.77,2758892.57,121.711784,24.936139
624,新北市坪林區公所_C,NewTaipei,中華電信,坪林區,新北市坪林區坪林里坪林101號3樓,新北市坪林區公所,24.936192,121.706536,321885.77,2758892.57,121.711784,24.936139
625,新北市坪林區公所_D,NewTaipei,中華電信,坪林區,新北市坪林區坪林里坪林101號4樓,新北市坪林區公所,24.936192,121.706536,321885.77,2758892.57,121.711784,24.936139
626,新北市坪林區衛生所1F,NewTaipei,中華電信,坪林區,新北市坪林區坪林街104號1樓,新北市政府衛生局,24.9359084,121.7116394,321615.98,2758759.71,121.709106,24.934953
627,新北市坪林區衛生所2F,NewTaipei,中華電信,坪林區,新北市坪林區坪林街104號2樓,新北市政府衛生局,24.9359084,121.7116394,321615.98,2758759.71,121.709106,24.934953
628,新北市坪林區衛生所3F,NewTaipei,中華電信,坪林區,新北市坪林區坪林街104號3樓,新北市政府衛生局,24.9359084,121.7116394,321615.98,2758759.71,121.709106,24.934953
629,新北市府中15-1F,NewTaipei,中華電信,板橋區,新北市板橋區府中路15號1F,新北市政府文化局,25.009389,121.459618,296380.43,2766908.99,121.459517,25.009505
630,新北市府中15-8F,NewTaipei,中華電信,板橋區,新北市板橋區府中路15號8F,新北市政府文化局,25.009389,121.459618,296380.43,2766908.99,121.459517,25.009505
631,新北市板橋戶政事務所_A,NewTaipei,中華電信,板橋區,新北市板橋區中正路6號1樓,新北市政府民政局,25.014789,121.45655,296069.66,2767263.6,121.45645,25.012715
632,新北市板橋戶政事務所_B,NewTaipei,中華電信,板橋區,新北市板橋區中正路6號1樓,新北市政府民政局,25.014789,121.45655,296069.66,2767263.6,121.45645,25.012715
633,新北市板橋戶政事務所海山辦事處_A,NewTaipei,中華電信,板橋區,新北市板橋區漢生東路195-1號1樓,新北市政府民政局,25.011582,121.470433,297444.87,2767145.41,121.470071,25.011606
634,新北市板橋戶政事務所海山辦事處_B,NewTaipei,中華電信,板橋區,新北市板橋區漢生東路195-1號1樓,新北市政府民政局,25.011582,121.470433,297444.87,2767145.41,121.470071,25.011606
635,新北市板橋戶政事務所溪崑工作站,NewTaipei,中華電信,板橋區,新北市板橋區溪北路111號4樓,新北市政府民政局,24.9887269,121.430444,293441.01,2764562.37,121.430321,24.988406
636,新北市板橋地政事務所_A,NewTaipei,中華電信,板橋區,新北市板橋區實踐路1號1樓,新北市政府地政局,25.008706,121.463605,296779,2766816.68,121.463462,25.008659
637,新北市板橋地政事務所_B,NewTaipei,中華電信,板橋區,新北市板橋區實踐路1號1樓,新北市政府地政局,25.008706,121.463605,296779,2766816.68,121.463462,25.008659
638,新北市板橋區公所1F-1_A,NewTaipei,中華電信,板橋區,新北市板橋區府中路30號1樓,新北市板橋區公所,25.0096162,121.4592717,296340.08,2766923.81,121.459118,25.00964
639,新北市板橋區公所1F-1_B,NewTaipei,中華電信,板橋區,新北市板橋區府中路30號1樓,新北市板橋區公所,25.0096162,121.4592717,296340.08,2766923.81,121.459118,25.00964
640,新北市板橋區公所1F-2_A,NewTaipei,中華電信,板橋區,新北市板橋區府中路30號2樓,新北市板橋區公所,25.0096162,121.4592717,296340.08,2766923.81,121.459118,25.00964
641,新北市板橋區公所1F-2_B,NewTaipei,中華電信,板橋區,新北市板橋區府中路30號2樓,新北市板橋區公所,25.0096162,121.4592717,296340.08,2766923.81,121.459118,25.00964
642,新北市板橋區公所2F-1_A,NewTaipei,中華電信,板橋區,新北市板橋區府中路30號2樓,新北市板橋區公所,25.0096162,121.4592717,296340.08,2766923.81,121.459118,25.00964
643,新北市板橋區公所2F-1_B,NewTaipei,中華電信,板橋區,新北市板橋區府中路30號2樓,新北市板橋區公所,25.0096162,121.4592717,296340.08,2766923.81,121.459118,25.00964
644,新北市板橋區公所2F-2_A,NewTaipei,中華電信,板橋區,新北市板橋區府中路30號1樓,新北市板橋區公所,25.0096162,121.4592717,296340.08,2766923.81,121.459118,25.00964
645,新北市板橋區公所2F-2_B,NewTaipei,中華電信,板橋區,新北市板橋區府中路30號1樓,新北市板橋區公所,25.0096162,121.4592717,296340.08,2766923.81,121.459118,25.00964
646,新北市板橋區公所6F大禮堂-2_A,NewTaipei,中華電信,板橋區,新北市板橋區府中路30號6樓,新北市板橋區公所,25.0096162,121.4592717,296340.08,2766923.81,121.459118,25.00964
647,新北市板橋區公所6F大禮堂-2_B,NewTaipei,中華電信,板橋區,新北市板橋區府中路30號6樓,新北市板橋區公所,25.0096162,121.4592717,296340.08,2766923.81,121.459118,25.00964
648,新北市板橋區衛生所_A,NewTaipei,中華電信,板橋區,新北市板橋區英士路192號1樓,新北市政府衛生局,25.0232518,121.458209,296255.26,2768438.4,121.458328,25.023316
649,新北市板橋區衛生所_B,NewTaipei,中華電信,板橋區,新北市板橋區英士路192號1樓,新北市政府衛生局,25.0232518,121.458209,296255.26,2768438.4,121.458328,25.023316
650,新北市林口戶政事務所,NewTaipei,中華電信,林口區,新北市林口區仁愛路1段378號1樓,新北市政府民政局,25.0767573,121.3890001,289193.42,2774333.86,121.388524,25.07674
651,新北市林口區公所1F,NewTaipei,中華電信,林口區,新北市林口區仁愛路1段378號1樓,新北市林口區公所,25.0767572,121.3890001,296968.74,2767206.41,121.465356,25.012172
652,新北市林口區公所2F-1,NewTaipei,中華電信,林口區,新北市林口區仁愛路1段378號2樓,新北市林口區公所,25.0767572,121.3890001,289193.42,2774333.86,121.388524,25.07674
653,新北市林口區公所2F-2,NewTaipei,中華電信,林口區,新北市林口區仁愛路1段378號2樓,新北市林口區公所,25.0767572,121.3890001,289193.42,2774333.86,121.388524,25.07674
654,新北市林口區公所2F-3,NewTaipei,中華電信,林口區,新北市林口區仁愛路1段378號2樓,新北市林口區公所,25.0767572,121.3890001,289193.42,2774333.86,121.388524,25.07674
655,新北市林口區公所5F,NewTaipei,中華電信,林口區,新北市林口區仁愛路1段378號5樓,新北市林口區公所,25.0767572,121.3890001,289193.42,2774333.86,121.388524,25.07674
656,新北市林口區公所6F_A,NewTaipei,中華電信,林口區,新北市林口區仁愛路1段378號6樓,新北市林口區公所,25.0767572,121.3890001,294755.32,2784798.88,121.443999,25.171063
657,新北市林口區公所6F_B,NewTaipei,中華電信,林口區,新北市林口區仁愛路1段378號6樓,新北市林口區公所,25.0767572,121.3890001,289193.42,2774333.86,121.388524,25.07674
658,新北市林口區公所4F_A,NewTaipei,中華電信,林口區,新北市林口區仁愛路1段378號4樓,新北市林口區公所,25.0767572,121.3890001,289193.42,2774333.86,121.388524,25.07674
659,新北市林口區公所4F_B,NewTaipei,中華電信,林口區,新北市林口區仁愛路1段378號4樓,新北市林口區公所,25.0767572,121.3890001,296029.39,2766587.98,121.456028,25.006617
660,新北市林口區衛生所,NewTaipei,中華電信,林口區,新北市林口區忠孝二路55號1樓,新北市政府衛生局,25.069967,121.364025,314147.52,2790544.73,121.636643,25.222233
661,新北市金山戶政事務所,NewTaipei,中華電信,金山區,新北市金山區民生路67號1樓,新北市政府民政局,25.220278,121.640416,314539.8,2790319.4,121.640525,25.220181
662,新北市金山戶政事務所石門區所,NewTaipei,中華電信,石門區,新北市石門區中山路66號1樓,新北市政府民政局,25.291248,121.567631,307184.64,2798154.4,121.56786,25.291211
663,新北市金山戶政事務所萬里區所,NewTaipei,中華電信,萬里區,新北市萬里區瑪鋉路123號2樓,新北市政府民政局,25.1774312,121.6892212,319466.92,2785698.62,121.689187,25.178247
664,新北市金山區公所,NewTaipei,中華電信,金山區,新北市金山區金美里中正路11號1樓,新北市金山區公所,25.2222455,121.6363752,314147.47,2790544.68,121.636642,25.222232
665,新北市金山區衛生所,NewTaipei,中華電信,金山區,新北市金山區中山路257號4樓,新北市政府衛生局,25.222183,121.636832,314170.81,2790529.55,121.636873,25.222094
666,新北市立圖書館新北市青少年圖書館1F,NewTaipei,中華電信,新店區,新北市新店區安康路2段151號1樓,新北市政府文化局,24.9597817,121.5108165,301575.11,2761407.93,121.510777,24.959673
667,新北市立圖書館新北市青少年圖書館2F,NewTaipei,中華電信,新店區,新北市新店區安康路2段151號2樓,新北市政府文化局,24.9597817,121.5108165,301575.11,2761407.93,121.510777,24.959673
668,新北市立圖書館新北市青少年圖書館3F,NewTaipei,中華電信,新店區,新北市新店區安康路2段151號3樓,新北市政府文化局,24.9597817,121.5108165,301575.11,2761407.93,121.510777,24.959673
669,新北市立圖書館新北市青少年圖書館6F-1,NewTaipei,中華電信,新店區,新北市新店區安康路2段151號6樓,新北市政府文化局,24.9597817,121.5108165,301575.11,2761407.93,121.510777,24.959673
670,新北市立圖書館新北市青少年圖書館6F-2,NewTaipei,中華電信,新店區,新北市新店區安康路2段151號6樓,新北市政府文化局,24.9597817,121.5108165,301575.11,2761407.93,121.510777,24.959673
671,新北市立圖書館林口東勢閱覽室-1,NewTaipei,中華電信,林口區,新北市林口區麗園一街35號2樓,新北市政府文化局,25.0687,121.377505,288058.74,2773448.5,121.377251,25.068776
672,新北市立圖書館林口東勢閱覽室-2,NewTaipei,中華電信,林口區,新北市林口區麗園一街35號2樓,新北市政府文化局,25.0687,121.377505,288058.74,2773448.5,121.377251,25.068776
673,新北市政府水利局永和營運中心1F,NewTaipei,中華電信,永和區,新北市永和區保順路8號1樓,新北市政府水利局,25.010412,121.503467,300830.2,2767125.58,121.50361,25.011317
674,新北市政府水利局永和營運中心3F,NewTaipei,中華電信,永和區,新北市永和區保順路8號3樓,新北市政府水利局,25.010412,121.503467,300830.2,2767125.58,121.50361,25.011317
675,新北市政府交通事件裁決處服務中心,NewTaipei,中華電信,板橋區,新北市板橋區中山路1段143號2樓,新北市政府交通局,25.011477,121.464191,296855.34,2767133.77,121.46423,25.011519
676,新北市政府高灘地工程管理處1F_A,NewTaipei,中華電信,板橋區,新北市板橋區環河西路五段502號,新北市政府水利局,24.996519,121.448002,295246.56,2768186.76,121.448325,25.021075
677,新北市政府高灘地工程管理處1F_B,NewTaipei,中華電信,板橋區,新北市板橋區環河西路五段502號,新北市政府水利局,24.996519,121.448002,295246.56,2768186.76,121.448325,25.021075
678,新北市政府高灘地工程管理處2F_A,NewTaipei,中華電信,板橋區,新北市板橋區環河西路五段502號2樓,新北市政府水利局,24.996519,121.448002,295246.56,2768186.76,121.448325,25.021075
679,新北市政府高灘地工程管理處2F_B,NewTaipei,中華電信,板橋區,新北市板橋區中正路601號2樓,新北市政府水利局,25.031886,121.432778,296069.17,2767761.83,121.456462,25.017214
680,新北市政府高灘地工程管理處3F_A,NewTaipei,中華電信,板橋區,新北市板橋區中正路601號3樓,新北市政府水利局,25.031886,121.432778,296069.17,2767761.83,121.456462,25.017214
681,新北市政府高灘地工程管理處3F_B,NewTaipei,中華電信,板橋區,新北市板橋區中正路601號3樓,新北市政府水利局,25.031886,121.432778,296069.17,2767761.83,121.456462,25.017214
682,新北市政府動物防疫檢疫處_A,NewTaipei,中華電信,板橋區,新北市板橋區四川路1段157巷2號1樓,新北市政府農業局,25.004051,121.460352,296485.86,2766306.78,121.460541,25.004064
683,新北市政府動物防疫檢疫處_B,NewTaipei,中華電信,板橋區,新北市板橋區四川路1段157巷2號1樓,新北市政府農業局,25.004051,121.460352,296485.86,2766306.78,121.460541,25.004064
684,新北市政府捷運工程處_A,NewTaipei,中華電信,蘆洲區,新北市蘆洲區集賢路245號5樓,新北市政府交通局,25.084842,121.481687,298581.88,2775260.1,121.481622,25.084829
685,新北市政府捷運工程處_B,NewTaipei,中華電信,蘆洲區,新北市蘆洲區集賢路245號5樓,新北市政府交通局,25.084842,121.481687,298581.88,2775260.1,121.481622,25.084829
686,新北市政府都市更新處,NewTaipei,中華電信,板橋區,新北市板橋區漢生東路266號2樓,新北市政府城鄉發展局,25.008937,121.471286,297283.84,2767333.49,121.468482,25.013309
687,新北市政府勞動檢查處_A,NewTaipei,中華電信,土城區,新北市土城區金城路1段101號6樓,新北市政府勞工局,24.9714241,121.442687,294713.82,2762808.25,121.442873,24.972533
688,新北市政府勞動檢查處_B,NewTaipei,中華電信,土城區,新北市土城區金城路1段101號6樓,新北市政府勞工局,24.9714241,121.442687,294713.82,2762808.25,121.442873,24.972533
689,新北市政府就業服務中心_A,NewTaipei,中華電信,中和區,235新北市中和區景安路155號1樓 ,新北市政府勞工局,24.995329,121.505457,301059.15,2765329.14,121.505812,24.995091
690,新北市政府就業服務中心_B,NewTaipei,中華電信,中和區,235新北市中和區景安路155號1樓,新北市政府勞工局,24.995329,121.505457,301059.15,2765329.14,121.505812,24.995091
691,新北市政府就業服務中心_C,NewTaipei,中華電信,中和區,235新北市中和區景安路155號2樓,新北市政府勞工局,24.995329,121.505457,301059.15,2765329.14,121.505812,24.995091
692,新北市政府稅捐稽徵處1F_A,NewTaipei,中華電信,板橋區,新北市板橋區中山路1段143號1樓,新北市政府財政局,25.0115004,121.4641784,296855.34,2767133.77,121.46423,25.011519
693,新北市政府稅捐稽徵處1F_B,NewTaipei,中華電信,板橋區,新北市板橋區中山路1段143號1樓,新北市政府財政局,25.0115004,121.4641784,296855.34,2767133.77,121.46423,25.011519
694,新北市政府稅捐稽徵處1F_C,NewTaipei,中華電信,板橋區,新北市板橋區中山路1段143號1樓,新北市政府財政局,25.0115004,121.4641784,296855.34,2767133.77,121.46423,25.011519
695,新北市政府稅捐稽徵處7F_A,NewTaipei,中華電信,板橋區,新北市板橋區中山路1段143號7樓,新北市政府財政局,25.0115004,121.4641784,296855.34,2767133.77,121.46423,25.011519
696,新北市政府稅捐稽徵處7F_B,NewTaipei,中華電信,板橋區,新北市板橋區中山路1段143號7樓,新北市政府財政局,25.0115004,121.4641784,296855.34,2767133.77,121.46423,25.011519
697,新北市政府稅捐稽徵處三重分處3F,NewTaipei,中華電信,三重區,新北市三重區重陽路1段115號3樓,新北市政府財政局,25.060173,121.487057,299133.73,2772526.15,121.486995,25.06013
698,新北市政府稅捐稽徵處三重分處1F,NewTaipei,中華電信,三重區,新北市三重區重陽路1段115號1樓,新北市政府財政局,25.060173,121.487057,299133.73,2772526.15,121.486995,25.06013
699,新北市政府稅捐稽徵處三鶯分處,NewTaipei,中華電信,三峽區,新北市三峽區中山路175號1樓,新北市政府財政局,24.9366187,121.3643591,286778,2758789.2,121.364166,24.936461
700,新北市政府稅捐稽徵處中和分處1F_A,NewTaipei,中華電信,中和區,新北市中和區復興路278號1F,新北市政府財政局,24.990556,121.502356,300744.68,2764836.17,121.502679,24.990651
701,新北市政府稅捐稽徵處中和分處1F_B,NewTaipei,中華電信,中和區,新北市中和區復興路278號1F,新北市政府財政局,24.990556,121.502356,300744.68,2764836.17,121.502679,24.990651
702,新北市政府稅捐稽徵處中和分處2F_A,NewTaipei,中華電信,中和區,新北市中和區復興路278號2F,新北市政府財政局,24.990556,121.502356,300744.68,2764836.17,121.502679,24.990651
703,新北市政府稅捐稽徵處中和分處2F_B,NewTaipei,中華電信,中和區,新北市中和區復興路278號2F,新北市政府財政局,24.990556,121.502356,300744.68,2764836.17,121.502679,24.990651
704,新北市政府稅捐稽徵處汐止分處,NewTaipei,中華電信,汐止區,新北市汐止區新台五路1段268號8樓,新北市政府財政局,25.063786,121.658948,316485.13,2773012.04,121.658991,25.063852
705,新北市政府稅捐稽徵處板橋分處4F_A,NewTaipei,中華電信,板橋區,新北市板橋區中山路1段143號4樓,新北市政府財政局,25.0115006,121.4641784,296855.34,2767133.77,121.46423,25.011519
706,新北市政府稅捐稽徵處板橋分處4F_B,NewTaipei,中華電信,板橋區,新北市板橋區中山路1段143號4樓,新北市政府財政局,25.0115006,121.4641784,296855.34,2767133.77,121.46423,25.011519
707,新北市政府稅捐稽徵處板橋分處4F_C,NewTaipei,中華電信,板橋區,新北市板橋區中山路1段143號4樓,新北市政府財政局,25.0115006,121.4641784,296855.34,2767133.77,121.46423,25.011519
708,新北市政府稅捐稽徵處淡水分處,NewTaipei,中華電信,淡水區,新北市淡水區中山北路二段375號3F,新北市政府財政局,25.172688,121.436158,294743.25,2786571.68,121.443937,25.187068
709,新北市政府稅捐稽徵處新店分處,NewTaipei,中華電信,新店區,新北市新店區北新路2段128號4樓,新北市政府財政局,24.967158,121.542477,304835.82,2763085.53,121.543135,24.974704
710,新北市政府稅捐稽徵處新莊分處1F_A,NewTaipei,中華電信,新莊區,新北市新莊區仁愛街56號1樓,新北市政府財政局,25.037156,121.444454,294845.36,2769970.18,121.444408,25.037187
711,新北市政府稅捐稽徵處新莊分處1F_B,NewTaipei,中華電信,新莊區,新北市新莊區仁愛街56號1樓,新北市政府財政局,25.037156,121.444454,294845.36,2769970.18,121.444408,25.037187
712,新北市政府稅捐稽徵處新莊分處3F_A,NewTaipei,中華電信,新莊區,新北市新莊區仁愛街56號3樓,新北市政府財政局,25.037156,121.444454,294845.36,2769970.18,121.444408,25.037187
713,新北市政府稅捐稽徵處新莊分處3F_B,NewTaipei,中華電信,新莊區,新北市新莊區仁愛街56號3樓,新北市政府財政局,25.037156,121.444454,294845.36,2769970.18,121.444408,25.037187
714,新北市政府稅捐稽徵處瑞芳分處1F,NewTaipei,中華電信,瑞芳區,新北市瑞芳區明燈路3段42號1樓,新北市政府財政局,25.1078809,121.807612,331438.29,2777976.4,121.807488,25.107936
715,新北市政府衛生局1F_A,NewTaipei,中華電信,板橋區,新北市板橋區英士路192-1號1樓,新北市政府衛生局,25.0232518,121.458209,296236.21,2768445.01,121.458139,25.023376
716,新北市政府衛生局1F_B,NewTaipei,中華電信,板橋區,新北市板橋區英士路192-1號1樓,新北市政府衛生局,25.0232518,121.458209,296236.21,2768445.01,121.458139,25.023376
717,新北市政府衛生局2F_A,NewTaipei,中華電信,板橋區,新北市板橋區英士路192-1號2樓,新北市政府衛生局,25.0232518,121.458209,296236.21,2768445.01,121.458139,25.023376
718,新北市政府衛生局2F_B,NewTaipei,中華電信,板橋區,新北市板橋區英士路192-1號2樓,新北市政府衛生局,25.0232518,121.458209,296236.21,2768445.01,121.458139,25.023376
719,新北市政府衛生局5F_A,NewTaipei,中華電信,板橋區,新北市板橋區英士路192-1號5樓,新北市政府衛生局,25.0232518,121.458209,296236.21,2768445.01,121.458139,25.023376
720,新北市政府衛生局5F_B,NewTaipei,中華電信,板橋區,新北市板橋區英士路192-1號5樓,新北市政府衛生局,25.0232518,121.458209,296236.21,2768445.01,121.458139,25.023376
721,新北市政府衛生局8F_A,NewTaipei,中華電信,板橋區,新北市板橋區英士路192-1號8樓,新北市政府衛生局,25.0232518,121.458209,296236.21,2768445.01,121.458139,25.023376
722,新北市政府衛生局8F_B,NewTaipei,中華電信,板橋區,新北市板橋區英士路192-1號8樓,新北市政府衛生局,25.0232518,121.458209,296236.21,2768445.01,121.458139,25.023376
723,新北市政府衛生局9F_A,NewTaipei,中華電信,板橋區,新北市板橋區英士路192-1號9樓,新北市政府衛生局,25.0232518,121.458209,296236.21,2768445.01,121.458139,25.023376
724,新北市政府衛生局9F_B,NewTaipei,中華電信,板橋區,新北市板橋區英士路192-1號9樓,新北市政府衛生局,25.0232518,121.458209,296236.21,2768445.01,121.458139,25.023376
725,新北市政府衛生局第二行政大樓,NewTaipei,中華電信,板橋區,新北市板橋區英士路192-1號1樓,新北市政府衛生局,25.0232518,121.458209,296236.21,2768445.01,121.458139,25.023376
726,新北市政府環保局1F,NewTaipei,中華電信,板橋區,新北市板橋區民族路57號1樓,新北市政府環保局,25.009065,121.464847,296875,2766870,121.464415,25.009137
727,新北市政府職業訓練中心三重訓練場,NewTaipei,中華電信,三重區,新北市三重區光復路2段126巷30號1樓,新北市政府勞工局,25.054485,121.471817,297470.09,2772342.46,121.4705,25.058524
728,新北市政府警察局外事服務中心_A,NewTaipei,中華電信,板橋區,新北市板橋區府中路32號1樓,新北市政府警察局,25.009807,121.458472,296273.14,2766948.41,121.458455,25.009864
729,新北市政府警察局外事服務中心_B,NewTaipei,中華電信,板橋區,新北市板橋區府中路32號1樓,新北市政府警察局,25.009807,121.458472,296273.14,2766948.41,121.458455,25.009864
730,新北市政府警察局海山分局江翠派出所,NewTaipei,中華電信,板橋區,新北市板橋區吳鳳路50巷36號1F,新北市政府警察局,25.030297,121.468578,297416.4,2769216.25,121.46986,25.030303
731,新北市政府警察局瑞芳分局平溪分駐所,NewTaipei,中華電信,平溪區,新北市平溪區靜安路2段141號,新北市政府觀光旅遊局,25.034598,121.75374,322915.09,2768554.64,121.722484,25.023316
732,新北市政府體育處,NewTaipei,中華電信,新莊區,新北市板橋區漢生東路278號1樓,新北市政府教育局,25.041388,121.446441,297366.57,2767032.66,121.469291,25.010591
733,新北市政府觀光旅遊局碧潭管理站,NewTaipei,中華電信,新店區,新北市新店區新店路159號4樓,新北市政府觀光旅遊局,24.9554078,121.5371079,304222.46,2760927.93,121.536975,24.955247
734,新北市美麗永安生活館_A,NewTaipei,中華電信,中和區,新北市中和區中和路390號2樓,新北市政府文化局,25.002584,121.511013,301581.14,2766140.32,121.511013,25.002397
735,新北市美麗永安生活館_B,NewTaipei,中華電信,中和區,新北市中和區中和路390號2樓,新北市政府文化局,25.002584,121.511013,301581.14,2766140.32,121.511013,25.002397
736,新北市原住民族服務中心,NewTaipei,中華電信,三重區,新北市三重區新北大道1段5巷2弄2號,新北市政府原住民族行政局,25.061104,121.490802,299236.98,2772627.21,121.488022,25.061039
737,新北市泰山戶政事務所,NewTaipei,中華電信,泰山區,新北市泰山區全興路212號4樓,新北市政府民政局,25.0549,121.43446,293753.33,2772064.84,121.433653,25.05613
738,新北市泰山區公所1F-1_A,NewTaipei,中華電信,泰山區,新北市泰山區明志路1段322號1樓,新北市泰山區公所,25.0590074,121.4313979,293526.8,2772408.66,121.431419,25.059241
739,新北市泰山區公所1F-1_B,NewTaipei,中華電信,泰山區,新北市泰山區明志路1段322號1樓,新北市泰山區公所,25.0590074,121.4313979,293526.8,2772408.66,121.431419,25.059241
740,新北市泰山區公所1F-2,NewTaipei,中華電信,泰山區,新北市泰山區明志路1段322號1樓,新北市泰山區公所,25.0590074,121.4313979,293526.8,2772408.66,121.431419,25.059241
741,新北市泰山區公所2F,NewTaipei,中華電信,泰山區,新北市泰山區明志路1段322號2樓,新北市泰山區公所,25.0590074,121.4313979,293526.8,2772408.66,121.431419,25.059241
742,新北市泰山區公所4F_A,NewTaipei,中華電信,泰山區,新北市泰山區明志路1段322號4樓,新北市泰山區公所,25.0590074,121.4313979,293526.8,2772408.66,121.431419,25.059241
743,新北市泰山區公所4F_B,NewTaipei,中華電信,泰山區,新北市泰山區明志路1段322號4樓,新北市泰山區公所,25.0590074,121.4313979,293526.8,2772408.66,121.431419,25.059241
744,新北市泰山區公所8F,NewTaipei,中華電信,泰山區,新北市泰山區明志路1段322號8樓,新北市泰山區公所,25.0590074,121.4313979,293526.8,2772408.66,121.431419,25.059241
745,新北市泰山區衛生所,NewTaipei,中華電信,泰山區,新北市泰山區全興路212號3樓,新北市政府衛生局,25.0527337,121.412706,293753.33,2772064.84,121.433653,25.05613
746,新北市烏來泰雅民族博物館,NewTaipei,中華電信,烏來區,新北市烏來區烏來村烏來街12號1樓,新北市政府原住民族行政局,24.864309,121.551602,305372.96,2751679.54,121.548,24.871711
747,新北市烏來區公所,NewTaipei,中華電信,烏來區,新北市烏來區忠治里堰堤48號1樓,新北市烏來區公所,24.873238,121.547391,303246.64,2751616.54,121.526955,24.871218
748,新北市烏來區衛生所,NewTaipei,中華電信,烏來區,新北市烏來區堰堤路48-1號1樓,新北市政府衛生局,24.871589,121.547602,305372.96,2751679.54,121.548,24.871711
749,新北市貢寮區公所,NewTaipei,中華電信,貢寮區,新北市貢寮區貢寮里朝陽街54號1樓,新北市貢寮區公所,25.021813,121.91027,341868.64,2768508.69,121.910267,25.02187
750,新北市貢寮區衛生所,NewTaipei,中華電信,貢寮區,新北市貢寮區仁愛路128號1樓,新北市政府衛生局,25.054257,121.9268195,343590.21,2772185.4,121.927573,25.054955
751,新北市淡水戶政事務所,NewTaipei,中華電信,淡水區,新北市淡水區中山北路二段375號2F,新北市政府民政局,25.173015,121.43564,294743.25,2786571.68,121.443937,25.187068
752,新北市淡水地政事務所,NewTaipei,中華電信,淡水區,新北市淡水區中山北路二段375號5F,新北市政府地政局,25.172896,121.435939,294743.25,2786571.68,121.443937,25.187068
753,新北市淡水區公所,NewTaipei,中華電信,淡水區,新北市淡水區中山北路二段375號1F,新北市淡水區公所,25.169548,121.441242,294743.25,2786571.68,121.443937,25.187068
754,新北市淡水區衛生所,NewTaipei,中華電信,淡水區,新北市淡水區中山路158號1樓,新北市政府衛生局,25.1727278,121.440901,294436.61,2784987.67,121.440843,25.172777
755,新北市深坑區公所2F-1,NewTaipei,中華電信,深坑區,新北市深坑區深坑街10號2樓,新北市深坑區公所,25.0024848,121.615924,312175.15,2766198.26,121.615966,25.002522
756,新北市深坑區公所2F-2,NewTaipei,中華電信,深坑區,新北市深坑區深坑街10號2樓,新北市深坑區公所,25.0024848,121.615924,312175.15,2766198.26,121.615966,25.002522
757,新北市深坑區公所3F,NewTaipei,中華電信,深坑區,新北市深坑區深坑街10號3樓,新北市深坑區公所,25.0024848,121.615924,312175.15,2766198.26,121.615966,25.002522
758,新北市深坑區公所4F,NewTaipei,中華電信,深坑區,新北市深坑區深坑街10號4樓,新北市深坑區公所,25.0024848,121.615924,312175.15,2766198.26,121.615966,25.002522
759,新北市深坑區公所5F,NewTaipei,中華電信,深坑區,新北市深坑區深坑街10號5樓,新北市深坑區公所,25.0024848,121.615924,312175.15,2766198.26,121.615966,25.002522
760,新北市深坑區衛生所,NewTaipei,中華電信,深坑區,新北市深坑區深坑街165號1樓,新北市政府衛生局,25.0011419,121.6125684,311840.5,2766021.18,121.612643,25.000937
761,新北市新店戶政事務所,NewTaipei,中華電信,新店區,新北市新店區北新路2段128號4樓,新北市政府民政局,24.967241,121.542046,304835.82,2763085.53,121.543135,24.974704
762,新北市新店戶政事務所石碇區所,NewTaipei,中華電信,石碇區,新北市石碇區碇坪路1段88號,新北市政府民政局,24.991319,121.660435,316413.43,2764977.26,121.657894,24.99132
763,新北市新店戶政事務所安康辦事處,NewTaipei,中華電信,新店區,新北市新店區安康路2段120號3樓,新北市政府民政局,24.962729,121.512837,301768.3,2761741.61,121.512702,24.962679
764,新北市新店戶政事務所坪林區所_A,NewTaipei,中華電信,坪林區,新北市坪林區坪林106-1號3樓,新北市政府民政局,24.936094,121.711781,321860.44,2758850.4,121.711531,24.93576
765,新北市新店戶政事務所坪林區所_B,NewTaipei,中華電信,坪林區,新北市坪林區坪林106-1號3樓,新北市政府民政局,24.936094,121.711781,321860.44,2758850.4,121.711531,24.93576
766,新北市新店戶政事務所坪林區所_C,NewTaipei,中華電信,坪林區,新北市坪林區坪林106-1號3樓,新北市政府民政局,24.936094,121.711781,321860.44,2758850.4,121.711531,24.93576
767,新北市新店戶政事務所深坑區所,NewTaipei,中華電信,深坑區,新北市深坑區平埔街16號4樓,新北市政府民政局,25.0018195,121.6152824,312121.83,2766095.34,121.615433,25.001595
768,新北市新店地政事務所_A,NewTaipei,中華電信,新店區,新北市新店區北新路2段128號3F,新北市政府地政局,24.9670029,121.542413,304835.82,2763085.53,121.543135,24.974704
769,新北市新店地政事務所_B,NewTaipei,中華電信,新店區,新北市新店區北新路2段128號3F,新北市政府地政局,24.9670029,121.542413,304835.82,2763085.53,121.543135,24.974704
770,新北市新店區大豐社福館,NewTaipei,中華電信,新店區,新北市新店區民族路110號1樓,新北市新店區公所,24.97696,121.537596,304271.73,2763329.87,121.537557,24.97693
771,新北市新店區公所_A,NewTaipei,中華電信,新店區,新北市新店區北新路2段128號5樓,新北市新店區公所,24.96735,121.541599,304835.82,2763085.53,121.543135,24.974704
772,新北市新店區公所_B,NewTaipei,中華電信,新店區,新北市新店區北新路2段128號5樓,新北市新店區公所,24.96735,121.541599,304835.82,2763085.53,121.543135,24.974704
773,新北市新店區公所_C,NewTaipei,中華電信,新店區,新北市新店區北新路2段128號5樓,新北市新店區公所,24.96735,121.541599,304835.82,2763085.53,121.543135,24.974704
774,新北市新店區衛生所,NewTaipei,中華電信,新店區,新北市新店區北新路l段88巷11號1樓,新北市政府衛生局,24.967263,121.542988,304520.42,2763861.13,121.540042,24.981718
775,新北市新莊戶政事務所,NewTaipei,中華電信,新莊區,新北市新莊區中華路1段1號2樓,新北市政府民政局,25.036575,121.451839,295601.95,2769876.12,121.451902,25.036316
776,新北市新莊戶政事務所福營辦事處,NewTaipei,中華電信,新莊區,新北市新莊區四維路9號2樓,新北市政府民政局,25.0245452,121.4238098,292765.32,2768535.47,121.423751,25.024295
777,新北市新莊地政事務所1F_A,NewTaipei,中華電信,新莊區,新北市新莊區中華路1段3號1樓,新北市政府地政局,25.036923,121.451813,295591.53,2769926.58,121.451801,25.036772
778,新北市新莊地政事務所1F_B,NewTaipei,中華電信,新莊區,新北市新莊區中華路1段3號1樓,新北市政府地政局,25.036923,121.451813,295591.53,2769926.58,121.451801,25.036772
779,新北市新莊地政事務所2F_A,NewTaipei,中華電信,新莊區,新北市新莊區中華路1段3號2樓,新北市政府地政局,25.036923,121.451813,295591.53,2769926.58,121.451801,25.036772
780,新北市新莊地政事務所2F_B,NewTaipei,中華電信,新莊區,新北市新莊區中華路1段3號2樓,新北市政府地政局,25.036923,121.451813,295591.53,2769926.58,121.451801,25.036772
781,新北市新莊地政事務所3F_A,NewTaipei,中華電信,新莊區,新北市新莊區中華路1段3號3樓,新北市政府地政局,25.036923,121.451813,295591.53,2769926.58,121.451801,25.036772
782,新北市新莊地政事務所3F_B,NewTaipei,中華電信,新莊區,新北市新莊區中華路1段3號3樓,新北市政府地政局,25.036923,121.451813,295591.53,2769926.58,121.451801,25.036772
783,新北市新莊區公所1F_A,NewTaipei,中華電信,新莊區,新北市新莊區中正路176號1樓,新北市新莊區公所,25.035848,121.450543,295466.44,2769822.28,121.450558,25.035834
784,新北市新莊區公所1F_B,NewTaipei,中華電信,新莊區,新北市新莊區中正路176號1樓,新北市新莊區公所,25.035848,121.450543,295466.44,2769822.28,121.450558,25.035834
785,新北市新莊區公所3F_A,NewTaipei,中華電信,新莊區,新北市新莊區中正路176號3樓,新北市新莊區公所,25.035848,121.450543,295466.44,2769822.28,121.450558,25.035834
786,新北市新莊區公所3F_B,NewTaipei,中華電信,新莊區,新北市新莊區中正路176號3樓,新北市新莊區公所,25.035848,121.450543,295466.44,2769822.28,121.450558,25.035834
787,新北市新莊區公所4F_A,NewTaipei,中華電信,新莊區,新北市新莊區中正路176號4樓,新北市新莊區公所,25.035848,121.450543,295466.44,2769822.28,121.450558,25.035834
788,新北市新莊區公所4F_B,NewTaipei,中華電信,新莊區,新北市新莊區中正路176號4樓,新北市新莊區公所,25.035848,121.450543,295466.44,2769822.28,121.450558,25.035834
789,新北市新莊區公所5F_A,NewTaipei,中華電信,新莊區,新北市新莊區中正路176號5樓,新北市新莊區公所,25.035848,121.450543,295466.44,2769822.28,121.450558,25.035834
790,新北市新莊區公所5F_B,NewTaipei,中華電信,新莊區,新北市新莊區中正路176號5樓,新北市新莊區公所,25.035848,121.450543,295466.44,2769822.28,121.450558,25.035834
791,新北市新莊區公所6F_A,NewTaipei,中華電信,新莊區,新北市新莊區中正路176號6樓,新北市新莊區公所,25.035848,121.450543,295466.44,2769822.28,121.450558,25.035834
792,新北市新莊區公所6F_B,NewTaipei,中華電信,新莊區,新北市新莊區中正路176號6樓,新北市新莊區公所,25.035848,121.450543,295466.44,2769822.28,121.450558,25.035834
793,新北市新莊區公所7F_A,NewTaipei,中華電信,新莊區,新北市新莊區中正路176號7樓,新北市新莊區公所,25.035848,121.450543,295466.44,2769822.28,121.450558,25.035834
794,新北市新莊區公所7F_B,NewTaipei,中華電信,新莊區,新北市新莊區中正路176號7樓,新北市新莊區公所,25.035848,121.450543,295466.44,2769822.28,121.450558,25.035834
795,新北市新莊區公所-福營行政大樓,NewTaipei,中華電信,新莊區,新北市新莊區四維路9號1樓,新北市新莊區公所,25.035848,121.450543,292765.32,2768535.47,121.423751,25.024295
796,新北市新莊區衛生所_A,NewTaipei,中華電信,新莊區,新北市新莊區中華路1段2號1樓,新北市政府衛生局,25.0361925,121.4522054,295636.71,2769886.57,121.452247,25.036409
797,新北市新莊區衛生所_B,NewTaipei,中華電信,新莊區,新北市新莊區中華路1段2號1樓,新北市政府衛生局,25.0361925,121.4522054,295636.71,2769886.57,121.452247,25.036409
798,新北市瑞芳戶政事務所,NewTaipei,中華電信,瑞芳區,新北市瑞芳區中正路30號5樓,新北市政府民政局,25.107532,121.809131,331448.93,2777909.38,121.80759,25.10733
799,新北市瑞芳戶政事務所平溪區所,NewTaipei,中華電信,平溪區,新北市平溪區平溪街43號1樓,新北市政府民政局,25.0264839,121.73827,324517.78,2768896.63,121.738382,25.026326
800,新北市瑞芳戶政事務所貢寮區所,NewTaipei,中華電信,貢寮區,新北市貢寮區朝陽街56號1樓,新北市政府民政局,25.021907,121.910238,341852.41,2768512.63,121.910107,25.021907
801,新北市瑞芳戶政事務所雙溪區所-1,NewTaipei,中華電信,雙溪區,新北市雙溪區太平路62號1樓,新北市政府民政局,25.035727,121.865178,337303.71,2770015.37,121.865136,25.035742
802,新北市瑞芳戶政事務所雙溪區所-2,NewTaipei,中華電信,雙溪區,新北市雙溪區太平路62號1樓,新北市政府民政局,25.035727,121.865178,337303.71,2770015.37,121.865136,25.035742
803,新北市瑞芳地政事務所1F,NewTaipei,中華電信,瑞芳區,新北市瑞芳區明燈路3段32號1樓,新北市政府地政局,25.107779,121.808054,331489.61,2777970.71,121.807997,25.107882
804,新北市瑞芳區公所,NewTaipei,中華電信,瑞芳區,新北市瑞芳區逢甲路82號2樓,新北市瑞芳區公所,25.108902,121.81006,331676.72,2778083.42,121.809859,25.108889
805,新北市瑞芳區衛生所,NewTaipei,中華電信,瑞芳區,新北市瑞芳區明燈路3段1號1樓,新北市政府衛生局,25.107396,121.80908,331595.5,2777914.69,121.809043,25.10737
806,新北市萬里區公所1F,NewTaipei,中華電信,萬里區,新北市萬里區瑪鋉路123號1樓,新北市萬里區公所,25.1774313,121.6892213,319466.92,2785698.62,121.689187,25.178247
807,新北市萬里區公所3F,NewTaipei,中華電信,萬里區,新北市萬里區瑪鋉路123號3樓,新北市萬里區公所,25.1774314,121.6892214,319466.92,2785698.62,121.689187,25.178247
808,新北市萬里區公所4F,NewTaipei,中華電信,萬里區,新北市萬里區瑪鋉路123號4樓,新北市萬里區公所,25.1774315,121.6892215,319466.92,2785698.62,121.689187,25.178247
809,新北市萬里區衛生所,NewTaipei,中華電信,萬里區,新北市萬里區瑪鋉路157號1樓,新北市政府衛生局,25.1845555,121.6864204,319519.84,2785708.14,121.689712,25.178331
810,新北市樹林戶政事務所_A,NewTaipei,中華電信,樹林區,新北市樹林區保安街1段285號1樓,新北市政府民政局,24.9966434,121.4189495,292288.94,2765472.58,121.418937,24.996656
811,新北市樹林戶政事務所_B,NewTaipei,中華電信,樹林區,新北市樹林區保安街1段285號1樓,新北市政府民政局,24.9966434,121.4189495,292288.94,2765472.58,121.418937,24.996656
812,新北市樹林戶政事務所_C,NewTaipei,中華電信,樹林區,新北市樹林區保安街1段285號1樓,新北市政府民政局,24.9966434,121.4189495,292288.94,2765472.58,121.418937,24.996656
813,新北市樹林地政事務所_A,NewTaipei,中華電信,樹林區,新北市樹林區地政街12號1樓,新北市政府地政局,24.971807,121.3938969,289793.35,2762706.55,121.394135,24.971751
814,新北市樹林地政事務所_B,NewTaipei,中華電信,樹林區,新北市樹林區地政街12號1樓,新北市政府地政局,24.971807,121.3938969,289793.35,2762706.55,121.394135,24.971751
815,新北市樹林地政事務所_C,NewTaipei,中華電信,樹林區,新北市樹林區地政街12號1樓,新北市政府地政局,24.971807,121.3938969,289793.35,2762706.55,121.394135,24.971751
816,新北市樹林區公所1F_A,NewTaipei,中華電信,樹林區,新北市樹林區鎮前街93號1樓,新北市樹林區公所,24.9899619,121.424644,292851.52,2764741.61,121.424487,24.990041
817,新北市樹林區公所1F_B,NewTaipei,中華電信,樹林區,新北市樹林區鎮前街93號1樓,新北市樹林區公所,24.9899619,121.424644,292851.52,2764741.61,121.424487,24.990041
818,新北市樹林區公所2F-1_A,NewTaipei,中華電信,樹林區,新北市樹林區鎮前街93號2樓,新北市樹林區公所,24.9899619,121.424644,292851.52,2764741.61,121.424487,24.990041
819,新北市樹林區公所2F-1_B,NewTaipei,中華電信,樹林區,新北市樹林區鎮前街93號2樓,新北市樹林區公所,24.9899619,121.424644,292851.52,2764741.61,121.424487,24.990041
820,新北市樹林區公所2F-2_A,NewTaipei,中華電信,樹林區,新北市樹林區鎮前街93號2樓,新北市樹林區公所,24.9899619,121.424644,292851.52,2764741.61,121.424487,24.990041
821,新北市樹林區公所2F-2_B,NewTaipei,中華電信,樹林區,新北市樹林區鎮前街93號2樓,新北市樹林區公所,24.9899619,121.424644,292851.52,2764741.61,121.424487,24.990041
822,新北市樹林區公所3F_A,NewTaipei,中華電信,樹林區,新北市樹林區鎮前街93號3樓,新北市樹林區公所,24.9899619,121.424644,292851.52,2764741.61,121.424487,24.990041
823,新北市樹林區公所3F_B,NewTaipei,中華電信,樹林區,新北市樹林區鎮前街93號3樓,新北市樹林區公所,24.9899619,121.424644,292851.52,2764741.61,121.424487,24.990041
824,新北市樹林區衛生所_A,NewTaipei,中華電信,樹林區,新北市樹林區樹新路40號之7 ,新北市政府衛生局,24.995907,121.429182,293144.19,2765275.79,121.427403,24.994855
825,新北市樹林區衛生所_B,NewTaipei,中華電信,樹林區,新北市樹林區樹新路40號之7 ,新北市政府衛生局,24.995907,121.429182,293144.19,2765275.79,121.427403,24.994855
826,新北市雙溪區公所-1_A,NewTaipei,中華電信,雙溪區,新北市雙溪區共和里東榮街25號1、3樓,新北市雙溪區公所,25.039076,121.866012,337365.7,2769827.66,121.865738,25.034043
827,新北市雙溪區公所-1_B,NewTaipei,中華電信,雙溪區,新北市雙溪區共和里東榮街25號3樓,新北市雙溪區公所,25.039076,121.866012,337365.7,2769827.66,121.865738,25.034043
828,新北市雙溪區公所-2,NewTaipei,中華電信,雙溪區,新北市雙溪區共和里東榮街25號2樓,新北市雙溪區公所,25.039076,121.866012,337365.7,2769827.66,121.865738,25.034043
829,新北市雙溪區衛生所,NewTaipei,中華電信,雙溪區,新北市雙溪區新基南街18號,新北市政府衛生局,25.0375621,121.8653661,337434.74,2770257.16,121.86645,25.037917
830,新北市藝文中心藝文廳1F-1_A,NewTaipei,中華電信,板橋區,新北市板橋區莊敬路62號1F,新北市政府文化局,25.025653,121.471873,297662.56,2768742.8,121.472283,25.026021
831,新北市藝文中心藝文廳1F-1_B,NewTaipei,中華電信,板橋區,新北市板橋區莊敬路62號1F,新北市政府文化局,25.025653,121.471873,297662.56,2768742.8,121.472283,25.026021
832,新北市藝文中心藝文廳1F-2_A,NewTaipei,中華電信,板橋區,新北市板橋區莊敬路62號1F,新北市政府文化局,25.025653,121.471873,297662.56,2768742.8,121.472283,25.026021
833,新北市藝文中心藝文廳1F-2_B,NewTaipei,中華電信,板橋區,新北市板橋區莊敬路62號1F,新北市政府文化局,25.025653,121.471873,297662.56,2768742.8,121.472283,25.026021
834,新北市藝文中心藝文廳B1_A,NewTaipei,中華電信,板橋區,新北市板橋區莊敬路62號B1,新北市政府文化局,25.025653,121.471873,297662.56,2768742.8,121.472283,25.026021
835,新北市藝文中心藝文廳B1_B,NewTaipei,中華電信,板橋區,新北市板橋區莊敬路62號B1,新北市政府文化局,25.025653,121.471873,297662.56,2768742.8,121.472283,25.026021
836,新北市蘆洲戶政事務所-1_A,NewTaipei,中華電信,蘆洲區,新北市蘆洲區集賢路245號8樓,新北市政府民政局,25.08494,121.481649,298581.88,2775260.1,121.481622,25.084829
837,新北市蘆洲戶政事務所-1_B,NewTaipei,中華電信,蘆洲區,新北市蘆洲區集賢路245號8樓,新北市政府民政局,25.08494,121.481649,298581.88,2775260.1,121.481622,25.084829
838,新北市蘆洲戶政事務所-1_C,NewTaipei,中華電信,蘆洲區,新北市蘆洲區集賢路245號8樓,新北市政府民政局,25.08494,121.481649,298581.88,2775260.1,121.481622,25.084829
839,新北市蘆洲區公所1F_A,NewTaipei,中華電信,蘆洲區,新北市蘆洲區三民路95號1樓,新北市蘆洲區公所,25.084863,121.473869,297790.61,2775242.85,121.473777,25.084699
840,新北市蘆洲區公所1F_B,NewTaipei,中華電信,蘆洲區,新北市蘆洲區三民路95號1樓,新北市蘆洲區公所,25.084863,121.473869,297790.61,2775242.85,121.473777,25.084699
841,新北市蘆洲區公所1F_C,NewTaipei,中華電信,蘆洲區,新北市蘆洲區三民路95號1樓,新北市蘆洲區公所,25.084863,121.473869,297790.61,2775242.85,121.473777,25.084699
842,新北市蘆洲區公所2F_A,NewTaipei,中華電信,蘆洲區,新北市蘆洲區三民路95號2樓,新北市蘆洲區公所,25.084863,121.473869,297790.61,2775242.85,121.473777,25.084699
843,新北市蘆洲區公所2F_B,NewTaipei,中華電信,蘆洲區,新北市蘆洲區三民路95號2樓,新北市蘆洲區公所,25.084863,121.473869,297790.61,2775242.85,121.473777,25.084699
844,新北市蘆洲區公所6F_A,NewTaipei,中華電信,蘆洲區,新北市蘆洲區三民路95號6樓,新北市蘆洲區公所,25.084863,121.473869,297790.61,2775242.85,121.473777,25.084699
845,新北市蘆洲區公所6F_B,NewTaipei,中華電信,蘆洲區,新北市蘆洲區三民路95號6樓,新北市蘆洲區公所,25.084863,121.473869,297790.61,2775242.85,121.473777,25.084699
846,新北市蘆洲區公所7F_A,NewTaipei,中華電信,蘆洲區,新北市蘆洲區三民路95號7樓,新北市蘆洲區公所,25.084863,121.473869,297790.61,2775242.85,121.473777,25.084699
847,新北市蘆洲區公所7F_B,NewTaipei,中華電信,蘆洲區,新北市蘆洲區三民路95號7樓,新北市蘆洲區公所,25.084863,121.473869,297790.61,2775242.85,121.473777,25.084699
848,新北市蘆洲區衛生所,NewTaipei,中華電信,蘆洲區,新北市蘆洲區中央路58號1樓,新北市政府衛生局,25.084138,121.473323,297741.14,2775161.07,121.473284,25.083962
849,新北市鶯歌戶政事務所_A,NewTaipei,中華電信,鶯歌區,新北市鶯歌區仁愛路53號1樓,新北市政府民政局,24.9556019,121.35465,285762.01,2760971.3,121.354162,24.956186
850,新北市鶯歌戶政事務所_B,NewTaipei,中華電信,鶯歌區,新北市鶯歌區仁愛路53號1樓,新北市政府民政局,24.9556019,121.35465,285762.01,2760971.3,121.354162,24.956186
851,新北市鶯歌區公所1F_A,NewTaipei,中華電信,鶯歌區,新北市鶯歌區仁愛路55號1樓,新北市鶯歌區公所,24.955971,121.354341,285782.31,2760943.27,121.354363,24.955932
852,新北市鶯歌區公所1F_B,NewTaipei,中華電信,鶯歌區,新北市鶯歌區仁愛路55號1樓,新北市鶯歌區公所,24.955971,121.354341,285782.31,2760943.27,121.354363,24.955932
853,新北市鶯歌區公所2F_A,NewTaipei,中華電信,鶯歌區,新北市鶯歌區仁愛路55號2樓,新北市鶯歌區公所,24.955971,121.354341,285782.31,2760943.27,121.354363,24.955932
854,新北市鶯歌區公所2F_B,NewTaipei,中華電信,鶯歌區,新北市鶯歌區仁愛路55號2樓,新北市鶯歌區公所,24.955971,121.354341,285782.31,2760943.27,121.354363,24.955932
855,新北市鶯歌區公所3F_A,NewTaipei,中華電信,鶯歌區,新北市鶯歌區仁愛路55號3樓,新北市鶯歌區公所,24.955971,121.354341,285782.31,2760943.27,121.354363,24.955932
856,新北市鶯歌區公所3F_B,NewTaipei,中華電信,鶯歌區,新北市鶯歌區仁愛路55號3樓,新北市鶯歌區公所,24.955971,121.354341,285782.31,2760943.27,121.354363,24.955932
857,新北市鶯歌區公所5F_A,NewTaipei,中華電信,鶯歌區,新北市鶯歌區仁愛路55號5樓,新北市鶯歌區公所,24.955971,121.354341,285782.31,2760943.27,121.354363,24.955932
858,新北市鶯歌區公所5F_B,NewTaipei,中華電信,鶯歌區,新北市鶯歌區仁愛路55號5樓,新北市鶯歌區公所,24.955971,121.354341,285782.31,2760943.27,121.354363,24.955932
859,新北市鶯歌區公所6F_A,NewTaipei,中華電信,鶯歌區,新北市鶯歌區仁愛路55號6樓,新北市鶯歌區公所,24.955971,121.354341,285782.31,2760943.27,121.354363,24.955932
860,新北市鶯歌區公所6F_B,NewTaipei,中華電信,鶯歌區,新北市鶯歌區仁愛路55號6樓,新北市鶯歌區公所,24.955971,121.354341,285782.31,2760943.27,121.354363,24.955932
861,新北市鶯歌區衛生所_A,NewTaipei,中華電信,鶯歌區,新北市鶯歌區文化路389號1樓,新北市政府衛生局,24.950582,121.352538,285602.24,2760324.05,121.352564,24.950346
862,新北市鶯歌區衛生所_B,NewTaipei,中華電信,鶯歌區,新北市鶯歌區文化路389號1樓,新北市政府衛生局,24.950582,121.352538,285602.24,2760324.05,121.352564,24.950346
863,新北市立圖書館新店文史館,NewTaipei,中華電信,新店區,新北市新店區北新路1段92號3樓,新北市政府文化局,24.969136,121.542199,304761.66,2762358.57,121.542371,24.968144
864,新店捷運站旅遊服務中心,NewTaipei,中華電信,新店區,新北市新店區北宜路1段2號,新北市政府觀光旅遊局,24.957872,121.537557,304302.96,2761218.84,121.537784,24.957871
865,新北市新莊文化藝術中心1F_A,NewTaipei,中華電信,新莊區,新北市新莊區中平路133號1樓,新北市政府文化局,25.047226,121.444167,294873.46,2771077.15,121.444722,25.04718
866,新北市新莊文化藝術中心1F_B,NewTaipei,中華電信,新莊區,新北市新莊區中平路133號1樓,新北市政府文化局,25.047226,121.444167,294873.46,2771077.15,121.444722,25.04718
867,新北市新莊文化藝術中心2F,NewTaipei,中華電信,新莊區,新北市新莊區中平路133號2樓,新北市政府文化局,25.047226,121.444167,294873.46,2771077.15,121.444722,25.04718
868,新北市新莊文化藝術中心3F_A,NewTaipei,中華電信,新莊區,新北市新莊區中平路133號3樓,新北市政府文化局,25.047226,121.444167,294873.46,2771077.15,121.444722,25.04718
869,新北市新莊文化藝術中心3F_B,NewTaipei,中華電信,新莊區,新北市新莊區中平路133號3樓,新北市政府文化局,25.047226,121.444167,294873.46,2771077.15,121.444722,25.04718
870,新北市新莊文化藝術中心3F_C,NewTaipei,中華電信,新莊區,新北市新莊區中平路133號3樓,新北市政府文化局,25.047226,121.444167,294873.46,2771077.15,121.444722,25.04718
871,瑞芳火車站旅遊服務中心,NewTaipei,中華電信,瑞芳區,新北市瑞芳區明燈路3段82號1樓,新北市政府觀光旅遊局,25.108681,121.806033,331290.05,2778060.86,121.806024,25.108706
872,新北市立殯儀館1F,NewTaipei,中華電信,板橋區,新北市板橋區中正路560號1樓,新北市政府民政局,25.028432,121.456597,296102.28,2769023.52,121.456832,25.028603
873,新北市三重眷村文化園區-1_A,NewTaipei,中華電信,三重區,新北市三重區正義南路86巷9號,新北市政府文化局,25.057726,121.499339,300362.07,2772291.09,121.499161,25.057967
874,新北市三重眷村文化園區-1_B,NewTaipei,中華電信,三重區,新北市三重區正義南路86巷9號,新北市政府文化局,25.057726,121.499339,300362.07,2772291.09,121.499161,25.057967
875,新北市三重眷村文化園區-2_A,NewTaipei,中華電信,三重區,新北市三重區正義南路86巷9號,新北市政府文化局,25.057726,121.499339,300362.07,2772291.09,121.499161,25.057967
876,新北市三重眷村文化園區-2_B,NewTaipei,中華電信,三重區,新北市三重區正義南路86巷9號,新北市政府文化局,25.057726,121.499339,300362.07,2772291.09,121.499161,25.057967
877,新北市三重眷村文化園區-3_A,NewTaipei,中華電信,三重區,新北市三重區正義南路86巷9號,新北市政府文化局,25.057726,121.499339,300362.07,2772291.09,121.499161,25.057967
878,新北市三重眷村文化園區-3_B,NewTaipei,中華電信,三重區,新北市三重區正義南路86巷9號,新北市政府文化局,25.057726,121.499339,300362.07,2772291.09,121.499161,25.057967
879,新北市三重眷村文化園區-4_A,NewTaipei,中華電信,三重區,新北市三重區正義南路86巷9號,新北市政府文化局,25.057726,121.499339,300362.07,2772291.09,121.499161,25.057967
880,新北市三重眷村文化園區-4_B,NewTaipei,中華電信,三重區,新北市三重區正義南路86巷9號,新北市政府文化局,25.057726,121.499339,300362.07,2772291.09,121.499161,25.057967
881,新北市三重眷村文化園區-5,NewTaipei,中華電信,三重區,新北市三重區正義南路86巷9號,新北市政府文化局,25.057726,121.499339,300362.07,2772291.09,121.499161,25.057967
882,新北市三重眷村文化園區-6,NewTaipei,中華電信,三重區,新北市三重區正義南路86巷9號,新北市政府文化局,25.057726,121.499339,300362.07,2772291.09,121.499161,25.057967
883,新北市三重眷村文化園區-7,NewTaipei,中華電信,三重區,新北市三重區正義南路86巷9號,新北市政府文化局,25.057726,121.499339,300362.07,2772291.09,121.499161,25.057967
884,新北市三重眷村文化園區-8,NewTaipei,中華電信,三重區,新北市三重區正義南路86巷9號,新北市政府文化局,25.057726,121.499339,300362.07,2772291.09,121.499161,25.057967
885,新北市政府交通局_A,NewTaipei,中華電信,三重區,新北市三重區重新路一段108號4樓,新北市政府交通局,25.063048,121.500932,300530.4,2772867.41,121.50085,25.063164
886,新北市政府交通局_B,NewTaipei,中華電信,三重區,新北市三重區重新路一段108號4樓,新北市政府交通局,25.063048,121.500932,300530.4,2772867.41,121.50085,25.063164
887,新北市三重區調解委員會,NewTaipei,中華電信,三重區,新北市三重區新北大道1段9號,新北市三重區公所,25.060998,121.488941,299356.35,2772638.72,121.489205,25.061139
888,新北市板橋區港嘴市民活動中心-1_A,NewTaipei,中華電信,板橋區,新北市板橋區縣民大道3段245-1號,新北市政府板橋區公所,25.025884,121.482027,298576.31,2768738.1,121.481336,25.025949
889,新北市板橋區港嘴市民活動中心-1_B,NewTaipei,中華電信,板橋區,新北市板橋區縣民大道3段245-1號,新北市政府板橋區公所,25.025884,121.482027,298576.31,2768738.1,121.481336,25.025949
890,新北市板橋區港嘴市民活動中心-2_A,NewTaipei,中華電信,板橋區,新北市板橋區縣民大道3段245-1號,新北市政府板橋區公所,25.025884,121.482027,298576.31,2768738.1,121.481336,25.025949
891,新北市板橋區港嘴市民活動中心-2_B,NewTaipei,中華電信,板橋區,新北市板橋區縣民大道3段245-1號,新北市政府板橋區公所,25.025884,121.482027,298576.31,2768738.1,121.481336,25.025949
892,新北市板橋區港嘴市民活動中心-3_A,NewTaipei,中華電信,板橋區,新北市板橋區縣民大道3段245-1號,新北市政府板橋區公所,25.025884,121.482027,298576.31,2768738.1,121.481336,25.025949
893,新北市板橋區港嘴市民活動中心-3_B,NewTaipei,中華電信,板橋區,新北市板橋區縣民大道3段245-1號,新北市政府板橋區公所,25.025884,121.482027,298576.31,2768738.1,121.481336,25.025949
894,新北市板橋區國光市民活動中心,NewTaipei,中華電信,板橋區,新北市板橋區國光路76號,新北市政府板橋區公所,25.017776,121.458334,296257.99,2767823.33,121.458334,25.017763
895,新北市政府環保局2F-1_A,NewTaipei,中華電信,板橋區,新北市板橋區民族路57號2樓,新北市政府環境保護局,25.009065,121.464847,296875,2766870,121.464415,25.009137
896,新北市政府環保局2F-1_B,NewTaipei,中華電信,板橋區,新北市板橋區民族路57號2樓,新北市政府環境保護局,25.009065,121.464847,296875,2766870,121.464415,25.009137
897,新北市政府環保局2F-2,NewTaipei,中華電信,板橋區,新北市板橋區民族路57號2樓,新北市政府環境保護局,25.009065,121.464847,296875,2766870,121.464415,25.009137
898,新北市政府環保局3F_A,NewTaipei,中華電信,板橋區,新北市板橋區民族路57號3樓,新北市政府環境保護局,25.009065,121.464847,296875,2766870,121.464415,25.009137
899,新北市政府環保局3F_B,NewTaipei,中華電信,板橋區,新北市板橋區民族路57號3樓,新北市政府環境保護局,25.009065,121.464847,296875,2766870,121.464415,25.009137
900,新北市政府環保局4F,NewTaipei,中華電信,板橋區,新北市板橋區民族路57號4樓,新北市政府環境保護局,25.009065,121.464847,296875,2766870,121.464415,25.009137
901,新北市永和區仁愛公園活動中心,NewTaipei,中華電信,永和區,新北市永和區仁愛路244-1號,新北市永和區公所,25.011223,121.507072,301192.98,2767096.07,121.507203,25.011039
902,新北市土城區員林市民活動中心,NewTaipei,中華電信,土城區,新北市土城區員林街15號2樓,新北市土城區公所,24.977824,121.4435,294722.97,2763445,121.442984,24.978281
903,新北市新板藝廊_A,NewTaipei,中華電信,板橋區,新北市板橋區漢生東路166號3樓,新北市政府文化局,25.012479,121.469069,297131.47,2767507.23,121.466978,25.014882
904,新北市新板藝廊_B,NewTaipei,中華電信,板橋區,新北市板橋區漢生東路166號3樓,新北市政府文化局,25.012479,121.469069,297131.47,2767507.23,121.466978,25.014882
905,新北市土城國民運動中心1F-1,NewTaipei,中華電信,土城區,新北市土城區金城路2段247之1號1F,新北市政府體育處,24.985416,121.457173,296151.12,2764250.6,121.457156,24.985511
906,新北市土城國民運動中心1F-2,NewTaipei,中華電信,土城區,新北市土城區金城路2段247之1號1F,新北市政府體育處,24.985416,121.457173,296151.12,2764250.6,121.457156,24.985511
907,新北市土城國民運動中心2F,NewTaipei,中華電信,土城區,新北市土城區金城路2段247之1號2F,新北市政府體育處,24.985416,121.457173,296151.12,2764250.6,121.457156,24.985511
908,新北市土城國民運動中心3F-1,NewTaipei,中華電信,土城區,新北市土城區金城路2段247之1號3F,新北市政府體育處,24.985416,121.457173,296151.12,2764250.6,121.457156,24.985511
909,新北市土城國民運動中心3F-2,NewTaipei,中華電信,土城區,新北市土城區金城路2段247之1號3F,新北市政府體育處,24.985416,121.457173,296151.12,2764250.6,121.457156,24.985511
910,新北市土城國民運動中心4F,NewTaipei,中華電信,土城區,新北市土城區金城路2段247之1號4F,新北市政府體育處,24.985416,121.457173,296151.12,2764250.6,121.457156,24.985511
911,新北市中和國民運動中心1F,NewTaipei,中華電信,中和區,新北市中和區錦和路350之1號B1,新北市政府體育處,24.993312,121.489252,299159.18,2765066.2,121.486981,24.99278
912,新北市中和國民運動中心2F,NewTaipei,中華電信,中和區,新北市中和區錦和路350之1號1F,新北市政府體育處,24.993312,121.489252,299159.18,2765066.2,121.486981,24.99278
913,新北市中和國民運動中心3F,NewTaipei,中華電信,中和區,新北市中和區錦和路350之1號2F,新北市政府體育處,24.993312,121.489252,299159.18,2765066.2,121.486981,24.99278
914,新北市中和國民運動中心4F,NewTaipei,中華電信,中和區,新北市中和區錦和路350之1號3F,新北市政府體育處,24.993312,121.489252,299159.18,2765066.2,121.486981,24.99278
915,新北市中和國民運動中心B1,NewTaipei,中華電信,中和區,新北市中和區錦和路350之1號4F,新北市政府體育處,24.993312,121.489252,299159.18,2765066.2,121.486981,24.99278
916,新北市中和國民運動中心泳池看台,NewTaipei,中華電信,中和區,新北市中和區錦和路350之1號,新北市政府體育處,24.993312,121.489252,299159.18,2765066.2,121.486981,24.99278
917,新北市三重國民運動中心1F,NewTaipei,中華電信,三重區,新北市三重區集美街55號1F,新北市政府體育處,25.054758,121.488199,299253.06,2771918.78,121.488156,25.054642
918,新北市三重國民運動中心2F,NewTaipei,中華電信,三重區,新北市三重區集美街55號2F,新北市政府體育處,25.054758,121.488199,299253.06,2771918.78,121.488156,25.054642
919,新北市三重國民運動中心3F-1,NewTaipei,中華電信,三重區,新北市三重區集美街55號3F,新北市政府體育處,25.054758,121.488199,299253.06,2771918.78,121.488156,25.054642
920,新北市三重國民運動中心3F-2,NewTaipei,中華電信,三重區,新北市三重區集美街55號3F,新北市政府體育處,25.054758,121.488199,299253.06,2771918.78,121.488156,25.054642
921,新北市三重國民運動中心5F,NewTaipei,中華電信,三重區,新北市三重區集美街55號5F,新北市政府體育處,25.054758,121.488199,299253.06,2771918.78,121.488156,25.054642
922,新北市三重國民運動中心7F,NewTaipei,中華電信,三重區,新北市三重區集美街55號7F,新北市政府體育處,25.054758,121.488199,299253.06,2771918.78,121.488156,25.054642
923,新北市蘆洲國民運動中心1F,NewTaipei,中華電信,蘆洲區,新北市蘆洲區長樂路235-1號1F,新北市政府體育處,25.09025,121.462038,296629.21,2775958.07,121.462288,25.091192
924,新北市蘆洲國民運動中心2F,NewTaipei,中華電信,蘆洲區,新北市蘆洲區長樂路235-1號2F,新北市政府體育處,25.09025,121.462038,296629.21,2775958.07,121.462288,25.091192
925,新北市蘆洲國民運動中心3F-1,NewTaipei,中華電信,蘆洲區,新北市蘆洲區長樂路235-1號3F,新北市政府體育處,25.09025,121.462038,296629.21,2775958.07,121.462288,25.091192
926,新北市蘆洲國民運動中心3F-2,NewTaipei,中華電信,蘆洲區,新北市蘆洲區長樂路235-1號3F,新北市政府體育處,25.09025,121.462038,296629.21,2775958.07,121.462288,25.091192
927,新北市蘆洲國民運動中心4F,NewTaipei,中華電信,蘆洲區,新北市蘆洲區長樂路235-1號4F,新北市政府體育處,25.09025,121.462038,296629.21,2775958.07,121.462288,25.091192
928,新北市蘆洲國民運動中心5F,NewTaipei,中華電信,蘆洲區,新北市蘆洲區長樂路235-1號5F,新北市政府體育處,25.09025,121.462038,296629.21,2775958.07,121.462288,25.091192
929,新北市淡水國民運動中心1F-1,NewTaipei,中華電信,淡水區,新北市淡水區中山北路2段381巷2號1F,新北市政府體育處,25.18714,121.44286,294618.47,2786580.13,121.442699,25.187148
930,新北市淡水國民運動中心1F-2,NewTaipei,中華電信,淡水區,新北市淡水區中山北路2段381巷2號1F,新北市政府體育處,25.18714,121.44286,294618.47,2786580.13,121.442699,25.187148
931,新北市淡水國民運動中心2F-1,NewTaipei,中華電信,淡水區,新北市淡水區中山北路2段381巷2號2F,新北市政府體育處,25.18714,121.44286,294618.47,2786580.13,121.442699,25.187148
932,新北市淡水國民運動中心2F-2,NewTaipei,中華電信,淡水區,新北市淡水區中山北路2段381巷2號2F,新北市政府體育處,25.18714,121.44286,294618.47,2786580.13,121.442699,25.187148
933,新北市淡水國民運動中心3F,NewTaipei,中華電信,淡水區,新北市淡水區中山北路2段381巷2號3F,新北市政府體育處,25.18714,121.44286,294618.47,2786580.13,121.442699,25.187148
934,新北市淡水國民運動中心4F,NewTaipei,中華電信,淡水區,新北市淡水區中山北路2段381巷2號4F,新北市政府體育處,25.18714,121.44286,294618.47,2786580.13,121.442699,25.187148
935,新北市五股區公所3F,NewTaipei,中華電信,五股區,新北市五股區中興路4段50號3樓,新北市五股區公所,25.083068,121.438129,294188.46,2775049.2,121.438061,25.08306
936,新北市五股區公所6F,NewTaipei,中華電信,五股區,新北市五股區中興路4段50號6樓,新北市五股區公所,25.083068,121.438129,294188.46,2775049.2,121.438061,25.08306
937,新北市五股區公所7F,NewTaipei,中華電信,五股區,新北市五股區中興路4段50號7樓,新北市五股區公所,25.083068,121.438129,294188.46,2775049.2,121.438061,25.08306
938,新北市五股區公所8F,NewTaipei,中華電信,五股區,新北市五股區中興路4段50號8樓,新北市五股區公所,25.083068,121.438129,294188.46,2775049.2,121.438061,25.08306
939,新北市五股區公所9F,NewTaipei,中華電信,五股區,新北市五股區中興路4段50號9樓,新北市五股區公所,25.083068,121.438129,294188.46,2775049.2,121.438061,25.08306
940,新北市板橋435藝文特區E棟(板橋大劇院)_A,NewTaipei,中華電信,板橋區,新北市板橋區中正路435號,新北市政府文化局,25.024201,121.452329,295693.47,2768510.88,121.452764,25.023987
941,新北市板橋435藝文特區E棟(板橋大劇院)_B,NewTaipei,中華電信,板橋區,新北市板橋區中正路435號,新北市政府文化局,25.02434,121.452092,295693.47,2768510.88,121.452764,25.023987
942,新北市板橋435藝文特區D棟(玩具博物館),NewTaipei,中華電信,板橋區,新北市板橋區中正路435號,新北市政府文化局,25.024026,121.451829,295693.47,2768510.88,121.452764,25.023987
943,新北市板橋435藝文特區F棟(莫比斯),NewTaipei,中華電信,板橋區,新北市板橋區中正路435號,新北市政府文化局,25.024026,121.451829,295693.47,2768510.88,121.452764,25.023987
944,新北市立圖書館新總館1F-1_A,NewTaipei,中華電信,板橋區,新北市板橋區貴興路139號1F,新北市政府文化局,25.001999,121.455144,295922.81,2766044.21,121.454954,25.001711
945,新北市立圖書館新總館1F-1_B,NewTaipei,中華電信,板橋區,新北市板橋區貴興路139號1F,新北市政府文化局,25.001999,121.455144,295922.81,2766044.21,121.454954,25.001711
946,新北市立圖書館新總館1F-2_A,NewTaipei,中華電信,板橋區,新北市板橋區貴興路139號1F,新北市政府文化局,25.001999,121.455144,295922.81,2766044.21,121.454954,25.001711
947,新北市立圖書館新總館1F-2_B,NewTaipei,中華電信,板橋區,新北市板橋區貴興路139號1F,新北市政府文化局,25.001999,121.455144,295922.81,2766044.21,121.454954,25.001711
948,新北市立圖書館新總館2F-1_A,NewTaipei,中華電信,板橋區,新北市板橋區貴興路139號2F,新北市政府文化局,25.001999,121.455144,295922.81,2766044.21,121.454954,25.001711
949,新北市立圖書館新總館2F-1_B,NewTaipei,中華電信,板橋區,新北市板橋區貴興路139號2F,新北市政府文化局,25.001999,121.455144,295922.81,2766044.21,121.454954,25.001711
950,新北市立圖書館新總館2F-2,NewTaipei,中華電信,板橋區,新北市板橋區貴興路139號2F,新北市政府文化局,25.001999,121.455144,295922.81,2766044.21,121.454954,25.001711
951,新北市立圖書館新總館2F-3,NewTaipei,中華電信,板橋區,新北市板橋區貴興路139號2F,新北市政府文化局,25.001999,121.455144,295922.81,2766044.21,121.454954,25.001711
952,新北市立圖書館新總館3F-1_A,NewTaipei,中華電信,板橋區,新北市板橋區貴興路139號3F,新北市政府文化局,25.001999,121.455144,295922.81,2766044.21,121.454954,25.001711
953,新北市立圖書館新總館3F-1_B,NewTaipei,中華電信,板橋區,新北市板橋區貴興路139號3F,新北市政府文化局,25.001999,121.455144,295922.81,2766044.21,121.454954,25.001711
954,新北市立圖書館新總館3F-2_A,NewTaipei,中華電信,板橋區,新北市板橋區貴興路139號3F,新北市政府文化局,25.001999,121.455144,295922.81,2766044.21,121.454954,25.001711
955,新北市立圖書館新總館3F-2_B,NewTaipei,中華電信,板橋區,新北市板橋區貴興路139號3F,新北市政府文化局,25.001999,121.455144,295922.81,2766044.21,121.454954,25.001711
956,新北市立圖書館新總館3F-3,NewTaipei,中華電信,板橋區,新北市板橋區貴興路139號3F,新北市政府文化局,25.001999,121.455144,295922.81,2766044.21,121.454954,25.001711
957,新北市立圖書館新總館4F-1_A,NewTaipei,中華電信,板橋區,新北市板橋區貴興路139號4F,新北市政府文化局,25.001999,121.455144,295922.81,2766044.21,121.454954,25.001711
958,新北市立圖書館新總館4F-1_B,NewTaipei,中華電信,板橋區,新北市板橋區貴興路139號4F,新北市政府文化局,25.001999,121.455144,295922.81,2766044.21,121.454954,25.001711
959,新北市立圖書館新總館4F-2_A,NewTaipei,中華電信,板橋區,新北市板橋區貴興路139號4F,新北市政府文化局,25.001999,121.455144,295922.81,2766044.21,121.454954,25.001711
960,新北市立圖書館新總館4F-2_B,NewTaipei,中華電信,板橋區,新北市板橋區貴興路139號4F,新北市政府文化局,25.001999,121.455144,295922.81,2766044.21,121.454954,25.001711
961,新北市立圖書館新總館5F-1_A,NewTaipei,中華電信,板橋區,新北市板橋區貴興路139號5F,新北市政府文化局,25.001999,121.455144,295922.81,2766044.21,121.454954,25.001711
962,新北市立圖書館新總館5F-1_B,NewTaipei,中華電信,板橋區,新北市板橋區貴興路139號5F,新北市政府文化局,25.001999,121.455144,295922.81,2766044.21,121.454954,25.001711
963,新北市立圖書館新總館5F-2_A,NewTaipei,中華電信,板橋區,新北市板橋區貴興路139號5F,新北市政府文化局,25.001999,121.455144,295922.81,2766044.21,121.454954,25.001711
964,新北市立圖書館新總館5F-2_B,NewTaipei,中華電信,板橋區,新北市板橋區貴興路139號5F,新北市政府文化局,25.001999,121.455144,295922.81,2766044.21,121.454954,25.001711
965,新北市立圖書館新總館6F-1_A,NewTaipei,中華電信,板橋區,新北市板橋區貴興路139號6F,新北市政府文化局,25.001999,121.455144,295922.81,2766044.21,121.454954,25.001711
966,新北市立圖書館新總館6F-1_B,NewTaipei,中華電信,板橋區,新北市板橋區貴興路139號6F,新北市政府文化局,25.001999,121.455144,295922.81,2766044.21,121.454954,25.001711
967,新北市立圖書館新總館6F-2_A,NewTaipei,中華電信,板橋區,新北市板橋區貴興路139號6F,新北市政府文化局,25.001999,121.455144,295922.81,2766044.21,121.454954,25.001711
968,新北市立圖書館新總館6F-2_B,NewTaipei,中華電信,板橋區,新北市板橋區貴興路139號6F,新北市政府文化局,25.001999,121.455144,295922.81,2766044.21,121.454954,25.001711
969,新北市立圖書館新總館7F-1_A,NewTaipei,中華電信,板橋區,新北市板橋區貴興路139號7F,新北市政府文化局,25.001999,121.455144,295922.81,2766044.21,121.454954,25.001711
970,新北市立圖書館新總館7F-1_B,NewTaipei,中華電信,板橋區,新北市板橋區貴興路139號7F,新北市政府文化局,25.001999,121.455144,295922.81,2766044.21,121.454954,25.001711
971,新北市立圖書館新總館7F-2_A,NewTaipei,中華電信,板橋區,新北市板橋區貴興路139號7F,新北市政府文化局,25.001999,121.455144,295922.81,2766044.21,121.454954,25.001711
972,新北市立圖書館新總館7F-2_B,NewTaipei,中華電信,板橋區,新北市板橋區貴興路139號7F,新北市政府文化局,25.001999,121.455144,295922.81,2766044.21,121.454954,25.001711
973,新北市立圖書館新總館8F-1_A,NewTaipei,中華電信,板橋區,新北市板橋區貴興路139號8F,新北市政府文化局,25.001999,121.455144,295922.81,2766044.21,121.454954,25.001711
974,新北市立圖書館新總館8F-1_B,NewTaipei,中華電信,板橋區,新北市板橋區貴興路139號8F,新北市政府文化局,25.001999,121.455144,295922.81,2766044.21,121.454954,25.001711
975,新北市立圖書館新總館8F-2_A,NewTaipei,中華電信,板橋區,新北市板橋區貴興路139號8F,新北市政府文化局,25.001999,121.455144,295922.81,2766044.21,121.454954,25.001711
976,新北市立圖書館新總館8F-2_B,NewTaipei,中華電信,板橋區,新北市板橋區貴興路139號8F,新北市政府文化局,25.001999,121.455144,295922.81,2766044.21,121.454954,25.001711
977,新北市立圖書館新總館9F-1_A,NewTaipei,中華電信,板橋區,新北市板橋區貴興路139號9F,新北市政府文化局,25.001999,121.455144,295922.81,2766044.21,121.454954,25.001711
978,新北市立圖書館新總館9F-1_B,NewTaipei,中華電信,板橋區,新北市板橋區貴興路139號9F,新北市政府文化局,25.001999,121.455144,295922.81,2766044.21,121.454954,25.001711
979,新北市立圖書館新總館9F-2_A,NewTaipei,中華電信,板橋區,新北市板橋區貴興路139號9F,新北市政府文化局,25.001999,121.455144,295922.81,2766044.21,121.454954,25.001711
980,新北市立圖書館新總館9F-2_B,NewTaipei,中華電信,板橋區,新北市板橋區貴興路139號9F,新北市政府文化局,25.001999,121.455144,295922.81,2766044.21,121.454954,25.001711
981,新北市中和區公所3F_A,NewTaipei,中華電信,中和區,新北市中和區景平路634-2號,新北市中和區公所,24.998579,121.500655,300545.23,2765709.71,121.500735,24.998544
982,新北市中和區公所3F_B,NewTaipei,中華電信,中和區,新北市中和區景平路634-2號,新北市中和區公所,24.998579,121.500655,300545.23,2765709.71,121.500735,24.998544
983,新北市中和區公所6F,NewTaipei,中華電信,中和區,新北市中和區景平路634-2號,新北市中和區公所,24.998579,121.500655,300545.23,2765709.71,121.500735,24.998544
984,新北市淡水區公所中興市民活動中心,NewTaipei,中華電信,淡水區,新北市淡水區水源街一段29號5樓,新北市淡水區公所,25.1723664,121.4431267,294674.63,2784940.19,121.443203,25.172341
985,新北市淡水區公所竿蓁市民活動中心,NewTaipei,中華電信,淡水區,新北市淡水區淡海路111號3樓,新北市淡水區公所,25.1824642,121.4217782,292503.54,2786056.97,121.421699,25.182487
986,新北市淡水區公所淡海市民活動中心,NewTaipei,中華電信,淡水區,新北市淡水區中正東路一段3巷6號3樓,新北市淡水區公所,25.163513,121.451437,295469.04,2784112.68,121.451056,25.164847
987,新北市淡水區公所新興市民活動中心,NewTaipei,中華電信,淡水區,新北市淡水區大義街18號3樓,新北市淡水區公所,25.1783341,121.4429654,294657.32,2785610.72,121.443053,25.178395
988,新北市政府三重就業服務站1F,NewTaipei,中華電信,三重區,新北市三重區重新路4段12號,新北市就業服務中心,25.0576876,121.4886759,299312.51,2772263.64,121.488757,25.057754
989,新北市政府三重就業服務站2F,NewTaipei,中華電信,三重區,新北市三重區重新路4段12號2F,新北市就業服務中心,25.0576876,121.4886759,299312.51,2772263.64,121.488757,25.057754
990,新北市議會B1-1,NewTaipei,中華電信,板橋區,新北市板橋區文化路2段166號B1,新北市議會,25.026962,121.471,297522.86,2768854.19,121.470902,25.027031
991,新北市議會B1-2,NewTaipei,中華電信,板橋區,新北市板橋區文化路2段166號B1,新北市議會,25.026962,121.471,297522.86,2768854.19,121.470902,25.027031
992,新北市議會B1-3_A,NewTaipei,中華電信,板橋區,新北市板橋區文化路2段166號B1,新北市議會,25.026962,121.471,297522.86,2768854.19,121.470902,25.027031
993,新北市議會B1-3_B,NewTaipei,中華電信,板橋區,新北市板橋區文化路2段166號B1,新北市議會,25.026962,121.471,297522.86,2768854.19,121.470902,25.027031
994,新北市議會1F-1,NewTaipei,中華電信,板橋區,新北市板橋區文化路2段166號1樓,新北市議會,25.026962,121.471,297522.86,2768854.19,121.470902,25.027031
995,新北市議會1F-2,NewTaipei,中華電信,板橋區,新北市板橋區文化路2段166號1樓,新北市議會,25.026962,121.471,297522.86,2768854.19,121.470902,25.027031
996,新北市議會1F-3,NewTaipei,中華電信,板橋區,新北市板橋區文化路2段166號1樓,新北市議會,25.026962,121.471,297522.86,2768854.19,121.470902,25.027031
997,新北市議會1F-4,NewTaipei,中華電信,板橋區,新北市板橋區文化路2段166號1樓,新北市議會,25.026962,121.471,297522.86,2768854.19,121.470902,25.027031
998,新北市議會1F-5,NewTaipei,中華電信,板橋區,新北市板橋區文化路2段166號1樓,新北市議會,25.026962,121.471,297522.86,2768854.19,121.470902,25.027031
999,新北市議會1F-6,NewTaipei,中華電信,板橋區,新北市板橋區文化路2段166號1樓,新北市議會,25.026962,121.471,297522.86,2768854.19,121.470902,25.027031
1000,新北市議會1F-7,NewTaipei,中華電信,板橋區,新北市板橋區文化路2段166號1樓,新北市議會,25.026962,121.471,297522.86,2768854.19,121.470902,25.027031
1001,新北市議會2F-1,NewTaipei,中華電信,板橋區,新北市板橋區文化路2段166號2樓,新北市議會,25.026962,121.471,297522.86,2768854.19,121.470902,25.027031
1002,新北市議會2F-2,NewTaipei,中華電信,板橋區,新北市板橋區文化路2段166號2樓,新北市議會,25.026962,121.471,297522.86,2768854.19,121.470902,25.027031
1003,新北市議會2F-3,NewTaipei,中華電信,板橋區,新北市板橋區文化路2段166號2樓,新北市議會,25.026962,121.471,297522.86,2768854.19,121.470902,25.027031
1004,新北市議會2F-4,NewTaipei,中華電信,板橋區,新北市板橋區文化路2段166號2樓,新北市議會,25.026962,121.471,297522.86,2768854.19,121.470902,25.027031
1005,新北市蘆洲區溪墘湧蓮市民活動中心,NewTaipei,中華電信,蘆洲區,新北市蘆洲區信義路65號,新北市蘆洲區公所,25.079489,121.476466,298021.9,2774675.75,121.47605,25.079572
1006,新北市政府稅捐稽徵處林口分處3F_A,NewTaipei,中華電信,林口區,新北市林口區忠孝二路55號3樓,新北市政府稅捐稽徵處,25.070031,121.364306,286727.36,2773562.89,121.364057,25.069842
1007,新北市政府稅捐稽徵處林口分處3F_B,NewTaipei,中華電信,林口區,新北市林口區忠孝二路55號3樓,新北市政府稅捐稽徵處,25.070031,121.364306,286727.36,2773562.89,121.364057,25.069842
1008,新北市立圖書館新莊頭前智慧圖書館3F_A,NewTaipei,中華電信,新莊區,新北市新莊區中原路2號,新北市立圖書館,25.054844,121.458786,296359.89,2771968.57,121.459484,25.055183
1009,新北市立圖書館新莊頭前智慧圖書館3F_B,NewTaipei,中華電信,新莊區,新北市新莊區中原路2號,新北市立圖書館,25.054844,121.458786,296359.89,2771968.57,121.459484,25.055183
1010,淡水紅毛城服務中心-1,NewTaipei,中華電信,淡水區,新北市淡水區中正路28巷1號,新北市立淡水古蹟博物館,25.175349,121.432931,293681.9,2785192.84,121.433363,25.174652
1011,淡水紅毛城服務中心-2,NewTaipei,中華電信,淡水區,新北市淡水區中正路28巷1號,新北市立淡水古蹟博物館,25.175349,121.432931,293681.9,2785192.84,121.433363,25.174652
1012,淡水紅毛城紅城小舖,NewTaipei,中華電信,淡水區,新北市淡水區中正路28巷1號,新北市立淡水古蹟博物館,25.175349,121.432931,293681.9,2785192.84,121.433363,25.174652
1013,淡水紅毛城票亭,NewTaipei,中華電信,淡水區,新北市淡水區中正路28巷1號,新北市立淡水古蹟博物館,25.175349,121.432931,293681.9,2785192.84,121.433363,25.174652
1014,淡水小白宮服務中心,NewTaipei,中華電信,淡水區,新北市淡水區真理街15號,新北市立淡水古蹟博物館,25.174147,121.436386,293981.85,2785127.58,121.436336,25.174054
1015,淡水海關碼頭洋樓,NewTaipei,中華電信,淡水區,新北市淡水區中正路259號,新北市立淡水古蹟博物館,25.174528,121.431753,293528.4,2785195.63,121.43184,25.174681
1016,淡水滬尾砲台服務中心,NewTaipei,中華電信,淡水區,新北市淡水區中正路1段6巷34-1號,新北市立淡水古蹟博物館,25.178781,121.429636,293363.07,2785710.05,121.430216,25.17933
1017,新北市政府市場處8樓大廳,NewTaipei,中華電信,新莊區,新北市新莊區中正路176號8樓,新北市政府市場處,25.036068,121.450374,295466.44,2769822.28,121.450558,25.035834
1018,新北市政府市場處801會議室,NewTaipei,中華電信,新莊區,新北市新莊區中正路176號8樓,新北市政府市場處,25.036068,121.450374,295466.44,2769822.28,121.450558,25.035834
1019,新北市政府市場處802會議室,NewTaipei,中華電信,新莊區,新北市新莊區中正路176號8樓,新北市政府市場處,25.036068,121.450374,295466.44,2769822.28,121.450558,25.035834
1020,新北市政府市場處901會議室,NewTaipei,中華電信,新莊區,新北市新莊區中正路176號9樓,新北市政府市場處,25.036068,121.450374,295466.44,2769822.28,121.450558,25.035834
1021,新北市板橋區公所6F大禮堂-1,NewTaipei,中華電信,板橋區,新北市板橋區府中路30號6樓,新北市板橋區公所,25.009612,121.459277,296340.08,2766923.81,121.459118,25.00964
1022,新北市石碇區二格公園展售中心,NewTaipei,中華電信,石碇區,新北市石碇區北宜公路23公里處,新北市石碇區公所,24.956494,121.62301,317257.18,2759611.73,121.665991,24.942844
1023,新北市政府中和就業服務站1F,NewTaipei,中華電信,中和區,235新北市中和區景安路118號1樓,新北市就業服務中心,24.995236,121.505391,300948.23,2765292.26,121.504712,24.994762
1024,新北市政府中和就業服務站2F,NewTaipei,中華電信,中和區,235新北市中和區景安路118號2樓,新北市就業服務中心,24.995236,121.505391,300948.23,2765292.26,121.504712,24.994762
1025,新北市政府板橋就業服務站-1,NewTaipei,中華電信,板橋區,新北市板橋區漢生東路163號,新北市就業服務中心,25.012485,121.469258,297374.45,2767236.05,121.469376,25.012427
1026,新北市政府板橋就業服務站-2,NewTaipei,中華電信,板橋區,新北市板橋區漢生東路163號,新北市就業服務中心,25.012485,121.469258,297374.45,2767236.05,121.469376,25.012427
1027,新北市板橋435藝文特區H棟1樓_東側,NewTaipei,中華電信,板橋區,新北市板橋區中正路435號,新北市政府文化局,25.023203,121.451709,295693.47,2768510.88,121.452764,25.023987
1028,新北市板橋435藝文特區H棟1樓_西側,NewTaipei,中華電信,板橋區,新北市板橋區中正路435號,新北市政府文化局,25.023203,121.451709,295693.47,2768510.88,121.452764,25.023987
1029,新北市板橋435藝文特區H棟1樓_東側,NewTaipei,中華電信,板橋區,新北市板橋區中正路435號,新北市政府文化局,25.023203,121.451709,295693.47,2768510.88,121.452764,25.023987
1030,新北市板橋435藝文特區H棟2樓_西側,NewTaipei,中華電信,板橋區,新北市板橋區中正路435號,新北市政府文化局,25.023203,121.451709,295693.47,2768510.88,121.452764,25.023987
1031,新北市板橋435藝文特區I棟1樓_東側,NewTaipei,中華電信,板橋區,新北市板橋區中正路435號,新北市政府文化局,25.023203,121.451709,295693.47,2768510.88,121.452764,25.023987
1032,新北市板橋435藝文特區I棟1樓_西側,NewTaipei,中華電信,板橋區,新北市板橋區中正路435號,新北市政府文化局,25.023203,121.451709,295693.47,2768510.88,121.452764,25.023987
1033,新北市板橋435藝文特區I棟2樓_東側,NewTaipei,中華電信,板橋區,新北市板橋區中正路435號,新北市政府文化局,25.023203,121.451709,295693.47,2768510.88,121.452764,25.023987
1034,新北市板橋435藝文特區I棟2樓_西側,NewTaipei,中華電信,板橋區,新北市板橋區中正路435號,新北市政府文化局,25.023203,121.451709,295693.47,2768510.88,121.452764,25.023987
1035,新北市板橋435藝文特區K棟1樓_東側,NewTaipei,中華電信,板橋區,新北市板橋區中正路435號,新北市政府文化局,25.023203,121.451709,295693.47,2768510.88,121.452764,25.023987
1036,新北市板橋435藝文特區I棟2樓_西側,NewTaipei,中華電信,板橋區,新北市板橋區中正路435號,新北市政府文化局,25.023203,121.451709,295693.47,2768510.88,121.452764,25.023987
1037,新北市藝文中心展覽廳1F-1,NewTaipei,中華電信,板橋區,新北市板橋區莊敬路62號1F(展覽廳),新北市政府文化局,25.02636,121.472203,297662.56,2768742.8,121.472283,25.026021
1038,新北市藝文中心展覽廳1F-2_A,NewTaipei,中華電信,板橋區,新北市板橋區莊敬路62號1F(展覽廳),新北市政府文化局,25.02636,121.472203,297662.56,2768742.8,121.472283,25.026021
1039,新北市藝文中心展覽廳1F-2_B,NewTaipei,中華電信,板橋區,新北市板橋區莊敬路62號1F(展覽廳),新北市政府文化局,25.02636,121.472203,285617.25,2760142.38,121.352707,24.948705
1040,新北市藝文中心展覽廳B1_A,NewTaipei,中華電信,板橋區,新北市板橋區莊敬路62號B1(展覽廳),新北市政府文化局,25.02636,121.472203,297662.56,2768742.8,121.472283,25.026021
1041,新北市藝文中心展覽廳B1_B,NewTaipei,中華電信,板橋區,新北市板橋區莊敬路62號B1(展覽廳),新北市政府文化局,25.02636,121.472203,297662.56,2768742.8,121.472283,25.026021
1042,新北市藝文中心展覽廳B1_C,NewTaipei,中華電信,板橋區,新北市板橋區莊敬路62號B1(展覽廳),新北市政府文化局,25.02636,121.472203,297662.56,2768742.8,121.472283,25.026021
1043,新北市藝文中心演奏廳,NewTaipei,中華電信,板橋區,新北市板橋區莊敬路62號B1(演奏廳),新北市政府文化局,25.02636,121.472203,297662.56,2768742.8,121.472283,25.026021
1044,新北市政府稅捐稽徵處瑞芳分處2F_A,NewTaipei,中華電信,瑞芳區,新北市瑞芳區明燈路3段42號2樓,新北市政府稅捐稽徵處,25.107971,121.807386,331438.29,2777976.4,121.807488,25.107936
1045,新北市政府稅捐稽徵處瑞芳分處2F_B,NewTaipei,中華電信,瑞芳區,新北市瑞芳區明燈路3段42號2樓,新北市政府稅捐稽徵處,25.107971,121.807386,331438.29,2777976.4,121.807488,25.107936
1046,新北市汐止國民運動中心2樓,NewTaipei,中華電信,汐止區,新北市汐止區汐科路321號2樓,新北市政府體育處,25.065287,121.657128,316289.61,2773176.48,121.657061,25.065346
1047,新北市汐止國民運動中心3樓_A,NewTaipei,中華電信,汐止區,新北市汐止區汐科路321號3樓,新北市政府體育處,25.065287,121.657128,316289.61,2773176.48,121.657061,25.065346
1048,新北市汐止國民運動中心3樓_B,NewTaipei,中華電信,汐止區,新北市汐止區汐科路321號3樓,新北市政府體育處,25.065287,121.657128,316289.61,2773176.48,121.657061,25.065346
1049,新北市汐止國民運動中心4樓,NewTaipei,中華電信,汐止區,新北市汐止區汐科路321號4樓,新北市政府體育處,25.065287,121.657128,316289.61,2773176.48,121.657061,25.065346
1050,新北市汐止國民運動中心5樓,NewTaipei,中華電信,汐止區,新北市汐止區汐科路321號5樓,新北市政府體育處,25.065287,121.657128,316289.61,2773176.48,121.657061,25.065346
1051,新北市汐止國民運動中心6樓_A,NewTaipei,中華電信,汐止區,新北市汐止區汐科路321號6樓,新北市政府體育處,25.065287,121.657128,316289.61,2773176.48,121.657061,25.065346
1052,新北市汐止國民運動中心6樓_B,NewTaipei,中華電信,汐止區,新北市汐止區汐科路321號6樓,新北市政府體育處,25.065287,121.657128,316289.61,2773176.48,121.657061,25.065346
1053,新北市汐止國民運動中心8樓,NewTaipei,中華電信,汐止區,新北市汐止區汐科路321號8樓,新北市政府體育處,25.065287,121.657128,316289.61,2773176.48,121.657061,25.065346
1054,新北市永和國民運動中心1樓,NewTaipei,中華電信,永和區,新北市永和區永利路250號1樓,新北市政府體育處,25.00313,121.524129,302919.52,2766237.77,121.524276,25.00323
1055,新北市永和國民運動中心2樓,NewTaipei,中華電信,永和區,新北市永和區永利路250號2樓,新北市政府體育處,25.00313,121.524129,302919.52,2766237.77,121.524276,25.00323
1056,新北市永和國民運動中心3樓_A,NewTaipei,中華電信,永和區,新北市永和區永利路250號3樓,新北市政府體育處,25.00313,121.524129,302919.52,2766237.77,121.524276,25.00323
1057,新北市永和國民運動中心3樓_B,NewTaipei,中華電信,永和區,新北市永和區永利路250號3樓,新北市政府體育處,25.00313,121.524129,302919.52,2766237.77,121.524276,25.00323
1058,新北市永和國民運動中心4樓,NewTaipei,中華電信,永和區,新北市永和區永利路250號4樓,新北市政府體育處,25.00313,121.524129,302919.52,2766237.77,121.524276,25.00323
1059,新北市永和國民運動中心5樓,NewTaipei,中華電信,永和區,新北市永和區永利路250號5樓,新北市政府體育處,25.00313,121.524129,302919.52,2766237.77,121.524276,25.00323
1060,新北市永和國民運動中心6樓,NewTaipei,中華電信,永和區,新北市永和區永利路250號6樓,新北市政府體育處,25.00313,121.524129,302919.52,2766237.77,121.524276,25.00323
1061,新北市八里區公所2F_A,NewTaipei,中華電信,八里區,新北市八里區八里大道18號2F,新北市八里區公所,25.153837,121.406129,290949.14,2782903.18,121.406183,25.154057
1062,新北市八里區公所2F_B,NewTaipei,中華電信,八里區,新北市八里區八里大道18號2F,新北市八里區公所,25.153837,121.406129,290949.14,2782903.18,121.406183,25.154057
1063,新北市八里區公所3F_A,NewTaipei,中華電信,八里區,新北市八里區八里大道18號3F,新北市八里區公所,25.153837,121.406129,290949.14,2782903.18,121.406183,25.154057
1064,新北市八里區公所3F_B,NewTaipei,中華電信,八里區,新北市八里區八里大道18號3F,新北市八里區公所,25.153837,121.406129,290949.14,2782903.18,121.406183,25.154057
1065,新北市中和區公所中和調解委員會_A,NewTaipei,中華電信,中和區,新北市中和區景平路634號之2 B1,新北市中和區公所,24.999782,121.498531,300493.81,2765660.62,121.500224,24.998103
1066,新北市中和區公所中和調解委員會_B,NewTaipei,中華電信,中和區,新北市中和區景平路634號之2 B1,新北市中和區公所,24.999782,121.498531,300493.81,2765660.62,121.500224,24.998103
1067,新北市瑞芳地政事務所2F,NewTaipei,中華電信,瑞芳區,新北市瑞芳區明燈路3段32號2F,新北市瑞芳地政事務所,25.107856,121.807963,331489.61,2777970.71,121.807997,25.107882
1068,新北市瑞芳地政事務所3F,NewTaipei,中華電信,瑞芳區,新北市瑞芳區明燈路3段32號3F,新北市瑞芳地政事務所,25.107856,121.807963,331489.61,2777970.71,121.807997,25.107882
1069,新北市三重區公所5F_A,NewTaipei,中華電信,三重區,新北市三重區新北大道1段11號,新北市三重區公所,25.061254,121.488351,299275.03,2772645.07,121.4884,25.061199
1070,新北市三重區公所5F_B,NewTaipei,中華電信,三重區,新北市三重區新北大道1段11號,新北市三重區公所,25.061254,121.488351,299275.03,2772645.07,121.4884,25.061199
1071,新北市三重區公所6F_A,NewTaipei,中華電信,三重區,新北市三重區新北大道1段11號,新北市三重區公所,25.061254,121.488351,299275.03,2772645.07,121.4884,25.061199
1072,新北市三重區公所6F_B,NewTaipei,中華電信,三重區,新北市三重區新北大道1段11號,新北市三重區公所,25.061254,121.488351,299275.03,2772645.07,121.4884,25.061199
1073,新北市林本源園邸-汲古書屋,NewTaipei,中華電信,板橋區,新北市板橋區西門街9號,新北市政府文化局,25.010359,121.454904,295868.87,2767083.35,121.454455,25.011094
1074,新北市林本源園邸-來青閣,NewTaipei,中華電信,板橋區,新北市板橋區西門街9號,新北市政府文化局,25.010359,121.454904,295868.87,2767083.35,121.454455,25.011094
1075,新北市林本源園邸-香玉簃,NewTaipei,中華電信,板橋區,新北市板橋區西門街9號,新北市政府文化局,25.010359,121.454904,295868.87,2767083.35,121.454455,25.011094
1076,新北市林本源園邸-觀稼樓,NewTaipei,中華電信,板橋區,新北市板橋區西門街9號,新北市政府文化局,25.010359,121.454904,295868.87,2767083.35,121.454455,25.011094
1077,新莊生命紀念館_A,NewTaipei,中華電信,新莊區,新北市新莊區壽山路162-1號,新北市新莊區公所,25.031117,121.415843,291921.28,2769271.25,121.41541,25.030961
1078,新莊生命紀念館_B,NewTaipei,中華電信,新莊區,新北市新莊區壽山路162-1號,新北市新莊區公所,25.031117,121.415843,291921.28,2769271.25,121.41541,25.030961
1079,新北市立殯儀館–景福廳,NewTaipei,中華電信,板橋區,新北市板橋區中正路560號,新北政府市民政局,25.028395,121.456691,296102.28,2769023.52,121.456832,25.028603
1080,新北市立殯儀館–明倫廳,NewTaipei,中華電信,板橋區,新北市板橋區中正路560號,新北政府市民政局,25.028395,121.456691,296102.28,2769023.52,121.456832,25.028603
1081,新北市立殯儀館–明孝廳,NewTaipei,中華電信,板橋區,新北市板橋區中正路560號,新北政府市民政局,25.028395,121.456691,296102.28,2769023.52,121.456832,25.028603
1082,新北市立殯儀館–崇義廳,NewTaipei,中華電信,板橋區,新北市板橋區中正路560號,新北政府市民政局,25.028395,121.456691,296102.28,2769023.52,121.456832,25.028603
1083,新北市立殯儀館–安詳廳,NewTaipei,中華電信,板橋區,新北市板橋區中正路560號,新北政府市民政局,25.028395,121.456691,296102.28,2769023.52,121.456832,25.028603
1084,新北市立殯儀館–崇仁廳,NewTaipei,中華電信,板橋區,新北市板橋區中正路560號,新北政府市民政局,25.028395,121.456691,296102.28,2769023.52,121.456832,25.028603
1085,新北市立殯儀館–明善廳,NewTaipei,中華電信,板橋區,新北市板橋區中正路560號,新北政府市民政局,25.028395,121.456691,296102.28,2769023.52,121.456832,25.028603
1086,新北市立殯儀館–明道廳,NewTaipei,中華電信,板橋區,新北市板橋區中正路560號,新北政府市民政局,25.028395,121.456691,296102.28,2769023.52,121.456832,25.028603
1087,新北市立三峽火化場-2,NewTaipei,中華電信,三峽區,新北市三峽區介壽路3段260巷1號 ,新北政府市民政局,24.948929,121.407443,291162.38,2760192.01,121.40762,24.949013
1088,新北市立殯儀館–B1拜飯間,NewTaipei,中華電信,板橋區,新北市板橋區中正路560號B1,新北政府市民政局,25.028395,121.456691,296102.28,2769023.52,121.456832,25.028603
1089,新北市立圖書館蘆洲仁愛智慧圖書館-1_A,NewTaipei,中華電信,蘆洲區,新北市蘆洲區民權路143號2樓,新北市政府文化局,25.090539,121.471616,297536.15,2775941.78,121.471279,25.091017
1090,新北市立圖書館蘆洲仁愛智慧圖書館-1_B,NewTaipei,中華電信,蘆洲區,新北市蘆洲區民權路143號2樓,新北市政府文化局,25.090539,121.471616,297536.15,2775941.78,121.471279,25.091017
1091,新北市立圖書館蘆洲仁愛智慧圖書館-2_A,NewTaipei,中華電信,蘆洲區,新北市蘆洲區民權路143號2樓,新北市政府文化局,25.090539,121.471616,297536.15,2775941.78,121.471279,25.091017
1092,新北市立圖書館蘆洲仁愛智慧圖書館-2_B,NewTaipei,中華電信,蘆洲區,新北市蘆洲區民權路143號2樓,新北市政府文化局,25.090539,121.471616,297536.15,2775941.78,121.471279,25.091017
1093,新北市府違章建築拆除大隊6F_A,NewTaipei,中華電信,新莊區,新北市新莊區樹新路222號6F,新北市政府工務局,25.000526,121.431145,293547,2765867.86,121.431412,25.000189
1094,新北市府違章建築拆除大隊6F_B,NewTaipei,中華電信,新莊區,新北市新莊區樹新路222號6F,新北市政府工務局,25.000526,121.431145,293547,2765867.86,121.431412,25.000189
1095,新北市府違章建築拆除大隊7F_A,NewTaipei,中華電信,新莊區,新北市新莊區樹新路222號7F,新北市政府工務局,25.000526,121.431145,293547,2765867.86,121.431412,25.000189
1096,新北市府違章建築拆除大隊7F_B,NewTaipei,中華電信,新莊區,新北市新莊區樹新路222號7F,新北市政府工務局,25.000526,121.431145,293547,2765867.86,121.431412,25.000189
1097,新北市府違章建築拆除大隊8F_A,NewTaipei,中華電信,新莊區,新北市新莊區樹新路222號8F,新北市政府工務局,25.000526,121.431145,293547,2765867.86,121.431412,25.000189
1098,新北市府違章建築拆除大隊8F_B,NewTaipei,中華電信,新莊區,新北市新莊區樹新路222號8F,新北市政府工務局,25.000526,121.431145,293547,2765867.86,121.431412,25.000189
1099,新北市府違章建築拆除大隊5F_A,NewTaipei,中華電信,新莊區,新北市新莊區樹新路222號5F,新北市政府工務局,25.000526,121.431145,293547,2765867.86,121.431412,25.000189
1100,新北市府違章建築拆除大隊5F_B,NewTaipei,中華電信,新莊區,新北市新莊區樹新路222號5F,新北市政府工務局,25.000526,121.431145,293547,2765867.86,121.431412,25.000189
1101,新北市新莊區四維市民活動中心_A,NewTaipei,中華電信,新莊區,新莊區四維路186巷2號,新莊區公所,25.021242,121.421823,0,0,,
1102,新北市新莊區四維市民活動中心_B,NewTaipei,中華電信,新莊區,新莊區四維路186巷2號,新莊區公所,25.021242,121.421823,0,0,,
1103,新北市新莊區全安市民活動中心_A,NewTaipei,中華電信,新莊區,新莊區新莊路527號,新莊區公所,25.033226,121.447917,328366.1,2770662.53,121.776612,25.042073
1104,新北市新莊區全安市民活動中心_B,NewTaipei,中華電信,新莊區,新莊區新莊路527號,新莊區公所,25.033226,121.447917,0,0,,
1105,新北市新莊區福壽市民活動中心_A,NewTaipei,中華電信,新莊區,新莊區昌明街1號,新莊區公所,25.052289,121.457831,305308.34,2751662.16,121.547359,24.871556
1106,新北市新莊區福壽市民活動中心_B,NewTaipei,中華電信,新莊區,新莊區昌明街1號,新莊區公所,25.052289,121.457831,296968.74,2767206.41,121.465356,25.012172
1107,新北市新莊區牡丹心市民活動中心_A,NewTaipei,中華電信,新莊區,新莊區雙鳳路75號5樓,新莊區公所,25.027663,121.414853,0,0,,
1108,新北市新莊區牡丹心市民活動中心_B,NewTaipei,中華電信,新莊區,新莊區雙鳳路75號5樓,新莊區公所,25.027663,121.414853,0,0,,
1109,新北市新莊區黃愚市民活動中心_A,NewTaipei,中華電信,新莊區,新莊區中信街74號,新莊區公所,25.05245,121.448222,0,0,,
1110,新北市新莊區黃愚市民活動中心_B,NewTaipei,中華電信,新莊區,新莊區中信街74號,新莊區公所,25.05245,121.448222,0,0,,
1111,新北市新莊區新泰市民活動中心_A,NewTaipei,中華電信,新莊區,新莊區建中街116巷3弄2號,新莊區公所,25.037213,121.445394,0,0,,
1112,新北市新莊區新泰市民活動中心_B,NewTaipei,中華電信,新莊區,新莊區建中街116巷3弄2號,新莊區公所,25.037213,121.445394,0,0,,
1113,新北市新莊區後港市民活動中心_A,NewTaipei,中華電信,新莊區,新莊區建安街26巷4號,新莊區公所,25.02594,121.428737,0,0,,
1114,新北市新莊區後港市民活動中心_B,NewTaipei,中華電信,新莊區,新莊區建安街26巷4號,新莊區公所,25.02594,121.428737,0,0,,
1115,新北市新莊區豐年市民活動中心_A,NewTaipei,中華電信,新莊區,新莊區豐年街57號之5,新莊區公所,25.029898,121.446583,0,0,,
1116,新北市新莊區豐年市民活動中心_B,NewTaipei,中華電信,新莊區,新莊區豐年街57號之5,新莊區公所,25.029898,121.446583,0,0,,
1117,新北市新莊區瓊泰市民活動中心_A,NewTaipei,中華電信,新莊區,新莊區瓊泰路85號,新莊區公所,25.029129,121.443225,0,0,,
1118,新北市新莊區瓊泰市民活動中心_B,NewTaipei,中華電信,新莊區,新莊區瓊泰路85號,新莊區公所,25.029129,121.443225,0,0,,
1119,新北市新莊區聯合市民活動中心_A,NewTaipei,中華電信,新莊區,新莊區自由街1號,新莊區公所,25.047901,121.456028,0,0,,
1120,新北市新莊區聯合市民活動中心_B,NewTaipei,中華電信,新莊區,新莊區自由街1號,新莊區公所,25.047901,121.456028,331115.69,2778051.46,121.804294,25.108631
1121,新北市新莊區中環市民活動中心_A,NewTaipei,中華電信,新莊區,新莊區中環路二段392號,新莊區公所,25.044992,121.442027,0,0,,
1122,新北市新莊區中環市民活動中心_B,NewTaipei,中華電信,新莊區,新莊區中環路二段392號,新莊區公所,25.044992,121.442027,0,0,,
1123,新北市新莊區興化市民活動中心_A,NewTaipei,中華電信,新莊區,新莊區五工路68巷2號,新莊區公所,25.064278,121.458882,0,0,,
1124,新北市新莊區興化市民活動中心_B,NewTaipei,中華電信,新莊區,新莊區五工路68巷2號,新莊區公所,25.064278,121.458882,0,0,,
1125,新北市新莊區福前市民活動中心_A,NewTaipei,中華電信,新莊區,新莊區化成路746巷2號,新莊區公所,25.057731,121.466464,0,0,,
1126,新北市新莊區福前市民活動中心_B,NewTaipei,中華電信,新莊區,新莊區化成路746巷2號,新莊區公所,25.057731,121.466464,0,0,,
1127,新北市新莊區老人文康活動中心_A,NewTaipei,中華電信,新莊區,新莊區長青街30號4樓,新莊區公所,25.042252,121.456556,0,0,,
1128,新北市新莊區老人文康活動中心_B,NewTaipei,中華電信,新莊區,新莊區長青街30號4樓,新莊區公所,25.042252,121.456556,0,0,,
1129,新北市新莊區長青文康活動中心_A,NewTaipei,中華電信,新莊區,新莊區後港一路19號B1,新莊區公所,25.026072,121.424012,0,0,,
1130,新北市新莊區長青文康活動中心_B,NewTaipei,中華電信,新莊區,新莊區後港一路19號B1,新莊區公所,25.026072,121.424012,0,0,,
1131,新北市新莊區海山市民活動中心_A,NewTaipei,中華電信,新莊區,新莊區瓊泰路211號1樓,新莊區公所,25.032319,25.032319,0,0,,
1132,新北市新莊區海山市民活動中心_B,NewTaipei,中華電信,新莊區,新莊區瓊泰路211號1樓,新莊區公所,25.032319,25.032319,0,0,,
1133,新北市新莊區中港第一市民活動中心_A,NewTaipei,中華電信,新莊區,新莊區中港路172號,新莊區公所,25.041825,121.455157,0,0,,
1134,新北市新莊區中港第一市民活動中心_B,NewTaipei,中華電信,新莊區,新莊區中港路172號,新莊區公所,25.041825,121.455157,0,0,,
1135,新北市三峽區大埔二鬮市民活動中心,NewTaipei,中華電信,三峽區,新北市三峽區中正路2段449號,三峽區公所 ,24.90628,121.361772,286644.03,2755492.53,121.362752,24.906701
1136,新北市三峽區長青市民活動中心,NewTaipei,中華電信,三峽區,新北市三峽區中山路65號,三峽區公所 ,24.9348952,121.3670917,287103.63,2758592.74,121.367385,24.934679
1137,新北市永和區永利市民活動中心,NewTaipei,中華電信,永和區,新北市永和區永利路72-1號5樓,永和區公所,25.0042793,121.5200041,302499.99,2766351.3,121.520124,25.00427
1138,新北市永和區大新光明市民活動中心_A,NewTaipei,中華電信,永和區,新北市永和區大新街45巷1-1號,永和區公所,25.008845,121.515464,302039.2,2766844.57,121.515577,25.008739
1139,新北市永和區大新光明市民活動中心_B,NewTaipei,中華電信,永和區,新北市永和區大新街45巷1-1號,永和區公所,25.008845,121.515464,302039.2,2766844.57,121.515577,25.008739
1140,新北市政府新建工程處5F_A,NewTaipei,中華電信,樹林區,新北市樹林區樹新路48號5F,新北市政府新建工程處,24.996395,121.429483,294492.01,2762956.63,121.44068,24.973879
1141,新北市政府新建工程處5F_B,NewTaipei,中華電信,樹林區,新北市樹林區樹新路48號5F,新北市政府新建工程處,24.996395,121.429483,293120.03,2765277.07,121.427164,24.994868
1142,新北市政府新建工程處6F_A,NewTaipei,中華電信,樹林區,新北市樹林區樹新路48號6F,新北市政府新建工程處,24.996395,121.429483,293120.03,2765277.07,121.427164,24.994868
1143,新北市政府新建工程處6F_B,NewTaipei,中華電信,樹林區,新北市樹林區樹新路48號6F,新北市政府新建工程處,24.996395,121.429483,296554.78,2766815.47,121.461241,25.008655
1144,新北市政府新建工程處7F_A,NewTaipei,中華電信,樹林區,新北市樹林區樹新路48號6F,新北市政府新建工程處,24.996395,121.429483,293120.03,2765277.07,121.427164,24.994868
1145,新北市政府新建工程處7F_B,NewTaipei,中華電信,樹林區,新北市樹林區樹新路48號7F,新北市政府新建工程處,24.996395,121.429483,293120.03,2765277.07,121.427164,24.994868
1146,新北市樹林藝文中心-1_A,NewTaipei,中華電信,樹林區,新北市樹林區樹新路40-8號,新北市政府文化局,24.996581,121.428611,293265.49,2765438.63,121.42861,24.996322
1147,新北市樹林藝文中心-1_B,NewTaipei,中華電信,樹林區,新北市樹林區樹新路40-8號,新北市政府文化局,24.996581,121.428611,293265.49,2765438.63,121.42861,24.996322
1148,新北市樹林藝文中心-2,NewTaipei,中華電信,樹林區,新北市樹林區樹新路40-8號,新北市政府文化局,24.996581,121.428611,293265.49,2765438.63,121.42861,24.996322
1149,新北市瑞芳區漁會辦公室,NewTaipei,中華電信,瑞芳區,新北市瑞芳區深澳路20號3F,新北巿政府漁業及漁港事業管理處,25.129516,121.816958,332733.45,2780577.56,121.820486,25.131347
1150,深澳漁港直銷餐廳,NewTaipei,中華電信,瑞芳區,新北市瑞芳區深澳路16-7號2F,新北巿政府漁業及漁港事業管理處,25.132203,121.81971,332561.81,2780372.88,121.818772,25.129509
1151,新北市三重區綜合運動場-1,NewTaipei,中華電信,三重區,新北市三重區新北大道1段11號,新北市三重區公所,25.061155,121.48837,299275.03,2772645.07,121.4884,25.061199
1152,新北市三重區綜合運動場-2,NewTaipei,中華電信,三重區,新北市三重區新北大道1段11號,新北市三重區公所,25.061155,121.48837,299275.03,2772645.07,121.4884,25.061199
1153,新北市立圖書館樹林分館3F-1_A,NewTaipei,中華電信,樹林區,新北市樹林區樹新路40-7號3樓,新北市立圖書館,24.995907,121.429182,293256.84,2765418.38,121.428524,24.99614
1154,新北市立圖書館樹林分館3F-1_B,NewTaipei,中華電信,樹林區,新北市樹林區樹新路40-7號3樓,新北市立圖書館,24.995907,121.429182,293256.84,2765418.38,121.428524,24.99614
1155,新北市立圖書館樹林分館4F-1_A,NewTaipei,中華電信,樹林區,新北市樹林區樹新路40-7號4樓,新北市立圖書館,24.995907,121.429182,293256.84,2765418.38,121.428524,24.99614
1156,新北市立圖書館樹林分館4F-1_B,NewTaipei,中華電信,樹林區,新北市樹林區樹新路40-7號4樓,新北市立圖書館,24.995907,121.429182,293256.84,2765418.38,121.428524,24.99614
1157,新北市立圖書館樹林分館3、4F_A,NewTaipei,中華電信,樹林區,新北市樹林區樹新路40-7號3、4樓,新北市立圖書館,24.995907,121.429182,293256.84,2765418.38,121.428524,24.99614
1158,新北市立圖書館樹林分館3、4F_B,NewTaipei,中華電信,樹林區,新北市樹林區樹新路40-7號3、4樓,新北市立圖書館,24.995907,121.429182,293256.84,2765418.38,121.428524,24.99614
1159,新北市客家文化園區-7_A,NewTaipei,中華電信,三峽區,新北市三峽區隆恩街239號2樓,新北市政府客家事務局,24.94175,121.359767,286337.85,2759369.32,121.359823,24.941709
1160,新北市客家文化園區-7_B,NewTaipei,中華電信,三峽區,新北市三峽區隆恩街239號2樓,新北市政府客家事務局,24.94175,121.359767,286337.85,2759369.32,121.359823,24.941709
1161,新北市客家文化園區-7_C,NewTaipei,中華電信,三峽區,新北市三峽區隆恩街239號2樓,新北市政府客家事務局,24.94175,121.359767,286337.85,2759369.32,121.359823,24.941709
1162,新北市立淡水古蹟博物館-1,NewTaipei,中華電信,淡水區,新北市淡水區中正路1段6巷32-2號,新北市政府文化局,25.179236,121.430288,293469.33,2785622.6,121.431267,25.178538
1163,新北市立淡水古蹟博物館-2,NewTaipei,中華電信,淡水區,新北市淡水區中正路1段6巷32-2號,新北市政府文化局,25.179236,121.430288,293469.33,2785622.6,121.431267,25.178538
1164,新北市立淡水古蹟博物館-3,NewTaipei,中華電信,淡水區,新北市淡水區中正路1段6巷32-2號,新北市政府文化局,25.179236,121.430288,293469.33,2785622.6,121.431267,25.178538
1165,新北市立黃金博物館-1,NewTaipei,中華電信,瑞芳區,新北市瑞芳區金光路8號1樓,新北市政府文化局,25.108349,121.856252,336675.92,2777822.89,121.859407,25.106258
1166,新北市立黃金博物館-2,NewTaipei,中華電信,瑞芳區,新北市瑞芳區金光路8號1樓,新北市政府文化局,25.108349,121.856252,336675.92,2777822.89,121.859407,25.106258
1167,新北市立黃金博物館-3,NewTaipei,中華電信,瑞芳區,新北市瑞芳區金光路8號1樓,新北市政府文化局,25.108349,121.856252,336675.92,2777822.89,121.859407,25.106258
1168,新北市立黃金博物館-4,NewTaipei,中華電信,瑞芳區,新北市瑞芳區金光路8號1樓,新北市政府文化局,25.108349,121.856252,335124.6,2777917.84,121.844033,25.107204
1169,新北市立黃金博物館-5,NewTaipei,中華電信,瑞芳區,新北市瑞芳區金光路8號1樓,新北市政府文化局,25.108349,121.856252,336675.92,2777822.89,121.859407,25.106258
1170,十分旅遊服務中心-1,NewTaipei,中華電信,平溪區,新北市平溪區南山村南山坪136號1樓,新北市政府觀光旅遊局,25.04378,121.782648,324499.79,2768927.87,121.738206,25.026609
1171,十分旅遊服務中心-2,NewTaipei,中華電信,平溪區,新北市平溪區南山村南山坪136號1樓,新北市政府觀光旅遊局,25.04378,121.782648,324499.79,2768927.87,121.738206,25.026609
1172,十分旅遊服務中心-3,NewTaipei,中華電信,平溪區,新北市平溪區南山村南山坪136號1樓,新北市政府觀光旅遊局,25.04378,121.782648,331682.8,2778078.51,121.809919,25.108845
1173,新北市坪林茶業博物館-2,NewTaipei,中華電信,坪林區,新北市坪林區水德里水聳淒坑19-1號1樓,新北市政府文化局,24.924444,121.726667,321985.49,2758693.35,121.712761,24.934336
1174,板橋府前廣場-市民廣場筍燈西側Tower,NewTaipei,中華電信,板橋區,新北市板橋區縣民大道二段22號B1F,新北市板橋區公所,25.013406,121.464562,296978.24,2767277.17,121.465452,25.01281
1175,板橋府前廣場-市民廣場筍燈東側Tower,NewTaipei,中華電信,板橋區,新北市板橋區縣民大道二段22號B1F,新北市板橋區公所,25.01376,121.464968,296978.24,2767277.17,121.465452,25.01281
1176,板橋府前廣場-新北市政府廣場西側天橋-1,NewTaipei,中華電信,板橋區,新北市板橋區中山路1段161號B1停車場旁,新北市板橋區公所,25.01285,121.46448,296995.84,2767196.47,121.465624,25.012081
1177,板橋府前廣場-新北市政府廣場西側天橋-2,NewTaipei,中華電信,板橋區,新北市板橋區中山路1段161號B1停車場旁,新北市板橋區公所,25.01285,121.46448,296995.84,2767196.47,121.465624,25.012081
1178,板橋府前廣場-新北市政府廣場西側天橋-3,NewTaipei,中華電信,板橋區,新北市板橋區中山路1段161號B1停車場旁,新北市板橋區公所,25.012784,121.465236,296995.84,2767196.47,121.465624,25.012081
1179,板橋府前廣場-新北市政府廣場東側天橋-1,NewTaipei,中華電信,板橋區,新北市板橋區縣民大道二段22號1F,新北市板橋區公所,25.01331,121.46555,296978.24,2767277.17,121.465452,25.01281
1180,板橋府前廣場-新北市政府廣場東側天橋-2,NewTaipei,中華電信,板橋區,新北市板橋區縣民大道二段22號1F,新北市板橋區公所,25.01331,121.46555,296978.24,2767277.17,121.465452,25.01281
1181,板橋府前廣場-新北市政府廣場東側天橋-3,NewTaipei,中華電信,板橋區,新北市板橋區縣民大道二段22號1F,新北市板橋區公所,25.013544,121.465534,296978.24,2767277.17,121.465452,25.01281
1182,板橋府前廣場-新北市政府廣場門口控制室上,NewTaipei,中華電信,板橋區,新北市板橋區縣民大道二段22號1F,新北市板橋區公所,25.01289,121.46525,296978.24,2767277.17,121.465452,25.01281
